<?xml version="1.0" encoding="utf-8"?>
<gpx xmlns:xsd="http://www.w3.org/2001/XMLSchema" xmlns:xsi="http://www.w3.org/2001/XMLSchema-instance" creator="eT4 META" version="1.1" xsi:schemaLocation="http://www.topografix.com/GPX/1/1 http://www.topografix.com/GPX/1/1/gpx.xsd" xmlns="http://www.topografix.com/GPX/1/1">
  <trk>
    <name>Au Niesenbänkli, non seulement les curistes se reposent</name>
    <trkseg>
      <trkpt lat="46.75054" lon="7.69392">
        <ele>1156.58</ele>
        <time>2026-05-04T00:00:00.0000000+00:00</time>
      </trkpt>
      <trkpt lat="46.75057" lon="7.69405">
        <ele>1158.81</ele>
        <time>2026-05-04T00:00:11.4090000+00:00</time>
      </trkpt>
      <trkpt lat="46.75058" lon="7.69418">
        <ele>1160.41</ele>
        <time>2026-05-04T00:00:22.2910000+00:00</time>
      </trkpt>
      <trkpt lat="46.7506" lon="7.69436">
        <ele>1162.92</ele>
        <time>2026-05-04T00:00:37.4590000+00:00</time>
      </trkpt>
      <trkpt lat="46.7506" lon="7.69452">
        <ele>1165.13</ele>
        <time>2026-05-04T00:00:50.7670000+00:00</time>
      </trkpt>
      <trkpt lat="46.75059" lon="7.69463">
        <ele>1166.51</ele>
        <time>2026-05-04T00:00:59.9970000+00:00</time>
      </trkpt>
      <trkpt lat="46.75059" lon="7.69469">
        <ele>1167.48</ele>
        <time>2026-05-04T00:01:04.9890000+00:00</time>
      </trkpt>
      <trkpt lat="46.75056" lon="7.69488">
        <ele>1169.34</ele>
        <time>2026-05-04T00:01:21.2080000+00:00</time>
      </trkpt>
      <trkpt lat="46.75052" lon="7.69507">
        <ele>1170.78</ele>
        <time>2026-05-04T00:01:37.7410000+00:00</time>
      </trkpt>
      <trkpt lat="46.75047" lon="7.69522">
        <ele>1171.15</ele>
        <time>2026-05-04T00:01:51.6160000+00:00</time>
      </trkpt>
      <trkpt lat="46.75042" lon="7.69534">
        <ele>1171.82</ele>
        <time>2026-05-04T00:02:03.2980000+00:00</time>
      </trkpt>
      <trkpt lat="46.75034" lon="7.6955">
        <ele>1172.48</ele>
        <time>2026-05-04T00:02:19.7740000+00:00</time>
      </trkpt>
      <trkpt lat="46.75024" lon="7.69566">
        <ele>1172.13</ele>
        <time>2026-05-04T00:02:37.7880000+00:00</time>
      </trkpt>
      <trkpt lat="46.75015" lon="7.69582">
        <ele>1171.91</ele>
        <time>2026-05-04T00:02:55.0060000+00:00</time>
      </trkpt>
      <trkpt lat="46.75009" lon="7.69591">
        <ele>1171.13</ele>
        <time>2026-05-04T00:03:05.4510000+00:00</time>
      </trkpt>
      <trkpt lat="46.75005" lon="7.69601">
        <ele>1171.37</ele>
        <time>2026-05-04T00:03:15.0830000+00:00</time>
      </trkpt>
      <trkpt lat="46.75" lon="7.69617">
        <ele>1171.03</ele>
        <time>2026-05-04T00:03:29.7100000+00:00</time>
      </trkpt>
      <trkpt lat="46.74997" lon="7.69633">
        <ele>1170.49</ele>
        <time>2026-05-04T00:03:43.5080000+00:00</time>
      </trkpt>
      <trkpt lat="46.74994" lon="7.69669">
        <ele>1171.12</ele>
        <time>2026-05-04T00:04:13.6730000+00:00</time>
      </trkpt>
      <trkpt lat="46.7499" lon="7.69724">
        <ele>1168.26</ele>
        <time>2026-05-04T00:04:59.6790000+00:00</time>
      </trkpt>
      <trkpt lat="46.74988" lon="7.69756">
        <ele>1165.23</ele>
        <time>2026-05-04T00:05:26.4070000+00:00</time>
      </trkpt>
      <trkpt lat="46.74987" lon="7.69768">
        <ele>1164.01</ele>
        <time>2026-05-04T00:05:36.4610000+00:00</time>
      </trkpt>
      <trkpt lat="46.74988" lon="7.69785">
        <ele>1164.19</ele>
        <time>2026-05-04T00:05:50.6530000+00:00</time>
      </trkpt>
      <trkpt lat="46.7499" lon="7.69812">
        <ele>1165.54</ele>
        <time>2026-05-04T00:06:13.2430000+00:00</time>
      </trkpt>
      <trkpt lat="46.74991" lon="7.69826">
        <ele>1166.22</ele>
        <time>2026-05-04T00:06:24.9510000+00:00</time>
      </trkpt>
      <trkpt lat="46.7499" lon="7.69838">
        <ele>1165.97</ele>
        <time>2026-05-04T00:06:35.0060000+00:00</time>
      </trkpt>
      <trkpt lat="46.74988" lon="7.69852">
        <ele>1165.31</ele>
        <time>2026-05-04T00:06:46.9020000+00:00</time>
      </trkpt>
      <trkpt lat="46.74986" lon="7.69866">
        <ele>1164.35</ele>
        <time>2026-05-04T00:06:58.7970000+00:00</time>
      </trkpt>
      <trkpt lat="46.74983" lon="7.69881">
        <ele>1162.65</ele>
        <time>2026-05-04T00:07:11.7950000+00:00</time>
      </trkpt>
      <trkpt lat="46.74982" lon="7.69894">
        <ele>1161.9</ele>
        <time>2026-05-04T00:07:22.6760000+00:00</time>
      </trkpt>
      <trkpt lat="46.74981" lon="7.69904">
        <ele>1161.21</ele>
        <time>2026-05-04T00:07:31.0830000+00:00</time>
      </trkpt>
      <trkpt lat="46.74982" lon="7.69914">
        <ele>1161.42</ele>
        <time>2026-05-04T00:07:39.4890000+00:00</time>
      </trkpt>
      <trkpt lat="46.74984" lon="7.69934">
        <ele>1161.83</ele>
        <time>2026-05-04T00:07:56.3020000+00:00</time>
      </trkpt>
      <trkpt lat="46.74987" lon="7.69956">
        <ele>1162.95</ele>
        <time>2026-05-04T00:08:14.9600000+00:00</time>
      </trkpt>
      <trkpt lat="46.74989" lon="7.69974">
        <ele>1163.74</ele>
        <time>2026-05-04T00:08:30.1280000+00:00</time>
      </trkpt>
      <trkpt lat="46.7499" lon="7.69988">
        <ele>1164.08</ele>
        <time>2026-05-04T00:08:41.8360000+00:00</time>
      </trkpt>
      <trkpt lat="46.74989" lon="7.70001">
        <ele>1163.63</ele>
        <time>2026-05-04T00:08:52.7170000+00:00</time>
      </trkpt>
      <trkpt lat="46.74987" lon="7.70016">
        <ele>1162.83</ele>
        <time>2026-05-04T00:09:05.4280000+00:00</time>
      </trkpt>
      <trkpt lat="46.74983" lon="7.7003">
        <ele>1161.41</ele>
        <time>2026-05-04T00:09:18.0450000+00:00</time>
      </trkpt>
      <trkpt lat="46.7498" lon="7.70043">
        <ele>1160.49</ele>
        <time>2026-05-04T00:09:29.4560000+00:00</time>
      </trkpt>
      <trkpt lat="46.74975" lon="7.7006">
        <ele>1159.12</ele>
        <time>2026-05-04T00:09:44.8440000+00:00</time>
      </trkpt>
      <trkpt lat="46.74958" lon="7.70096">
        <ele>1155.39</ele>
        <time>2026-05-04T00:10:21.2120000+00:00</time>
      </trkpt>
      <trkpt lat="46.74937" lon="7.70122">
        <ele>1152.09</ele>
        <time>2026-05-04T00:10:54.6430000+00:00</time>
      </trkpt>
      <trkpt lat="46.74915" lon="7.70148">
        <ele>1152.13</ele>
        <time>2026-05-04T00:11:29.0080000+00:00</time>
      </trkpt>
      <trkpt lat="46.74899" lon="7.7016">
        <ele>1152.1</ele>
        <time>2026-05-04T00:11:50.8470000+00:00</time>
      </trkpt>
      <trkpt lat="46.74891" lon="7.70165">
        <ele>1152.11</ele>
        <time>2026-05-04T00:12:01.4120000+00:00</time>
      </trkpt>
      <trkpt lat="46.748779999999996" lon="7.70175">
        <ele>1152.62</ele>
        <time>2026-05-04T00:12:19.2520000+00:00</time>
      </trkpt>
      <trkpt lat="46.74867" lon="7.70185">
        <ele>1153.53</ele>
        <time>2026-05-04T00:12:34.9840000+00:00</time>
      </trkpt>
      <trkpt lat="46.74859" lon="7.70202">
        <ele>1156.97</ele>
        <time>2026-05-04T00:12:52.1380000+00:00</time>
      </trkpt>
      <trkpt lat="46.74855" lon="7.7022">
        <ele>1161.55</ele>
        <time>2026-05-04T00:13:07.8790000+00:00</time>
      </trkpt>
      <trkpt lat="46.74853" lon="7.7024">
        <ele>1166.68</ele>
        <time>2026-05-04T00:13:24.6910000+00:00</time>
      </trkpt>
      <trkpt lat="46.74848" lon="7.70252">
        <ele>1169.29</ele>
        <time>2026-05-04T00:13:36.3730000+00:00</time>
      </trkpt>
      <trkpt lat="46.74843" lon="7.70254">
        <ele>1169.26</ele>
        <time>2026-05-04T00:13:42.6670000+00:00</time>
      </trkpt>
      <trkpt lat="46.74829" lon="7.70246">
        <ele>1165.68</ele>
        <time>2026-05-04T00:14:00.9180000+00:00</time>
      </trkpt>
      <trkpt lat="46.74821" lon="7.7024">
        <ele>1163.32</ele>
        <time>2026-05-04T00:14:11.8370000+00:00</time>
      </trkpt>
      <trkpt lat="46.74809" lon="7.70238">
        <ele>1161.57</ele>
        <time>2026-05-04T00:14:26.4990000+00:00</time>
      </trkpt>
      <trkpt lat="46.74791" lon="7.70247">
        <ele>1161.82</ele>
        <time>2026-05-04T00:14:49.5970000+00:00</time>
      </trkpt>
      <trkpt lat="46.74769" lon="7.70266">
        <ele>1163.84</ele>
        <time>2026-05-04T00:15:20.6310000+00:00</time>
      </trkpt>
      <trkpt lat="46.74763" lon="7.70268">
        <ele>1163.85</ele>
        <time>2026-05-04T00:15:28.1020000+00:00</time>
      </trkpt>
      <trkpt lat="46.74743" lon="7.70271">
        <ele>1163.07</ele>
        <time>2026-05-04T00:15:52.5090000+00:00</time>
      </trkpt>
      <trkpt lat="46.74713" lon="7.70272">
        <ele>1161.12</ele>
        <time>2026-05-04T00:16:28.9380000+00:00</time>
      </trkpt>
      <trkpt lat="46.74708" lon="7.70268">
        <ele>1159.73</ele>
        <time>2026-05-04T00:16:35.8590000+00:00</time>
      </trkpt>
      <trkpt lat="46.74705" lon="7.70266">
        <ele>1158.99</ele>
        <time>2026-05-04T00:16:39.8640000+00:00</time>
      </trkpt>
      <trkpt lat="46.74703" lon="7.7026">
        <ele>1157.29</ele>
        <time>2026-05-04T00:16:45.4150000+00:00</time>
      </trkpt>
      <trkpt lat="46.74704" lon="7.70254">
        <ele>1155.83</ele>
        <time>2026-05-04T00:16:50.5510000+00:00</time>
      </trkpt>
      <trkpt lat="46.7471" lon="7.70245">
        <ele>1154.02</ele>
        <time>2026-05-04T00:17:00.9970000+00:00</time>
      </trkpt>
      <trkpt lat="46.7472" lon="7.70234">
        <ele>1152.12</ele>
        <time>2026-05-04T00:17:16.1990000+00:00</time>
      </trkpt>
      <trkpt lat="46.74729" lon="7.7022">
        <ele>1149.48</ele>
        <time>2026-05-04T00:17:32.1680000+00:00</time>
      </trkpt>
      <trkpt lat="46.74737" lon="7.70184">
        <ele>1141.69</ele>
        <time>2026-05-04T00:18:03.6490000+00:00</time>
      </trkpt>
      <trkpt lat="46.74742" lon="7.7017">
        <ele>1139</ele>
        <time>2026-05-04T00:18:16.7820000+00:00</time>
      </trkpt>
      <trkpt lat="46.74749" lon="7.7016">
        <ele>1137.12</ele>
        <time>2026-05-04T00:18:28.6730000+00:00</time>
      </trkpt>
      <trkpt lat="46.74749" lon="7.70141">
        <ele>1132.59</ele>
        <time>2026-05-04T00:18:44.4790000+00:00</time>
      </trkpt>
      <trkpt lat="46.74753" lon="7.70124">
        <ele>1128.51</ele>
        <time>2026-05-04T00:18:59.4300000+00:00</time>
      </trkpt>
      <trkpt lat="46.74754" lon="7.70108">
        <ele>1124.56</ele>
        <time>2026-05-04T00:19:12.7950000+00:00</time>
      </trkpt>
      <trkpt lat="46.7475" lon="7.7009">
        <ele>1120.66</ele>
        <time>2026-05-04T00:19:28.5350000+00:00</time>
      </trkpt>
      <trkpt lat="46.74728" lon="7.70095">
        <ele>1123.29</ele>
        <time>2026-05-04T00:19:55.5650000+00:00</time>
      </trkpt>
      <trkpt lat="46.74702" lon="7.70099">
        <ele>1125.5</ele>
        <time>2026-05-04T00:20:27.3030000+00:00</time>
      </trkpt>
      <trkpt lat="46.74678" lon="7.70097">
        <ele>1129.03</ele>
        <time>2026-05-04T00:20:56.4860000+00:00</time>
      </trkpt>
      <trkpt lat="46.74649" lon="7.70101">
        <ele>1138.05</ele>
        <time>2026-05-04T00:21:31.8480000+00:00</time>
      </trkpt>
      <trkpt lat="46.7462" lon="7.70105">
        <ele>1147.51</ele>
        <time>2026-05-04T00:22:07.2100000+00:00</time>
      </trkpt>
      <trkpt lat="46.74586" lon="7.70103">
        <ele>1154.9</ele>
        <time>2026-05-04T00:22:48.5180000+00:00</time>
      </trkpt>
      <trkpt lat="46.74549" lon="7.70091">
        <ele>1158.26</ele>
        <time>2026-05-04T00:23:34.5310000+00:00</time>
      </trkpt>
      <trkpt lat="46.74541" lon="7.70088">
        <ele>1158.87</ele>
        <time>2026-05-04T00:23:44.5580000+00:00</time>
      </trkpt>
      <trkpt lat="46.74526" lon="7.70087">
        <ele>1161.11</ele>
        <time>2026-05-04T00:24:02.7870000+00:00</time>
      </trkpt>
      <trkpt lat="46.74507" lon="7.7009">
        <ele>1164.71</ele>
        <time>2026-05-04T00:24:25.9870000+00:00</time>
      </trkpt>
      <trkpt lat="46.74485" lon="7.70099">
        <ele>1170.49</ele>
        <time>2026-05-04T00:24:53.7240000+00:00</time>
      </trkpt>
      <trkpt lat="46.74472" lon="7.70103">
        <ele>1173.72</ele>
        <time>2026-05-04T00:25:09.8520000+00:00</time>
      </trkpt>
      <trkpt lat="46.74463" lon="7.70099">
        <ele>1173.95</ele>
        <time>2026-05-04T00:25:21.2730000+00:00</time>
      </trkpt>
      <trkpt lat="46.74459" lon="7.70082">
        <ele>1169.28</ele>
        <time>2026-05-04T00:25:36.2250000+00:00</time>
      </trkpt>
      <trkpt lat="46.74456" lon="7.70075">
        <ele>1167.48</ele>
        <time>2026-05-04T00:25:43.0930000+00:00</time>
      </trkpt>
      <trkpt lat="46.7445" lon="7.70061">
        <ele>1163.75</ele>
        <time>2026-05-04T00:25:56.8290000+00:00</time>
      </trkpt>
      <trkpt lat="46.74435" lon="7.70034">
        <ele>1156.83</ele>
        <time>2026-05-04T00:26:25.7440000+00:00</time>
      </trkpt>
      <trkpt lat="46.74426" lon="7.70018">
        <ele>1155.61</ele>
        <time>2026-05-04T00:26:42.9640000+00:00</time>
      </trkpt>
      <trkpt lat="46.74421" lon="7.7001">
        <ele>1156.02</ele>
        <time>2026-05-04T00:26:51.9710000+00:00</time>
      </trkpt>
      <trkpt lat="46.74414" lon="7.70001">
        <ele>1156.74</ele>
        <time>2026-05-04T00:27:03.2970000+00:00</time>
      </trkpt>
      <trkpt lat="46.74408" lon="7.69997">
        <ele>1157.77</ele>
        <time>2026-05-04T00:27:11.3050000+00:00</time>
      </trkpt>
      <trkpt lat="46.74402" lon="7.69994">
        <ele>1158.89</ele>
        <time>2026-05-04T00:27:19.0050000+00:00</time>
      </trkpt>
      <trkpt lat="46.74393" lon="7.69992">
        <ele>1160.9</ele>
        <time>2026-05-04T00:27:30.0560000+00:00</time>
      </trkpt>
      <trkpt lat="46.74384" lon="7.69991">
        <ele>1163.03</ele>
        <time>2026-05-04T00:27:41.0140000+00:00</time>
      </trkpt>
      <trkpt lat="46.74364" lon="7.69988">
        <ele>1167.56</ele>
        <time>2026-05-04T00:28:05.4210000+00:00</time>
      </trkpt>
      <trkpt lat="46.74341" lon="7.69982">
        <ele>1171.26</ele>
        <time>2026-05-04T00:28:33.7850000+00:00</time>
      </trkpt>
      <trkpt lat="46.7433" lon="7.6998">
        <ele>1172.8</ele>
        <time>2026-05-04T00:28:47.2420000+00:00</time>
      </trkpt>
      <trkpt lat="46.74314" lon="7.69979">
        <ele>1175.41</ele>
        <time>2026-05-04T00:29:06.6830000+00:00</time>
      </trkpt>
      <trkpt lat="46.74302" lon="7.69976">
        <ele>1176.67</ele>
        <time>2026-05-04T00:29:21.4640000+00:00</time>
      </trkpt>
      <trkpt lat="46.74297" lon="7.69976">
        <ele>1177.54</ele>
        <time>2026-05-04T00:29:27.5340000+00:00</time>
      </trkpt>
      <trkpt lat="46.74282" lon="7.69979">
        <ele>1181.11</ele>
        <time>2026-05-04T00:29:45.9130000+00:00</time>
      </trkpt>
      <trkpt lat="46.74272" lon="7.6998">
        <ele>1183.23</ele>
        <time>2026-05-04T00:29:58.0820000+00:00</time>
      </trkpt>
      <trkpt lat="46.74264" lon="7.6998">
        <ele>1182.96</ele>
        <time>2026-05-04T00:30:07.7930000+00:00</time>
      </trkpt>
      <trkpt lat="46.74256" lon="7.69979">
        <ele>1182.24</ele>
        <time>2026-05-04T00:30:17.5400000+00:00</time>
      </trkpt>
      <trkpt lat="46.74243" lon="7.69972">
        <ele>1179.43</ele>
        <time>2026-05-04T00:30:34.3620000+00:00</time>
      </trkpt>
      <trkpt lat="46.74222" lon="7.69962">
        <ele>1175.76</ele>
        <time>2026-05-04T00:31:01.1780000+00:00</time>
      </trkpt>
      <trkpt lat="46.74207" lon="7.69954">
        <ele>1173.25</ele>
        <time>2026-05-04T00:31:20.5660000+00:00</time>
      </trkpt>
      <trkpt lat="46.74202" lon="7.69951">
        <ele>1172.4</ele>
        <time>2026-05-04T00:31:27.1290000+00:00</time>
      </trkpt>
      <trkpt lat="46.74174" lon="7.69953">
        <ele>1172.81</ele>
        <time>2026-05-04T00:32:01.1610000+00:00</time>
      </trkpt>
      <trkpt lat="46.74148" lon="7.69965">
        <ele>1175.67</ele>
        <time>2026-05-04T00:32:34.2650000+00:00</time>
      </trkpt>
      <trkpt lat="46.74138" lon="7.69969">
        <ele>1176.56</ele>
        <time>2026-05-04T00:32:46.8520000+00:00</time>
      </trkpt>
      <trkpt lat="46.74133" lon="7.69969">
        <ele>1176.57</ele>
        <time>2026-05-04T00:32:52.9230000+00:00</time>
      </trkpt>
      <trkpt lat="46.74129" lon="7.69967">
        <ele>1176.14</ele>
        <time>2026-05-04T00:32:58.0560000+00:00</time>
      </trkpt>
      <trkpt lat="46.74127" lon="7.69965">
        <ele>1175.71</ele>
        <time>2026-05-04T00:33:01.0020000+00:00</time>
      </trkpt>
      <trkpt lat="46.74125" lon="7.69957">
        <ele>1174.01</ele>
        <time>2026-05-04T00:33:08.0860000+00:00</time>
      </trkpt>
      <trkpt lat="46.74123" lon="7.69946">
        <ele>1171.69</ele>
        <time>2026-05-04T00:33:17.5540000+00:00</time>
      </trkpt>
      <trkpt lat="46.74121" lon="7.69902">
        <ele>1164.05</ele>
        <time>2026-05-04T00:33:54.2390000+00:00</time>
      </trkpt>
      <trkpt lat="46.74119" lon="7.69865">
        <ele>1157.92</ele>
        <time>2026-05-04T00:34:25.1160000+00:00</time>
      </trkpt>
      <trkpt lat="46.74117" lon="7.69848">
        <ele>1156.16</ele>
        <time>2026-05-04T00:34:39.4660000+00:00</time>
      </trkpt>
      <trkpt lat="46.74115" lon="7.69822">
        <ele>1154.31</ele>
        <time>2026-05-04T00:35:01.2310000+00:00</time>
      </trkpt>
      <trkpt lat="46.74115" lon="7.69784">
        <ele>1151.35</ele>
        <time>2026-05-04T00:35:32.8440000+00:00</time>
      </trkpt>
      <trkpt lat="46.74112" lon="7.69759">
        <ele>1149.99</ele>
        <time>2026-05-04T00:35:53.9590000+00:00</time>
      </trkpt>
      <trkpt lat="46.74108" lon="7.69732">
        <ele>1148.88</ele>
        <time>2026-05-04T00:36:16.9390000+00:00</time>
      </trkpt>
      <trkpt lat="46.74104" lon="7.69696">
        <ele>1147.53</ele>
        <time>2026-05-04T00:36:47.2800000+00:00</time>
      </trkpt>
      <trkpt lat="46.74093" lon="7.69681">
        <ele>1149.52</ele>
        <time>2026-05-04T00:37:05.5570000+00:00</time>
      </trkpt>
      <trkpt lat="46.74082" lon="7.6967">
        <ele>1151.71</ele>
        <time>2026-05-04T00:37:21.7450000+00:00</time>
      </trkpt>
      <trkpt lat="46.74072" lon="7.6966">
        <ele>1153.68</ele>
        <time>2026-05-04T00:37:36.4620000+00:00</time>
      </trkpt>
      <trkpt lat="46.74064" lon="7.69652">
        <ele>1155.22</ele>
        <time>2026-05-04T00:37:48.2360000+00:00</time>
      </trkpt>
      <trkpt lat="46.74054" lon="7.69644">
        <ele>1157.37</ele>
        <time>2026-05-04T00:38:02.0800000+00:00</time>
      </trkpt>
      <trkpt lat="46.74048" lon="7.69639">
        <ele>1158.62</ele>
        <time>2026-05-04T00:38:10.4680000+00:00</time>
      </trkpt>
      <trkpt lat="46.74043" lon="7.69634">
        <ele>1159.55</ele>
        <time>2026-05-04T00:38:17.8270000+00:00</time>
      </trkpt>
      <trkpt lat="46.74036" lon="7.69624">
        <ele>1160.5</ele>
        <time>2026-05-04T00:38:29.7190000+00:00</time>
      </trkpt>
      <trkpt lat="46.74017" lon="7.69598">
        <ele>1161.3</ele>
        <time>2026-05-04T00:39:01.3400000+00:00</time>
      </trkpt>
      <trkpt lat="46.7401" lon="7.69589">
        <ele>1160.86</ele>
        <time>2026-05-04T00:39:12.6660000+00:00</time>
      </trkpt>
      <trkpt lat="46.74003" lon="7.69583">
        <ele>1161.32</ele>
        <time>2026-05-04T00:39:22.5220000+00:00</time>
      </trkpt>
      <trkpt lat="46.73997" lon="7.6958">
        <ele>1162.35</ele>
        <time>2026-05-04T00:39:30.2210000+00:00</time>
      </trkpt>
      <trkpt lat="46.73988" lon="7.69578">
        <ele>1164.61</ele>
        <time>2026-05-04T00:39:41.2720000+00:00</time>
      </trkpt>
      <trkpt lat="46.73974" lon="7.69576">
        <ele>1168.44</ele>
        <time>2026-05-04T00:39:58.3490000+00:00</time>
      </trkpt>
      <trkpt lat="46.73965" lon="7.69576">
        <ele>1171.25</ele>
        <time>2026-05-04T00:40:09.2750000+00:00</time>
      </trkpt>
      <trkpt lat="46.73957" lon="7.69578">
        <ele>1174.23</ele>
        <time>2026-05-04T00:40:19.1280000+00:00</time>
      </trkpt>
      <trkpt lat="46.7394" lon="7.69584">
        <ele>1180.88</ele>
        <time>2026-05-04T00:40:40.3610000+00:00</time>
      </trkpt>
      <trkpt lat="46.73932" lon="7.69589">
        <ele>1181.66</ele>
        <time>2026-05-04T00:40:50.9270000+00:00</time>
      </trkpt>
      <trkpt lat="46.73917" lon="7.6958">
        <ele>1177.93</ele>
        <time>2026-05-04T00:41:10.6160000+00:00</time>
      </trkpt>
      <trkpt lat="46.73909" lon="7.69575">
        <ele>1176.09</ele>
        <time>2026-05-04T00:41:21.1820000+00:00</time>
      </trkpt>
      <trkpt lat="46.73902" lon="7.69569">
        <ele>1174.33</ele>
        <time>2026-05-04T00:41:31.0370000+00:00</time>
      </trkpt>
      <trkpt lat="46.73896" lon="7.69563">
        <ele>1172.8</ele>
        <time>2026-05-04T00:41:39.8670000+00:00</time>
      </trkpt>
      <trkpt lat="46.73888" lon="7.69553">
        <ele>1170.68</ele>
        <time>2026-05-04T00:41:52.6550000+00:00</time>
      </trkpt>
      <trkpt lat="46.73873" lon="7.69533">
        <ele>1167.3</ele>
        <time>2026-05-04T00:42:17.3220000+00:00</time>
      </trkpt>
      <trkpt lat="46.73851" lon="7.695">
        <ele>1160.23</ele>
        <time>2026-05-04T00:42:55.6240000+00:00</time>
      </trkpt>
      <trkpt lat="46.73827" lon="7.6946">
        <ele>1156.91</ele>
        <time>2026-05-04T00:43:39.8540000+00:00</time>
      </trkpt>
      <trkpt lat="46.73815" lon="7.69445">
        <ele>1157.94</ele>
        <time>2026-05-04T00:43:59.0360000+00:00</time>
      </trkpt>
      <trkpt lat="46.7381" lon="7.69437">
        <ele>1158.11</ele>
        <time>2026-05-04T00:44:08.0440000+00:00</time>
      </trkpt>
      <trkpt lat="46.738" lon="7.6942">
        <ele>1158.39</ele>
        <time>2026-05-04T00:44:26.6830000+00:00</time>
      </trkpt>
      <trkpt lat="46.73787" lon="7.69397">
        <ele>1159.57</ele>
        <time>2026-05-04T00:44:51.4870000+00:00</time>
      </trkpt>
      <trkpt lat="46.73767" lon="7.69363">
        <ele>1161.05</ele>
        <time>2026-05-04T00:45:28.7650000+00:00</time>
      </trkpt>
      <trkpt lat="46.73744" lon="7.69328">
        <ele>1151.62</ele>
        <time>2026-05-04T00:46:09.1080000+00:00</time>
      </trkpt>
      <trkpt lat="46.73733" lon="7.69311">
        <ele>1148.19</ele>
        <time>2026-05-04T00:46:28.5590000+00:00</time>
      </trkpt>
      <trkpt lat="46.73718" lon="7.6929">
        <ele>1145.42</ele>
        <time>2026-05-04T00:46:53.7950000+00:00</time>
      </trkpt>
      <trkpt lat="46.73706" lon="7.69274">
        <ele>1144.28</ele>
        <time>2026-05-04T00:47:13.5280000+00:00</time>
      </trkpt>
      <trkpt lat="46.73701" lon="7.69269">
        <ele>1143.69</ele>
        <time>2026-05-04T00:47:20.8860000+00:00</time>
      </trkpt>
      <trkpt lat="46.73694" lon="7.69263">
        <ele>1143.27</ele>
        <time>2026-05-04T00:47:30.7420000+00:00</time>
      </trkpt>
      <trkpt lat="46.73672" lon="7.69247">
        <ele>1137.65</ele>
        <time>2026-05-04T00:48:00.5830000+00:00</time>
      </trkpt>
      <trkpt lat="46.7366" lon="7.69236">
        <ele>1133.87</ele>
        <time>2026-05-04T00:48:17.7870000+00:00</time>
      </trkpt>
      <trkpt lat="46.7365" lon="7.69227">
        <ele>1131.24</ele>
        <time>2026-05-04T00:48:32.0500000+00:00</time>
      </trkpt>
      <trkpt lat="46.73644" lon="7.69222">
        <ele>1129.92</ele>
        <time>2026-05-04T00:48:40.4380000+00:00</time>
      </trkpt>
      <trkpt lat="46.73634" lon="7.69217">
        <ele>1128.36</ele>
        <time>2026-05-04T00:48:53.2710000+00:00</time>
      </trkpt>
      <trkpt lat="46.7363" lon="7.69216">
        <ele>1127.89</ele>
        <time>2026-05-04T00:48:58.1980000+00:00</time>
      </trkpt>
      <trkpt lat="46.7362" lon="7.6921">
        <ele>1126.59</ele>
        <time>2026-05-04T00:49:11.3240000+00:00</time>
      </trkpt>
      <trkpt lat="46.73599" lon="7.69194">
        <ele>1123.13</ele>
        <time>2026-05-04T00:49:40.0840000+00:00</time>
      </trkpt>
      <trkpt lat="46.73578" lon="7.69179">
        <ele>1113.84</ele>
        <time>2026-05-04T00:50:08.4680000+00:00</time>
      </trkpt>
      <trkpt lat="46.73561" lon="7.69169">
        <ele>1107.67</ele>
        <time>2026-05-04T00:50:30.7200000+00:00</time>
      </trkpt>
      <trkpt lat="46.73554" lon="7.69166">
        <ele>1105.58</ele>
        <time>2026-05-04T00:50:39.5760000+00:00</time>
      </trkpt>
      <trkpt lat="46.73549" lon="7.69166">
        <ele>1104.46</ele>
        <time>2026-05-04T00:50:45.6460000+00:00</time>
      </trkpt>
      <trkpt lat="46.73542" lon="7.69168">
        <ele>1103.12</ele>
        <time>2026-05-04T00:50:54.3050000+00:00</time>
      </trkpt>
      <trkpt lat="46.73534" lon="7.69169">
        <ele>1101.38</ele>
        <time>2026-05-04T00:51:04.0520000+00:00</time>
      </trkpt>
      <trkpt lat="46.73528" lon="7.69169">
        <ele>1099.98</ele>
        <time>2026-05-04T00:51:11.3350000+00:00</time>
      </trkpt>
      <trkpt lat="46.73522" lon="7.69173">
        <ele>1098.82</ele>
        <time>2026-05-04T00:51:19.3430000+00:00</time>
      </trkpt>
      <trkpt lat="46.73503" lon="7.69182">
        <ele>1093.28</ele>
        <time>2026-05-04T00:51:43.5930000+00:00</time>
      </trkpt>
      <trkpt lat="46.73492" lon="7.6919">
        <ele>1089.86</ele>
        <time>2026-05-04T00:51:58.5140000+00:00</time>
      </trkpt>
      <trkpt lat="46.73478" lon="7.69196">
        <ele>1084.83</ele>
        <time>2026-05-04T00:52:16.2270000+00:00</time>
      </trkpt>
      <trkpt lat="46.73466" lon="7.69203">
        <ele>1080.08</ele>
        <time>2026-05-04T00:52:31.9160000+00:00</time>
      </trkpt>
      <trkpt lat="46.73463" lon="7.69205">
        <ele>1078.86</ele>
        <time>2026-05-04T00:52:35.9180000+00:00</time>
      </trkpt>
      <trkpt lat="46.7346" lon="7.69209">
        <ele>1077.43</ele>
        <time>2026-05-04T00:52:40.8490000+00:00</time>
      </trkpt>
      <trkpt lat="46.73459" lon="7.69212">
        <ele>1076.78</ele>
        <time>2026-05-04T00:52:43.6270000+00:00</time>
      </trkpt>
      <trkpt lat="46.73457" lon="7.6922">
        <ele>1075.28</ele>
        <time>2026-05-04T00:52:50.7130000+00:00</time>
      </trkpt>
      <trkpt lat="46.73456" lon="7.69237">
        <ele>1073.18</ele>
        <time>2026-05-04T00:53:04.9090000+00:00</time>
      </trkpt>
      <trkpt lat="46.73456" lon="7.69263">
        <ele>1070.5</ele>
        <time>2026-05-04T00:53:26.5420000+00:00</time>
      </trkpt>
      <trkpt lat="46.73456" lon="7.69279">
        <ele>1068.99</ele>
        <time>2026-05-04T00:53:39.8540000+00:00</time>
      </trkpt>
      <trkpt lat="46.73458" lon="7.69293">
        <ele>1068.87</ele>
        <time>2026-05-04T00:53:51.7530000+00:00</time>
      </trkpt>
      <trkpt lat="46.73458" lon="7.69301">
        <ele>1068.39</ele>
        <time>2026-05-04T00:53:58.4080000+00:00</time>
      </trkpt>
      <trkpt lat="46.73457" lon="7.69309">
        <ele>1067.55</ele>
        <time>2026-05-04T00:54:05.1740000+00:00</time>
      </trkpt>
      <trkpt lat="46.73454" lon="7.69316">
        <ele>1066.05</ele>
        <time>2026-05-04T00:54:12.0440000+00:00</time>
      </trkpt>
      <trkpt lat="46.73449" lon="7.69324">
        <ele>1063.77</ele>
        <time>2026-05-04T00:54:21.0530000+00:00</time>
      </trkpt>
      <trkpt lat="46.73441" lon="7.69311">
        <ele>1061.67</ele>
        <time>2026-05-04T00:54:35.5900000+00:00</time>
      </trkpt>
      <trkpt lat="46.73431" lon="7.69297">
        <ele>1059.14</ele>
        <time>2026-05-04T00:54:52.4150000+00:00</time>
      </trkpt>
      <trkpt lat="46.73413" lon="7.6927">
        <ele>1055.24</ele>
        <time>2026-05-04T00:55:23.7540000+00:00</time>
      </trkpt>
      <trkpt lat="46.73401" lon="7.6925">
        <ele>1053.51</ele>
        <time>2026-05-04T00:55:45.8700000+00:00</time>
      </trkpt>
      <trkpt lat="46.73385" lon="7.69224">
        <ele>1051.13</ele>
        <time>2026-05-04T00:56:14.9430000+00:00</time>
      </trkpt>
      <trkpt lat="46.73375" lon="7.69205">
        <ele>1049.94</ele>
        <time>2026-05-04T00:56:34.8760000+00:00</time>
      </trkpt>
      <trkpt lat="46.7337" lon="7.69193">
        <ele>1049.62</ele>
        <time>2026-05-04T00:56:46.5610000+00:00</time>
      </trkpt>
      <trkpt lat="46.73364" lon="7.69177">
        <ele>1049.35</ele>
        <time>2026-05-04T00:57:01.7360000+00:00</time>
      </trkpt>
      <trkpt lat="46.7336" lon="7.69171">
        <ele>1048.71</ele>
        <time>2026-05-04T00:57:08.7000000+00:00</time>
      </trkpt>
      <trkpt lat="46.73351" lon="7.69161">
        <ele>1046.92</ele>
        <time>2026-05-04T00:57:22.4330000+00:00</time>
      </trkpt>
      <trkpt lat="46.73342" lon="7.69152">
        <ele>1045.04</ele>
        <time>2026-05-04T00:57:35.6780000+00:00</time>
      </trkpt>
      <trkpt lat="46.73338" lon="7.69144">
        <ele>1044.69</ele>
        <time>2026-05-04T00:57:43.9180000+00:00</time>
      </trkpt>
      <trkpt lat="46.73335" lon="7.69135">
        <ele>1044.8</ele>
        <time>2026-05-04T00:57:52.2450000+00:00</time>
      </trkpt>
      <trkpt lat="46.73333" lon="7.69129">
        <ele>1044.89</ele>
        <time>2026-05-04T00:57:57.7980000+00:00</time>
      </trkpt>
      <trkpt lat="46.7333" lon="7.69114">
        <ele>1045.75</ele>
        <time>2026-05-04T00:58:10.7990000+00:00</time>
      </trkpt>
      <trkpt lat="46.73327" lon="7.69099">
        <ele>1046.16</ele>
        <time>2026-05-04T00:58:23.8010000+00:00</time>
      </trkpt>
      <trkpt lat="46.7333" lon="7.6908">
        <ele>1048.37</ele>
        <time>2026-05-04T00:58:40.0240000+00:00</time>
      </trkpt>
      <trkpt lat="46.73332" lon="7.69073">
        <ele>1049.4</ele>
        <time>2026-05-04T00:58:46.3330000+00:00</time>
      </trkpt>
      <trkpt lat="46.73336" lon="7.69045">
        <ele>1052.3</ele>
        <time>2026-05-04T00:59:10.1310000+00:00</time>
      </trkpt>
      <trkpt lat="46.73346" lon="7.69022">
        <ele>1055.41</ele>
        <time>2026-05-04T00:59:32.7940000+00:00</time>
      </trkpt>
      <trkpt lat="46.73351" lon="7.69014">
        <ele>1055.68</ele>
        <time>2026-05-04T00:59:41.8020000+00:00</time>
      </trkpt>
      <trkpt lat="46.73358" lon="7.69006">
        <ele>1056.26</ele>
        <time>2026-05-04T00:59:52.5960000+00:00</time>
      </trkpt>
      <trkpt lat="46.7337" lon="7.68993">
        <ele>1056.55</ele>
        <time>2026-05-04T01:00:10.7400000+00:00</time>
      </trkpt>
      <trkpt lat="46.73385" lon="7.6898">
        <ele>1056.76</ele>
        <time>2026-05-04T01:00:31.9200000+00:00</time>
      </trkpt>
      <trkpt lat="46.73399" lon="7.68964">
        <ele>1055.8</ele>
        <time>2026-05-04T01:00:53.5080000+00:00</time>
      </trkpt>
      <trkpt lat="46.73402" lon="7.68962">
        <ele>1055.75</ele>
        <time>2026-05-04T01:00:57.5120000+00:00</time>
      </trkpt>
      <trkpt lat="46.73409" lon="7.68956">
        <ele>1055.34</ele>
        <time>2026-05-04T01:01:07.3670000+00:00</time>
      </trkpt>
      <trkpt lat="46.73418" lon="7.68949">
        <ele>1054.78</ele>
        <time>2026-05-04T01:01:19.7490000+00:00</time>
      </trkpt>
      <trkpt lat="46.73418" lon="7.68949">
        <ele>1054.78</ele>
        <time>2026-05-04T01:01:19.7490000+00:00</time>
      </trkpt>
      <trkpt lat="46.73429" lon="7.68944">
        <ele>1054.6</ele>
        <time>2026-05-04T01:01:33.7360000+00:00</time>
      </trkpt>
      <trkpt lat="46.73436" lon="7.68941">
        <ele>1054.23</ele>
        <time>2026-05-04T01:01:42.5930000+00:00</time>
      </trkpt>
      <trkpt lat="46.73446" lon="7.68939">
        <ele>1052.04</ele>
        <time>2026-05-04T01:01:54.8460000+00:00</time>
      </trkpt>
      <trkpt lat="46.73455" lon="7.68939">
        <ele>1050</ele>
        <time>2026-05-04T01:02:05.7720000+00:00</time>
      </trkpt>
      <trkpt lat="46.73472" lon="7.68941">
        <ele>1046.86</ele>
        <time>2026-05-04T01:02:26.4760000+00:00</time>
      </trkpt>
      <trkpt lat="46.7349" lon="7.68944">
        <ele>1043.76</ele>
        <time>2026-05-04T01:02:48.4700000+00:00</time>
      </trkpt>
      <trkpt lat="46.735" lon="7.68947">
        <ele>1042.44</ele>
        <time>2026-05-04T01:03:00.8640000+00:00</time>
      </trkpt>
      <trkpt lat="46.73508" lon="7.68951">
        <ele>1041.98</ele>
        <time>2026-05-04T01:03:11.1310000+00:00</time>
      </trkpt>
      <trkpt lat="46.73531" lon="7.68964">
        <ele>1043.55</ele>
        <time>2026-05-04T01:03:41.0740000+00:00</time>
      </trkpt>
      <trkpt lat="46.73547" lon="7.68972">
        <ele>1046.45</ele>
        <time>2026-05-04T01:04:01.6060000+00:00</time>
      </trkpt>
      <trkpt lat="46.73572" lon="7.68986">
        <ele>1051.42</ele>
        <time>2026-05-04T01:04:34.1140000+00:00</time>
      </trkpt>
      <trkpt lat="46.73589" lon="7.68996">
        <ele>1054.9</ele>
        <time>2026-05-04T01:04:56.3650000+00:00</time>
      </trkpt>
      <trkpt lat="46.7362" lon="7.69012">
        <ele>1062.56</ele>
        <time>2026-05-04T01:05:36.2840000+00:00</time>
      </trkpt>
      <trkpt lat="46.73627" lon="7.69014">
        <ele>1064.26</ele>
        <time>2026-05-04T01:05:44.9430000+00:00</time>
      </trkpt>
      <trkpt lat="46.73634" lon="7.69015">
        <ele>1065.63</ele>
        <time>2026-05-04T01:05:53.4820000+00:00</time>
      </trkpt>
      <trkpt lat="46.73641" lon="7.69014">
        <ele>1066.35</ele>
        <time>2026-05-04T01:06:02.0210000+00:00</time>
      </trkpt>
      <trkpt lat="46.73645" lon="7.69012">
        <ele>1066.31</ele>
        <time>2026-05-04T01:06:07.1540000+00:00</time>
      </trkpt>
      <trkpt lat="46.73663" lon="7.68995">
        <ele>1063.72</ele>
        <time>2026-05-04T01:06:33.1840000+00:00</time>
      </trkpt>
      <trkpt lat="46.73672" lon="7.68984">
        <ele>1061.75</ele>
        <time>2026-05-04T01:06:47.4360000+00:00</time>
      </trkpt>
      <trkpt lat="46.73678" lon="7.68977">
        <ele>1060.59</ele>
        <time>2026-05-04T01:06:56.7620000+00:00</time>
      </trkpt>
      <trkpt lat="46.73688" lon="7.68969">
        <ele>1059.84</ele>
        <time>2026-05-04T01:07:10.6060000+00:00</time>
      </trkpt>
      <trkpt lat="46.73698" lon="7.68962">
        <ele>1054.47</ele>
        <time>2026-05-04T01:07:24.0700000+00:00</time>
      </trkpt>
      <trkpt lat="46.73727" lon="7.68947">
        <ele>1040.22</ele>
        <time>2026-05-04T01:08:01.4220000+00:00</time>
      </trkpt>
      <trkpt lat="46.73752" lon="7.68936">
        <ele>1029.77</ele>
        <time>2026-05-04T01:08:33.1210000+00:00</time>
      </trkpt>
      <trkpt lat="46.73758" lon="7.68929">
        <ele>1026.95</ele>
        <time>2026-05-04T01:08:42.4480000+00:00</time>
      </trkpt>
      <trkpt lat="46.73773" lon="7.68913">
        <ele>1020.81</ele>
        <time>2026-05-04T01:09:05.0040000+00:00</time>
      </trkpt>
      <trkpt lat="46.73779" lon="7.68907">
        <ele>1018.32</ele>
        <time>2026-05-04T01:09:13.8340000+00:00</time>
      </trkpt>
      <trkpt lat="46.73784" lon="7.68905">
        <ele>1016.49</ele>
        <time>2026-05-04T01:09:20.1280000+00:00</time>
      </trkpt>
      <trkpt lat="46.73789" lon="7.68905">
        <ele>1014.88</ele>
        <time>2026-05-04T01:09:26.1980000+00:00</time>
      </trkpt>
      <trkpt lat="46.73793" lon="7.68908">
        <ele>1014.02</ele>
        <time>2026-05-04T01:09:31.6570000+00:00</time>
      </trkpt>
      <trkpt lat="46.73797" lon="7.68914">
        <ele>1013.66</ele>
        <time>2026-05-04T01:09:38.6210000+00:00</time>
      </trkpt>
      <trkpt lat="46.73801" lon="7.6892">
        <ele>1013.41</ele>
        <time>2026-05-04T01:09:45.5860000+00:00</time>
      </trkpt>
      <trkpt lat="46.73804" lon="7.68928">
        <ele>1013.87</ele>
        <time>2026-05-04T01:09:53.1730000+00:00</time>
      </trkpt>
      <trkpt lat="46.7381" lon="7.68958">
        <ele>1018.76</ele>
        <time>2026-05-04T01:10:19.1730000+00:00</time>
      </trkpt>
      <trkpt lat="46.73814" lon="7.68975">
        <ele>1022.28</ele>
        <time>2026-05-04T01:10:34.1270000+00:00</time>
      </trkpt>
      <trkpt lat="46.73823" lon="7.69014">
        <ele>1031.05</ele>
        <time>2026-05-04T01:11:08.3640000+00:00</time>
      </trkpt>
      <trkpt lat="46.73826" lon="7.69024">
        <ele>1033.35</ele>
        <time>2026-05-04T01:11:17.4460000+00:00</time>
      </trkpt>
      <trkpt lat="46.7383" lon="7.69032">
        <ele>1035.37</ele>
        <time>2026-05-04T01:11:25.6840000+00:00</time>
      </trkpt>
      <trkpt lat="46.73836" lon="7.69041">
        <ele>1037.53</ele>
        <time>2026-05-04T01:11:36.1300000+00:00</time>
      </trkpt>
      <trkpt lat="46.73847" lon="7.69056">
        <ele>1040.93</ele>
        <time>2026-05-04T01:11:54.4080000+00:00</time>
      </trkpt>
      <trkpt lat="46.73858" lon="7.69071">
        <ele>1043.83</ele>
        <time>2026-05-04T01:12:12.6850000+00:00</time>
      </trkpt>
      <trkpt lat="46.73865" lon="7.69079">
        <ele>1044.38</ele>
        <time>2026-05-04T01:12:23.4790000+00:00</time>
      </trkpt>
      <trkpt lat="46.73868" lon="7.69082">
        <ele>1044.45</ele>
        <time>2026-05-04T01:12:27.8960000+00:00</time>
      </trkpt>
      <trkpt lat="46.73871" lon="7.69082">
        <ele>1043.57</ele>
        <time>2026-05-04T01:12:31.5380000+00:00</time>
      </trkpt>
      <trkpt lat="46.73875" lon="7.69082">
        <ele>1042.4</ele>
        <time>2026-05-04T01:12:36.3940000+00:00</time>
      </trkpt>
      <trkpt lat="46.73881" lon="7.6908">
        <ele>1040.03</ele>
        <time>2026-05-04T01:12:43.8650000+00:00</time>
      </trkpt>
      <trkpt lat="46.73897" lon="7.6907">
        <ele>1032.43</ele>
        <time>2026-05-04T01:13:04.9960000+00:00</time>
      </trkpt>
      <trkpt lat="46.73925" lon="7.69058">
        <ele>1021.19</ele>
        <time>2026-05-04T01:13:40.4230000+00:00</time>
      </trkpt>
      <trkpt lat="46.73933" lon="7.69055">
        <ele>1018.18</ele>
        <time>2026-05-04T01:13:50.4500000+00:00</time>
      </trkpt>
      <trkpt lat="46.73938" lon="7.69056">
        <ele>1017.08</ele>
        <time>2026-05-04T01:13:56.5770000+00:00</time>
      </trkpt>
      <trkpt lat="46.73947" lon="7.69059">
        <ele>1016.78</ele>
        <time>2026-05-04T01:14:07.7840000+00:00</time>
      </trkpt>
      <trkpt lat="46.73961" lon="7.69065">
        <ele>1016.77</ele>
        <time>2026-05-04T01:14:25.4970000+00:00</time>
      </trkpt>
      <trkpt lat="46.73968" lon="7.69071">
        <ele>1017.58</ele>
        <time>2026-05-04T01:14:35.3530000+00:00</time>
      </trkpt>
      <trkpt lat="46.73971" lon="7.69077">
        <ele>1018.85</ele>
        <time>2026-05-04T01:14:41.5320000+00:00</time>
      </trkpt>
      <trkpt lat="46.73975" lon="7.69085">
        <ele>1020.55</ele>
        <time>2026-05-04T01:14:49.7710000+00:00</time>
      </trkpt>
      <trkpt lat="46.7398" lon="7.69105">
        <ele>1025.4</ele>
        <time>2026-05-04T01:15:07.4830000+00:00</time>
      </trkpt>
      <trkpt lat="46.73982" lon="7.69118">
        <ele>1029.23</ele>
        <time>2026-05-04T01:15:18.5670000+00:00</time>
      </trkpt>
      <trkpt lat="46.73985" lon="7.69127">
        <ele>1031.84</ele>
        <time>2026-05-04T01:15:26.8940000+00:00</time>
      </trkpt>
      <trkpt lat="46.73989" lon="7.69132">
        <ele>1033.01</ele>
        <time>2026-05-04T01:15:33.2880000+00:00</time>
      </trkpt>
      <trkpt lat="46.74001" lon="7.69138">
        <ele>1033.52</ele>
        <time>2026-05-04T01:15:48.6880000+00:00</time>
      </trkpt>
      <trkpt lat="46.74008" lon="7.69141">
        <ele>1033.63</ele>
        <time>2026-05-04T01:15:57.5440000+00:00</time>
      </trkpt>
      <trkpt lat="46.74017" lon="7.69141">
        <ele>1032.54</ele>
        <time>2026-05-04T01:16:08.4700000+00:00</time>
      </trkpt>
      <trkpt lat="46.7402" lon="7.69141">
        <ele>1032.17</ele>
        <time>2026-05-04T01:16:12.1110000+00:00</time>
      </trkpt>
      <trkpt lat="46.74024" lon="7.69142">
        <ele>1032.03</ele>
        <time>2026-05-04T01:16:17.0370000+00:00</time>
      </trkpt>
      <trkpt lat="46.74028" lon="7.69146">
        <ele>1032.83</ele>
        <time>2026-05-04T01:16:22.9240000+00:00</time>
      </trkpt>
      <trkpt lat="46.74032" lon="7.69151">
        <ele>1033.91</ele>
        <time>2026-05-04T01:16:29.3180000+00:00</time>
      </trkpt>
      <trkpt lat="46.74036" lon="7.69159">
        <ele>1035.87</ele>
        <time>2026-05-04T01:16:37.5560000+00:00</time>
      </trkpt>
      <trkpt lat="46.7404" lon="7.69162">
        <ele>1036.28</ele>
        <time>2026-05-04T01:16:43.0150000+00:00</time>
      </trkpt>
      <trkpt lat="46.74045" lon="7.69165">
        <ele>1036.56</ele>
        <time>2026-05-04T01:16:49.5780000+00:00</time>
      </trkpt>
      <trkpt lat="46.7405" lon="7.69165">
        <ele>1035.94</ele>
        <time>2026-05-04T01:16:55.6480000+00:00</time>
      </trkpt>
      <trkpt lat="46.74058" lon="7.69161">
        <ele>1033.8</ele>
        <time>2026-05-04T01:17:05.9150000+00:00</time>
      </trkpt>
      <trkpt lat="46.74064" lon="7.69156">
        <ele>1031.66</ele>
        <time>2026-05-04T01:17:14.3030000+00:00</time>
      </trkpt>
      <trkpt lat="46.74074" lon="7.69148">
        <ele>1028.28</ele>
        <time>2026-05-04T01:17:28.1470000+00:00</time>
      </trkpt>
      <trkpt lat="46.74082" lon="7.69144">
        <ele>1026.31</ele>
        <time>2026-05-04T01:17:38.4130000+00:00</time>
      </trkpt>
      <trkpt lat="46.7409" lon="7.69142">
        <ele>1024.91</ele>
        <time>2026-05-04T01:17:48.2660000+00:00</time>
      </trkpt>
      <trkpt lat="46.74098" lon="7.69142">
        <ele>1024.05</ele>
        <time>2026-05-04T01:17:57.9780000+00:00</time>
      </trkpt>
      <trkpt lat="46.74111" lon="7.69141">
        <ele>1021.74</ele>
        <time>2026-05-04T01:18:13.7820000+00:00</time>
      </trkpt>
      <trkpt lat="46.74125" lon="7.69145">
        <ele>1019.72</ele>
        <time>2026-05-04T01:18:31.1000000+00:00</time>
      </trkpt>
      <trkpt lat="46.74133" lon="7.69147">
        <ele>1018.49</ele>
        <time>2026-05-04T01:18:40.9540000+00:00</time>
      </trkpt>
      <trkpt lat="46.74153" lon="7.69151">
        <ele>1015.18</ele>
        <time>2026-05-04T01:19:05.4600000+00:00</time>
      </trkpt>
      <trkpt lat="46.74171" lon="7.69153">
        <ele>1011.79</ele>
        <time>2026-05-04T01:19:27.3750000+00:00</time>
      </trkpt>
      <trkpt lat="46.74187" lon="7.69154">
        <ele>1008.58</ele>
        <time>2026-05-04T01:19:46.8160000+00:00</time>
      </trkpt>
      <trkpt lat="46.742" lon="7.69154">
        <ele>1004.81</ele>
        <time>2026-05-04T01:20:02.5970000+00:00</time>
      </trkpt>
      <trkpt lat="46.74208" lon="7.69153">
        <ele>1002.17</ele>
        <time>2026-05-04T01:20:12.3450000+00:00</time>
      </trkpt>
      <trkpt lat="46.74212" lon="7.69151">
        <ele>1000.43</ele>
        <time>2026-05-04T01:20:17.4790000+00:00</time>
      </trkpt>
      <trkpt lat="46.74215" lon="7.69151">
        <ele>999.53</ele>
        <time>2026-05-04T01:20:21.1200000+00:00</time>
      </trkpt>
      <trkpt lat="46.74219" lon="7.69152">
        <ele>998.61</ele>
        <time>2026-05-04T01:20:26.0450000+00:00</time>
      </trkpt>
      <trkpt lat="46.74223" lon="7.69154">
        <ele>997.97</ele>
        <time>2026-05-04T01:20:31.1770000+00:00</time>
      </trkpt>
      <trkpt lat="46.74227" lon="7.69159">
        <ele>998.21</ele>
        <time>2026-05-04T01:20:37.5720000+00:00</time>
      </trkpt>
      <trkpt lat="46.74232" lon="7.69165">
        <ele>998.49</ele>
        <time>2026-05-04T01:20:45.4300000+00:00</time>
      </trkpt>
      <trkpt lat="46.74242" lon="7.69176">
        <ele>998.9</ele>
        <time>2026-05-04T01:21:00.6330000+00:00</time>
      </trkpt>
      <trkpt lat="46.74245" lon="7.69178">
        <ele>998.66</ele>
        <time>2026-05-04T01:21:04.6360000+00:00</time>
      </trkpt>
      <trkpt lat="46.7425" lon="7.69176">
        <ele>996.67</ele>
        <time>2026-05-04T01:21:10.9300000+00:00</time>
      </trkpt>
      <trkpt lat="46.74257" lon="7.69174">
        <ele>994.1</ele>
        <time>2026-05-04T01:21:19.5900000+00:00</time>
      </trkpt>
      <trkpt lat="46.74271" lon="7.69171">
        <ele>989.2</ele>
        <time>2026-05-04T01:21:36.7670000+00:00</time>
      </trkpt>
      <trkpt lat="46.74277" lon="7.69172">
        <ele>988.48</ele>
        <time>2026-05-04T01:21:44.0980000+00:00</time>
      </trkpt>
      <trkpt lat="46.74282" lon="7.69174">
        <ele>988.21</ele>
        <time>2026-05-04T01:21:50.3920000+00:00</time>
      </trkpt>
      <trkpt lat="46.7429" lon="7.69181">
        <ele>988.62</ele>
        <time>2026-05-04T01:22:01.7160000+00:00</time>
      </trkpt>
      <trkpt lat="46.74298" lon="7.6919">
        <ele>989.09</ele>
        <time>2026-05-04T01:22:13.9790000+00:00</time>
      </trkpt>
      <trkpt lat="46.74303" lon="7.69206">
        <ele>992.65</ele>
        <time>2026-05-04T01:22:28.6080000+00:00</time>
      </trkpt>
      <trkpt lat="46.74307" lon="7.69217">
        <ele>995.12</ele>
        <time>2026-05-04T01:22:38.9670000+00:00</time>
      </trkpt>
      <trkpt lat="46.74312" lon="7.6922">
        <ele>994.89</ele>
        <time>2026-05-04T01:22:45.5300000+00:00</time>
      </trkpt>
      <trkpt lat="46.74316" lon="7.69215">
        <ele>992.39</ele>
        <time>2026-05-04T01:22:51.9240000+00:00</time>
      </trkpt>
      <trkpt lat="46.7432" lon="7.6921">
        <ele>989.89</ele>
        <time>2026-05-04T01:22:58.3170000+00:00</time>
      </trkpt>
      <trkpt lat="46.74325" lon="7.69206">
        <ele>987.45</ele>
        <time>2026-05-04T01:23:05.2390000+00:00</time>
      </trkpt>
      <trkpt lat="46.74333" lon="7.69202">
        <ele>984.29</ele>
        <time>2026-05-04T01:23:15.5050000+00:00</time>
      </trkpt>
      <trkpt lat="46.74341" lon="7.69203">
        <ele>982.71</ele>
        <time>2026-05-04T01:23:25.2520000+00:00</time>
      </trkpt>
      <trkpt lat="46.74353" lon="7.69211">
        <ele>982.45</ele>
        <time>2026-05-04T01:23:41.2680000+00:00</time>
      </trkpt>
      <trkpt lat="46.74359" lon="7.69222">
        <ele>986.12</ele>
        <time>2026-05-04T01:23:52.9640000+00:00</time>
      </trkpt>
      <trkpt lat="46.74364" lon="7.69227">
        <ele>988.09</ele>
        <time>2026-05-04T01:24:00.3220000+00:00</time>
      </trkpt>
      <trkpt lat="46.74373" lon="7.69227">
        <ele>988.91</ele>
        <time>2026-05-04T01:24:11.2470000+00:00</time>
      </trkpt>
      <trkpt lat="46.7438" lon="7.69229">
        <ele>989.93</ele>
        <time>2026-05-04T01:24:19.9060000+00:00</time>
      </trkpt>
      <trkpt lat="46.74385" lon="7.69234">
        <ele>991.14</ele>
        <time>2026-05-04T01:24:27.2650000+00:00</time>
      </trkpt>
      <trkpt lat="46.74389" lon="7.69241">
        <ele>992.35</ele>
        <time>2026-05-04T01:24:34.8470000+00:00</time>
      </trkpt>
      <trkpt lat="46.74392" lon="7.69242">
        <ele>992.52</ele>
        <time>2026-05-04T01:24:38.5830000+00:00</time>
      </trkpt>
      <trkpt lat="46.74396" lon="7.6924">
        <ele>992.36</ele>
        <time>2026-05-04T01:24:43.7160000+00:00</time>
      </trkpt>
      <trkpt lat="46.74399" lon="7.69236">
        <ele>992.07</ele>
        <time>2026-05-04T01:24:48.6500000+00:00</time>
      </trkpt>
      <trkpt lat="46.74402" lon="7.69234">
        <ele>992.06</ele>
        <time>2026-05-04T01:24:52.6530000+00:00</time>
      </trkpt>
      <trkpt lat="46.74407" lon="7.69233">
        <ele>992.28</ele>
        <time>2026-05-04T01:24:58.7800000+00:00</time>
      </trkpt>
      <trkpt lat="46.74413" lon="7.69233">
        <ele>992.64</ele>
        <time>2026-05-04T01:25:06.0630000+00:00</time>
      </trkpt>
      <trkpt lat="46.74419" lon="7.69231">
        <ele>993.03</ele>
        <time>2026-05-04T01:25:13.5340000+00:00</time>
      </trkpt>
      <trkpt lat="46.74425" lon="7.6923">
        <ele>993.5</ele>
        <time>2026-05-04T01:25:20.8640000+00:00</time>
      </trkpt>
      <trkpt lat="46.74429" lon="7.6923">
        <ele>993.8</ele>
        <time>2026-05-04T01:25:25.7190000+00:00</time>
      </trkpt>
      <trkpt lat="46.74433" lon="7.6923">
        <ele>994.1</ele>
        <time>2026-05-04T01:25:30.5740000+00:00</time>
      </trkpt>
      <trkpt lat="46.74437" lon="7.6923">
        <ele>994.4</ele>
        <time>2026-05-04T01:25:35.4290000+00:00</time>
      </trkpt>
      <trkpt lat="46.74439" lon="7.69227">
        <ele>995.19</ele>
        <time>2026-05-04T01:25:38.9100000+00:00</time>
      </trkpt>
      <trkpt lat="46.74442" lon="7.69223">
        <ele>996.66</ele>
        <time>2026-05-04T01:25:43.8430000+00:00</time>
      </trkpt>
      <trkpt lat="46.7444" lon="7.69204">
        <ele>998.22</ele>
        <time>2026-05-04T01:25:59.8350000+00:00</time>
      </trkpt>
      <trkpt lat="46.74441" lon="7.69201">
        <ele>998.87</ele>
        <time>2026-05-04T01:26:02.6120000+00:00</time>
      </trkpt>
      <trkpt lat="46.74443" lon="7.69203">
        <ele>999.25</ele>
        <time>2026-05-04T01:26:05.5540000+00:00</time>
      </trkpt>
      <trkpt lat="46.74446" lon="7.69208">
        <ele>999.62</ele>
        <time>2026-05-04T01:26:11.0830000+00:00</time>
      </trkpt>
      <trkpt lat="46.74448" lon="7.6921">
        <ele>1000.03</ele>
        <time>2026-05-04T01:26:14.0270000+00:00</time>
      </trkpt>
      <trkpt lat="46.74449" lon="7.69207">
        <ele>1000.65</ele>
        <time>2026-05-04T01:26:16.8040000+00:00</time>
      </trkpt>
      <trkpt lat="46.74448" lon="7.692">
        <ele>1001.08</ele>
        <time>2026-05-04T01:26:22.7530000+00:00</time>
      </trkpt>
      <trkpt lat="46.74449" lon="7.69195">
        <ele>1001.9</ele>
        <time>2026-05-04T01:26:27.0860000+00:00</time>
      </trkpt>
      <trkpt lat="46.74449" lon="7.69193">
        <ele>1002.11</ele>
        <time>2026-05-04T01:26:28.7510000+00:00</time>
      </trkpt>
      <trkpt lat="46.74451" lon="7.69193">
        <ele>1002.69</ele>
        <time>2026-05-04T01:26:31.1790000+00:00</time>
      </trkpt>
      <trkpt lat="46.74453" lon="7.69194">
        <ele>1003.17</ele>
        <time>2026-05-04T01:26:33.7480000+00:00</time>
      </trkpt>
      <trkpt lat="46.74455" lon="7.69192">
        <ele>1003.94</ele>
        <time>2026-05-04T01:26:36.6920000+00:00</time>
      </trkpt>
      <trkpt lat="46.74455" lon="7.6919">
        <ele>1004.1</ele>
        <time>2026-05-04T01:26:38.3570000+00:00</time>
      </trkpt>
      <trkpt lat="46.74453" lon="7.69186">
        <ele>1003.88</ele>
        <time>2026-05-04T01:26:42.4770000+00:00</time>
      </trkpt>
      <trkpt lat="46.7445" lon="7.69182">
        <ele>1003.41</ele>
        <time>2026-05-04T01:26:47.4080000+00:00</time>
      </trkpt>
      <trkpt lat="46.7445" lon="7.69171">
        <ele>1004.4</ele>
        <time>2026-05-04T01:26:56.5580000+00:00</time>
      </trkpt>
      <trkpt lat="46.74449" lon="7.69167">
        <ele>1004.52</ele>
        <time>2026-05-04T01:27:00.0990000+00:00</time>
      </trkpt>
      <trkpt lat="46.74442" lon="7.69152">
        <ele>1004.29</ele>
        <time>2026-05-04T01:27:15.1960000+00:00</time>
      </trkpt>
      <trkpt lat="46.74436" lon="7.69143">
        <ele>1003.64</ele>
        <time>2026-05-04T01:27:25.6420000+00:00</time>
      </trkpt>
      <trkpt lat="46.74434" lon="7.69139">
        <ele>1003.33</ele>
        <time>2026-05-04T01:27:29.7620000+00:00</time>
      </trkpt>
      <trkpt lat="46.74429" lon="7.69131">
        <ele>1002.28</ele>
        <time>2026-05-04T01:27:38.7700000+00:00</time>
      </trkpt>
      <trkpt lat="46.74429" lon="7.69125">
        <ele>1002.84</ele>
        <time>2026-05-04T01:27:43.7600000+00:00</time>
      </trkpt>
      <trkpt lat="46.74431" lon="7.69121">
        <ele>1004</ele>
        <time>2026-05-04T01:27:47.8780000+00:00</time>
      </trkpt>
      <trkpt lat="46.74434" lon="7.6912">
        <ele>1005.27</ele>
        <time>2026-05-04T01:27:51.6140000+00:00</time>
      </trkpt>
      <trkpt lat="46.74438" lon="7.6912">
        <ele>1006.83</ele>
        <time>2026-05-04T01:27:56.4710000+00:00</time>
      </trkpt>
      <trkpt lat="46.74442" lon="7.69121">
        <ele>1007.46</ele>
        <time>2026-05-04T01:28:01.3980000+00:00</time>
      </trkpt>
      <trkpt lat="46.74447" lon="7.69121">
        <ele>1008.39</ele>
        <time>2026-05-04T01:28:07.4670000+00:00</time>
      </trkpt>
      <trkpt lat="46.74453" lon="7.69121">
        <ele>1009.5</ele>
        <time>2026-05-04T01:28:14.7500000+00:00</time>
      </trkpt>
      <trkpt lat="46.7446" lon="7.69121">
        <ele>1010.79</ele>
        <time>2026-05-04T01:28:23.2480000+00:00</time>
      </trkpt>
      <trkpt lat="46.74468" lon="7.69121">
        <ele>1012.28</ele>
        <time>2026-05-04T01:28:32.9600000+00:00</time>
      </trkpt>
      <trkpt lat="46.74492" lon="7.69134">
        <ele>1016.33</ele>
        <time>2026-05-04T01:29:04.0370000+00:00</time>
      </trkpt>
      <trkpt lat="46.7451" lon="7.69141">
        <ele>1019.98</ele>
        <time>2026-05-04T01:29:26.6520000+00:00</time>
      </trkpt>
      <trkpt lat="46.74525" lon="7.69147">
        <ele>1022.84</ele>
        <time>2026-05-04T01:29:45.5330000+00:00</time>
      </trkpt>
      <trkpt lat="46.7453" lon="7.69147">
        <ele>1023.35</ele>
        <time>2026-05-04T01:29:51.6040000+00:00</time>
      </trkpt>
      <trkpt lat="46.74538" lon="7.69145">
        <ele>1024.13</ele>
        <time>2026-05-04T01:30:01.4570000+00:00</time>
      </trkpt>
      <trkpt lat="46.74548" lon="7.69137">
        <ele>1025.02</ele>
        <time>2026-05-04T01:30:15.3010000+00:00</time>
      </trkpt>
      <trkpt lat="46.7456" lon="7.69126">
        <ele>1026.02</ele>
        <time>2026-05-04T01:30:32.5040000+00:00</time>
      </trkpt>
      <trkpt lat="46.74577" lon="7.6911">
        <ele>1027.38</ele>
        <time>2026-05-04T01:30:57.0610000+00:00</time>
      </trkpt>
      <trkpt lat="46.74586" lon="7.69101">
        <ele>1028.14</ele>
        <time>2026-05-04T01:31:10.3050000+00:00</time>
      </trkpt>
      <trkpt lat="46.746" lon="7.69091">
        <ele>1029.52</ele>
        <time>2026-05-04T01:31:29.2280000+00:00</time>
      </trkpt>
      <trkpt lat="46.7461" lon="7.69081">
        <ele>1030.9</ele>
        <time>2026-05-04T01:31:43.9440000+00:00</time>
      </trkpt>
      <trkpt lat="46.74618" lon="7.69072">
        <ele>1032.31</ele>
        <time>2026-05-04T01:31:56.2060000+00:00</time>
      </trkpt>
      <trkpt lat="46.74637" lon="7.69047">
        <ele>1036.14</ele>
        <time>2026-05-04T01:32:27.2630000+00:00</time>
      </trkpt>
      <trkpt lat="46.74652" lon="7.69028">
        <ele>1039.62</ele>
        <time>2026-05-04T01:32:51.3750000+00:00</time>
      </trkpt>
      <trkpt lat="46.74681" lon="7.68992">
        <ele>1047.08</ele>
        <time>2026-05-04T01:33:37.5930000+00:00</time>
      </trkpt>
      <trkpt lat="46.74699" lon="7.68971">
        <ele>1053.1</ele>
        <time>2026-05-04T01:34:05.5690000+00:00</time>
      </trkpt>
      <trkpt lat="46.74716" lon="7.6895">
        <ele>1059.43</ele>
        <time>2026-05-04T01:34:32.6070000+00:00</time>
      </trkpt>
      <trkpt lat="46.74727" lon="7.68938">
        <ele>1062.72</ele>
        <time>2026-05-04T01:34:49.2790000+00:00</time>
      </trkpt>
      <trkpt lat="46.74743" lon="7.68918">
        <ele>1065.01</ele>
        <time>2026-05-04T01:35:14.8540000+00:00</time>
      </trkpt>
      <trkpt lat="46.74764" lon="7.6889">
        <ele>1066.92</ele>
        <time>2026-05-04T01:35:49.3850000+00:00</time>
      </trkpt>
      <trkpt lat="46.7478" lon="7.68866">
        <ele>1067.32</ele>
        <time>2026-05-04T01:36:17.2380000+00:00</time>
      </trkpt>
      <trkpt lat="46.74791" lon="7.68849">
        <ele>1068.02</ele>
        <time>2026-05-04T01:36:36.6870000+00:00</time>
      </trkpt>
      <trkpt lat="46.74795" lon="7.6884">
        <ele>1068.16</ele>
        <time>2026-05-04T01:36:45.6110000+00:00</time>
      </trkpt>
      <trkpt lat="46.74798" lon="7.68828">
        <ele>1067.79</ele>
        <time>2026-05-04T01:36:56.2360000+00:00</time>
      </trkpt>
      <trkpt lat="46.748" lon="7.68816">
        <ele>1067.17</ele>
        <time>2026-05-04T01:37:06.5090000+00:00</time>
      </trkpt>
      <trkpt lat="46.748" lon="7.68779">
        <ele>1063.64</ele>
        <time>2026-05-04T01:37:37.2870000+00:00</time>
      </trkpt>
      <trkpt lat="46.74799" lon="7.68752">
        <ele>1062.1</ele>
        <time>2026-05-04T01:37:59.7790000+00:00</time>
      </trkpt>
      <trkpt lat="46.74798" lon="7.68736">
        <ele>1061.18</ele>
        <time>2026-05-04T01:38:13.1440000+00:00</time>
      </trkpt>
      <trkpt lat="46.74795" lon="7.68725">
        <ele>1059.9</ele>
        <time>2026-05-04T01:38:22.9930000+00:00</time>
      </trkpt>
      <trkpt lat="46.74793" lon="7.68717">
        <ele>1059.02</ele>
        <time>2026-05-04T01:38:30.0770000+00:00</time>
      </trkpt>
      <trkpt lat="46.7479" lon="7.68708">
        <ele>1057.83</ele>
        <time>2026-05-04T01:38:38.4020000+00:00</time>
      </trkpt>
      <trkpt lat="46.74786" lon="7.68701">
        <ele>1056.45</ele>
        <time>2026-05-04T01:38:45.9840000+00:00</time>
      </trkpt>
      <trkpt lat="46.74782" lon="7.68696">
        <ele>1055.15</ele>
        <time>2026-05-04T01:38:52.3780000+00:00</time>
      </trkpt>
      <trkpt lat="46.74768" lon="7.68686">
        <ele>1051.69</ele>
        <time>2026-05-04T01:39:11.3000000+00:00</time>
      </trkpt>
      <trkpt lat="46.74745" lon="7.6867">
        <ele>1047.89</ele>
        <time>2026-05-04T01:39:42.2320000+00:00</time>
      </trkpt>
      <trkpt lat="46.74723" lon="7.68652">
        <ele>1044.99</ele>
        <time>2026-05-04T01:40:12.8500000+00:00</time>
      </trkpt>
      <trkpt lat="46.74714" lon="7.68644">
        <ele>1044.02</ele>
        <time>2026-05-04T01:40:25.6430000+00:00</time>
      </trkpt>
      <trkpt lat="46.74703" lon="7.68628">
        <ele>1043.58</ele>
        <time>2026-05-04T01:40:44.4960000+00:00</time>
      </trkpt>
      <trkpt lat="46.74693" lon="7.68618">
        <ele>1042.93</ele>
        <time>2026-05-04T01:40:59.2130000+00:00</time>
      </trkpt>
      <trkpt lat="46.74684" lon="7.6861">
        <ele>1042.4</ele>
        <time>2026-05-04T01:41:12.0060000+00:00</time>
      </trkpt>
      <trkpt lat="46.74677" lon="7.68605">
        <ele>1042.08</ele>
        <time>2026-05-04T01:41:21.4660000+00:00</time>
      </trkpt>
      <trkpt lat="46.74663" lon="7.68601">
        <ele>1040.59</ele>
        <time>2026-05-04T01:41:38.7850000+00:00</time>
      </trkpt>
      <trkpt lat="46.74666" lon="7.68598">
        <ele>1041.45</ele>
        <time>2026-05-04T01:41:43.2000000+00:00</time>
      </trkpt>
      <trkpt lat="46.74672" lon="7.68592">
        <ele>1043.17</ele>
        <time>2026-05-04T01:41:52.0300000+00:00</time>
      </trkpt>
      <trkpt lat="46.74697" lon="7.68576">
        <ele>1049.18</ele>
        <time>2026-05-04T01:42:25.1700000+00:00</time>
      </trkpt>
      <trkpt lat="46.74703" lon="7.68574">
        <ele>1050.34</ele>
        <time>2026-05-04T01:42:32.6410000+00:00</time>
      </trkpt>
      <trkpt lat="46.74713" lon="7.68572">
        <ele>1052.07</ele>
        <time>2026-05-04T01:42:44.8950000+00:00</time>
      </trkpt>
      <trkpt lat="46.74733" lon="7.68569">
        <ele>1055.37</ele>
        <time>2026-05-04T01:43:09.3020000+00:00</time>
      </trkpt>
      <trkpt lat="46.74743" lon="7.68567">
        <ele>1057.07</ele>
        <time>2026-05-04T01:43:21.5550000+00:00</time>
      </trkpt>
      <trkpt lat="46.74757" lon="7.68562">
        <ele>1059.71</ele>
        <time>2026-05-04T01:43:39.0520000+00:00</time>
      </trkpt>
      <trkpt lat="46.74765" lon="7.68557">
        <ele>1061.45</ele>
        <time>2026-05-04T01:43:49.6170000+00:00</time>
      </trkpt>
      <trkpt lat="46.74774" lon="7.68549">
        <ele>1063.97</ele>
        <time>2026-05-04T01:44:02.4100000+00:00</time>
      </trkpt>
      <trkpt lat="46.74779" lon="7.68545">
        <ele>1065.64</ele>
        <time>2026-05-04T01:44:09.3320000+00:00</time>
      </trkpt>
      <trkpt lat="46.74786" lon="7.68541">
        <ele>1067.79</ele>
        <time>2026-05-04T01:44:18.4580000+00:00</time>
      </trkpt>
      <trkpt lat="46.74798" lon="7.68537">
        <ele>1071.14</ele>
        <time>2026-05-04T01:44:33.4010000+00:00</time>
      </trkpt>
      <trkpt lat="46.74811" lon="7.6854">
        <ele>1073.87</ele>
        <time>2026-05-04T01:44:49.3790000+00:00</time>
      </trkpt>
      <trkpt lat="46.74821" lon="7.68546">
        <ele>1075.49</ele>
        <time>2026-05-04T01:45:02.5050000+00:00</time>
      </trkpt>
      <trkpt lat="46.74835" lon="7.68554">
        <ele>1077.78</ele>
        <time>2026-05-04T01:45:20.7570000+00:00</time>
      </trkpt>
      <trkpt lat="46.74849" lon="7.68564">
        <ele>1079.77</ele>
        <time>2026-05-04T01:45:39.6790000+00:00</time>
      </trkpt>
      <trkpt lat="46.7487" lon="7.68582">
        <ele>1082.97</ele>
        <time>2026-05-04T01:46:09.2440000+00:00</time>
      </trkpt>
      <trkpt lat="46.74891" lon="7.686">
        <ele>1086.69</ele>
        <time>2026-05-04T01:46:38.8090000+00:00</time>
      </trkpt>
      <trkpt lat="46.74908" lon="7.68616">
        <ele>1090.89</ele>
        <time>2026-05-04T01:47:03.3660000+00:00</time>
      </trkpt>
      <trkpt lat="46.74924" lon="7.68629">
        <ele>1096.66</ele>
        <time>2026-05-04T01:47:25.5960000+00:00</time>
      </trkpt>
      <trkpt lat="46.74934" lon="7.68637">
        <ele>1100.51</ele>
        <time>2026-05-04T01:47:39.4400000+00:00</time>
      </trkpt>
      <trkpt lat="46.74941" lon="7.68642">
        <ele>1103.08</ele>
        <time>2026-05-04T01:47:48.9010000+00:00</time>
      </trkpt>
      <trkpt lat="46.74955" lon="7.6865">
        <ele>1107.99</ele>
        <time>2026-05-04T01:48:07.1520000+00:00</time>
      </trkpt>
      <trkpt lat="46.74967" lon="7.68658">
        <ele>1112.71</ele>
        <time>2026-05-04T01:48:23.1670000+00:00</time>
      </trkpt>
      <trkpt lat="46.74974" lon="7.68666">
        <ele>1116.17</ele>
        <time>2026-05-04T01:48:33.9610000+00:00</time>
      </trkpt>
      <trkpt lat="46.7498" lon="7.68673">
        <ele>1119.33</ele>
        <time>2026-05-04T01:48:43.2860000+00:00</time>
      </trkpt>
      <trkpt lat="46.74984" lon="7.68677">
        <ele>1121.41</ele>
        <time>2026-05-04T01:48:49.1730000+00:00</time>
      </trkpt>
      <trkpt lat="46.74988" lon="7.68678">
        <ele>1122.97</ele>
        <time>2026-05-04T01:48:54.0980000+00:00</time>
      </trkpt>
      <trkpt lat="46.74991" lon="7.68677">
        <ele>1123.81</ele>
        <time>2026-05-04T01:48:57.8320000+00:00</time>
      </trkpt>
      <trkpt lat="46.74995" lon="7.68669">
        <ele>1123.55</ele>
        <time>2026-05-04T01:49:06.0690000+00:00</time>
      </trkpt>
      <trkpt lat="46.75002" lon="7.68655">
        <ele>1122.8</ele>
        <time>2026-05-04T01:49:20.4850000+00:00</time>
      </trkpt>
      <trkpt lat="46.75012" lon="7.68634">
        <ele>1120.87</ele>
        <time>2026-05-04T01:49:41.7570000+00:00</time>
      </trkpt>
      <trkpt lat="46.75015" lon="7.68631">
        <ele>1120.93</ele>
        <time>2026-05-04T01:49:46.1710000+00:00</time>
      </trkpt>
      <trkpt lat="46.75019" lon="7.6863">
        <ele>1121.71</ele>
        <time>2026-05-04T01:49:51.0980000+00:00</time>
      </trkpt>
      <trkpt lat="46.75024" lon="7.68629">
        <ele>1122.51</ele>
        <time>2026-05-04T01:49:57.2250000+00:00</time>
      </trkpt>
      <trkpt lat="46.75023" lon="7.68632">
        <ele>1123.09</ele>
        <time>2026-05-04T01:50:00.0000000+00:00</time>
      </trkpt>
    </trkseg>
  </trk>
</gpx>