<?xml version="1.0" encoding="utf-8"?>
<gpx xmlns:xsd="http://www.w3.org/2001/XMLSchema" xmlns:xsi="http://www.w3.org/2001/XMLSchema-instance" creator="eT4 META" version="1.1" xsi:schemaLocation="http://www.topografix.com/GPX/1/1 http://www.topografix.com/GPX/1/1/gpx.xsd" xmlns="http://www.topografix.com/GPX/1/1">
  <trk>
    <name>Aux auricules parfumées près de la Bireflue</name>
    <trkseg>
      <trkpt lat="46.69806" lon="7.79446">
        <ele>1161.8</ele>
        <time>2026-05-04T00:00:00.0000000+00:00</time>
      </trkpt>
      <trkpt lat="46.69804" lon="7.79443">
        <ele>1161.79</ele>
        <time>2026-05-04T00:00:04.4710000+00:00</time>
      </trkpt>
      <trkpt lat="46.69774" lon="7.7942">
        <ele>1158.78</ele>
        <time>2026-05-04T00:00:57.2690000+00:00</time>
      </trkpt>
      <trkpt lat="46.69781" lon="7.79414">
        <ele>1160.37</ele>
        <time>2026-05-04T00:01:09.9170000+00:00</time>
      </trkpt>
      <trkpt lat="46.69794" lon="7.79405">
        <ele>1163.08</ele>
        <time>2026-05-04T00:01:32.3340000+00:00</time>
      </trkpt>
      <trkpt lat="46.69801" lon="7.794">
        <ele>1164.52</ele>
        <time>2026-05-04T00:01:44.4760000+00:00</time>
      </trkpt>
      <trkpt lat="46.69803" lon="7.79392">
        <ele>1165.35</ele>
        <time>2026-05-04T00:01:53.5720000+00:00</time>
      </trkpt>
      <trkpt lat="46.69798" lon="7.79388">
        <ele>1164.83</ele>
        <time>2026-05-04T00:02:02.4560000+00:00</time>
      </trkpt>
      <trkpt lat="46.69809" lon="7.79368">
        <ele>1167.79</ele>
        <time>2026-05-04T00:02:29.8450000+00:00</time>
      </trkpt>
      <trkpt lat="46.69815" lon="7.79357">
        <ele>1169.35</ele>
        <time>2026-05-04T00:02:44.8590000+00:00</time>
      </trkpt>
      <trkpt lat="46.69812" lon="7.79355">
        <ele>1169.03</ele>
        <time>2026-05-04T00:02:49.9980000+00:00</time>
      </trkpt>
      <trkpt lat="46.69815" lon="7.79347">
        <ele>1170.69</ele>
        <time>2026-05-04T00:02:59.7400000+00:00</time>
      </trkpt>
      <trkpt lat="46.69819" lon="7.79346">
        <ele>1171.55</ele>
        <time>2026-05-04T00:03:06.0610000+00:00</time>
      </trkpt>
      <trkpt lat="46.69825" lon="7.79341">
        <ele>1173.79</ele>
        <time>2026-05-04T00:03:16.8260000+00:00</time>
      </trkpt>
      <trkpt lat="46.69829" lon="7.79332">
        <ele>1176.86</ele>
        <time>2026-05-04T00:03:28.2830000+00:00</time>
      </trkpt>
      <trkpt lat="46.69834" lon="7.79322">
        <ele>1180.4</ele>
        <time>2026-05-04T00:03:41.5030000+00:00</time>
      </trkpt>
      <trkpt lat="46.69831" lon="7.79316">
        <ele>1181.59</ele>
        <time>2026-05-04T00:03:49.4360000+00:00</time>
      </trkpt>
      <trkpt lat="46.69844" lon="7.79295">
        <ele>1189.58</ele>
        <time>2026-05-04T00:04:19.6590000+00:00</time>
      </trkpt>
      <trkpt lat="46.6985" lon="7.79291">
        <ele>1191.73</ele>
        <time>2026-05-04T00:04:29.9370000+00:00</time>
      </trkpt>
      <trkpt lat="46.69861" lon="7.7929">
        <ele>1194.04</ele>
        <time>2026-05-04T00:04:47.1050000+00:00</time>
      </trkpt>
      <trkpt lat="46.69892" lon="7.79298">
        <ele>1198.76</ele>
        <time>2026-05-04T00:05:36.1450000+00:00</time>
      </trkpt>
      <trkpt lat="46.69898" lon="7.79302">
        <ele>1198.9</ele>
        <time>2026-05-04T00:05:46.4210000+00:00</time>
      </trkpt>
      <trkpt lat="46.69904" lon="7.79303">
        <ele>1199.94</ele>
        <time>2026-05-04T00:05:55.8280000+00:00</time>
      </trkpt>
      <trkpt lat="46.69923" lon="7.79303">
        <ele>1204.21</ele>
        <time>2026-05-04T00:06:25.4250000+00:00</time>
      </trkpt>
      <trkpt lat="46.69939" lon="7.79308">
        <ele>1206.19</ele>
        <time>2026-05-04T00:06:50.9150000+00:00</time>
      </trkpt>
      <trkpt lat="46.69954" lon="7.79313">
        <ele>1208.25</ele>
        <time>2026-05-04T00:07:14.8830000+00:00</time>
      </trkpt>
      <trkpt lat="46.69964" lon="7.79318">
        <ele>1209.24</ele>
        <time>2026-05-04T00:07:31.3510000+00:00</time>
      </trkpt>
      <trkpt lat="46.69984" lon="7.79329">
        <ele>1211.25</ele>
        <time>2026-05-04T00:08:04.6480000+00:00</time>
      </trkpt>
      <trkpt lat="46.70008" lon="7.79342">
        <ele>1214.3</ele>
        <time>2026-05-04T00:08:44.5300000+00:00</time>
      </trkpt>
      <trkpt lat="46.70014" lon="7.79346">
        <ele>1214.98</ele>
        <time>2026-05-04T00:08:54.8070000+00:00</time>
      </trkpt>
      <trkpt lat="46.70027" lon="7.79354">
        <ele>1217.16</ele>
        <time>2026-05-04T00:09:16.7870000+00:00</time>
      </trkpt>
      <trkpt lat="46.70047" lon="7.79366">
        <ele>1222.31</ele>
        <time>2026-05-04T00:09:50.4760000+00:00</time>
      </trkpt>
      <trkpt lat="46.70054" lon="7.79368">
        <ele>1224.48</ele>
        <time>2026-05-04T00:10:01.5870000+00:00</time>
      </trkpt>
      <trkpt lat="46.70063" lon="7.79366">
        <ele>1227.78</ele>
        <time>2026-05-04T00:10:15.7680000+00:00</time>
      </trkpt>
      <trkpt lat="46.70075" lon="7.79365">
        <ele>1231.97</ele>
        <time>2026-05-04T00:10:34.4910000+00:00</time>
      </trkpt>
      <trkpt lat="46.70083" lon="7.79365">
        <ele>1234.7</ele>
        <time>2026-05-04T00:10:46.9530000+00:00</time>
      </trkpt>
      <trkpt lat="46.70089" lon="7.79367">
        <ele>1236.6</ele>
        <time>2026-05-04T00:10:56.5400000+00:00</time>
      </trkpt>
      <trkpt lat="46.70095" lon="7.79374">
        <ele>1238.22</ele>
        <time>2026-05-04T00:11:08.5090000+00:00</time>
      </trkpt>
      <trkpt lat="46.70101" lon="7.7938">
        <ele>1239.99</ele>
        <time>2026-05-04T00:11:19.8430000+00:00</time>
      </trkpt>
      <trkpt lat="46.70103" lon="7.79394">
        <ele>1239.95</ele>
        <time>2026-05-04T00:11:35.1200000+00:00</time>
      </trkpt>
      <trkpt lat="46.70106" lon="7.79397">
        <ele>1240.92</ele>
        <time>2026-05-04T00:11:40.7880000+00:00</time>
      </trkpt>
      <trkpt lat="46.70117" lon="7.79398">
        <ele>1245.48</ele>
        <time>2026-05-04T00:11:57.9560000+00:00</time>
      </trkpt>
      <trkpt lat="46.70123" lon="7.79408">
        <ele>1247.63</ele>
        <time>2026-05-04T00:12:12.1510000+00:00</time>
      </trkpt>
      <trkpt lat="46.70126" lon="7.79415">
        <ele>1248.65</ele>
        <time>2026-05-04T00:12:20.9690000+00:00</time>
      </trkpt>
      <trkpt lat="46.70136" lon="7.79418">
        <ele>1252.9</ele>
        <time>2026-05-04T00:12:36.8730000+00:00</time>
      </trkpt>
      <trkpt lat="46.70157" lon="7.79417">
        <ele>1262.12</ele>
        <time>2026-05-04T00:13:09.6020000+00:00</time>
      </trkpt>
      <trkpt lat="46.70165" lon="7.79408">
        <ele>1265.83</ele>
        <time>2026-05-04T00:13:25.3420000+00:00</time>
      </trkpt>
      <trkpt lat="46.70173" lon="7.79407">
        <ele>1269.31</ele>
        <time>2026-05-04T00:13:37.8500000+00:00</time>
      </trkpt>
      <trkpt lat="46.70176" lon="7.79408">
        <ele>1270.59</ele>
        <time>2026-05-04T00:13:42.6420000+00:00</time>
      </trkpt>
      <trkpt lat="46.70177" lon="7.79413">
        <ele>1270.93</ele>
        <time>2026-05-04T00:13:48.2050000+00:00</time>
      </trkpt>
      <trkpt lat="46.70178" lon="7.79415">
        <ele>1271.33</ele>
        <time>2026-05-04T00:13:50.8450000+00:00</time>
      </trkpt>
      <trkpt lat="46.70169" lon="7.79435">
        <ele>1266.83</ele>
        <time>2026-05-04T00:14:16.3990000+00:00</time>
      </trkpt>
      <trkpt lat="46.70165" lon="7.79449">
        <ele>1263.04</ele>
        <time>2026-05-04T00:14:32.6020000+00:00</time>
      </trkpt>
      <trkpt lat="46.70171" lon="7.79465">
        <ele>1263.49</ele>
        <time>2026-05-04T00:14:52.0820000+00:00</time>
      </trkpt>
      <trkpt lat="46.7018" lon="7.79488">
        <ele>1264.46</ele>
        <time>2026-05-04T00:15:20.3710000+00:00</time>
      </trkpt>
      <trkpt lat="46.70187" lon="7.79497">
        <ele>1266.53</ele>
        <time>2026-05-04T00:15:34.9080000+00:00</time>
      </trkpt>
      <trkpt lat="46.70197" lon="7.79511">
        <ele>1269.15</ele>
        <time>2026-05-04T00:15:56.5030000+00:00</time>
      </trkpt>
      <trkpt lat="46.70201" lon="7.79517">
        <ele>1270.11</ele>
        <time>2026-05-04T00:16:05.4430000+00:00</time>
      </trkpt>
      <trkpt lat="46.70221" lon="7.79532">
        <ele>1276.7</ele>
        <time>2026-05-04T00:16:40.4760000+00:00</time>
      </trkpt>
      <trkpt lat="46.70227" lon="7.79539">
        <ele>1278.52</ele>
        <time>2026-05-04T00:16:52.4460000+00:00</time>
      </trkpt>
      <trkpt lat="46.7023" lon="7.79549">
        <ele>1278.66</ele>
        <time>2026-05-04T00:17:04.1070000+00:00</time>
      </trkpt>
      <trkpt lat="46.70235" lon="7.79562">
        <ele>1279.53</ele>
        <time>2026-05-04T00:17:20.0300000+00:00</time>
      </trkpt>
      <trkpt lat="46.7024" lon="7.79566">
        <ele>1281.57</ele>
        <time>2026-05-04T00:17:28.9130000+00:00</time>
      </trkpt>
      <trkpt lat="46.70244" lon="7.79574">
        <ele>1282.75</ele>
        <time>2026-05-04T00:17:39.4900000+00:00</time>
      </trkpt>
      <trkpt lat="46.70247" lon="7.79587">
        <ele>1282.99</ele>
        <time>2026-05-04T00:17:54.1420000+00:00</time>
      </trkpt>
      <trkpt lat="46.70257" lon="7.79611">
        <ele>1286.35</ele>
        <time>2026-05-04T00:18:24.1420000+00:00</time>
      </trkpt>
      <trkpt lat="46.70265" lon="7.79628">
        <ele>1289.67</ele>
        <time>2026-05-04T00:18:46.1660000+00:00</time>
      </trkpt>
      <trkpt lat="46.70275" lon="7.7964">
        <ele>1294.74</ele>
        <time>2026-05-04T00:19:06.3400000+00:00</time>
      </trkpt>
      <trkpt lat="46.70286" lon="7.79651">
        <ele>1299.98</ele>
        <time>2026-05-04T00:19:27.1170000+00:00</time>
      </trkpt>
      <trkpt lat="46.70294" lon="7.79664">
        <ele>1303.7</ele>
        <time>2026-05-04T00:19:45.7760000+00:00</time>
      </trkpt>
      <trkpt lat="46.70302" lon="7.79682">
        <ele>1307.43</ele>
        <time>2026-05-04T00:20:08.6900000+00:00</time>
      </trkpt>
      <trkpt lat="46.70305" lon="7.7969">
        <ele>1308.71</ele>
        <time>2026-05-04T00:20:18.4310000+00:00</time>
      </trkpt>
      <trkpt lat="46.70313" lon="7.79719">
        <ele>1311.65</ele>
        <time>2026-05-04T00:20:51.8220000+00:00</time>
      </trkpt>
      <trkpt lat="46.70317" lon="7.79732">
        <ele>1313.23</ele>
        <time>2026-05-04T00:21:07.0430000+00:00</time>
      </trkpt>
      <trkpt lat="46.7032" lon="7.79753">
        <ele>1313.82</ele>
        <time>2026-05-04T00:21:29.9580000+00:00</time>
      </trkpt>
      <trkpt lat="46.70328" lon="7.79788">
        <ele>1315.86</ele>
        <time>2026-05-04T00:22:09.3690000+00:00</time>
      </trkpt>
      <trkpt lat="46.70333" lon="7.7982">
        <ele>1315.78</ele>
        <time>2026-05-04T00:22:44.4290000+00:00</time>
      </trkpt>
      <trkpt lat="46.70339" lon="7.79855">
        <ele>1315.02</ele>
        <time>2026-05-04T00:23:22.9680000+00:00</time>
      </trkpt>
      <trkpt lat="46.70347" lon="7.79898">
        <ele>1308.41</ele>
        <time>2026-05-04T00:24:10.5630000+00:00</time>
      </trkpt>
      <trkpt lat="46.7035" lon="7.79913">
        <ele>1305.97</ele>
        <time>2026-05-04T00:24:27.2540000+00:00</time>
      </trkpt>
      <trkpt lat="46.70356" lon="7.79927">
        <ele>1304.86</ele>
        <time>2026-05-04T00:24:44.8900000+00:00</time>
      </trkpt>
      <trkpt lat="46.7037" lon="7.79961">
        <ele>1300.33</ele>
        <time>2026-05-04T00:25:27.2550000+00:00</time>
      </trkpt>
      <trkpt lat="46.70378" lon="7.7997">
        <ele>1299.85</ele>
        <time>2026-05-04T00:25:42.9950000+00:00</time>
      </trkpt>
      <trkpt lat="46.70381" lon="7.79982">
        <ele>1297.98</ele>
        <time>2026-05-04T00:25:56.6390000+00:00</time>
      </trkpt>
      <trkpt lat="46.70385" lon="7.79992">
        <ele>1296.7</ele>
        <time>2026-05-04T00:26:09.0060000+00:00</time>
      </trkpt>
      <trkpt lat="46.70389" lon="7.8">
        <ele>1295.83</ele>
        <time>2026-05-04T00:26:19.5830000+00:00</time>
      </trkpt>
      <trkpt lat="46.70393" lon="7.80006">
        <ele>1295.37</ele>
        <time>2026-05-04T00:26:28.5220000+00:00</time>
      </trkpt>
      <trkpt lat="46.70399" lon="7.8001">
        <ele>1295.66</ele>
        <time>2026-05-04T00:26:38.8000000+00:00</time>
      </trkpt>
      <trkpt lat="46.70405" lon="7.80011">
        <ele>1296.54</ele>
        <time>2026-05-04T00:26:48.2060000+00:00</time>
      </trkpt>
      <trkpt lat="46.70412" lon="7.8001">
        <ele>1297.98</ele>
        <time>2026-05-04T00:26:59.1630000+00:00</time>
      </trkpt>
      <trkpt lat="46.70418" lon="7.80009">
        <ele>1299.23</ele>
        <time>2026-05-04T00:27:08.5700000+00:00</time>
      </trkpt>
      <trkpt lat="46.70416" lon="7.80006">
        <ele>1299.44</ele>
        <time>2026-05-04T00:27:13.0410000+00:00</time>
      </trkpt>
      <trkpt lat="46.70409" lon="7.80004">
        <ele>1298.58</ele>
        <time>2026-05-04T00:27:24.1520000+00:00</time>
      </trkpt>
      <trkpt lat="46.70411" lon="7.79997">
        <ele>1300.25</ele>
        <time>2026-05-04T00:27:32.2520000+00:00</time>
      </trkpt>
      <trkpt lat="46.70408" lon="7.79995">
        <ele>1300.11</ele>
        <time>2026-05-04T00:27:37.3910000+00:00</time>
      </trkpt>
      <trkpt lat="46.70416" lon="7.79984">
        <ele>1303.56</ele>
        <time>2026-05-04T00:27:54.5200000+00:00</time>
      </trkpt>
      <trkpt lat="46.70421" lon="7.79979">
        <ele>1305.35</ele>
        <time>2026-05-04T00:28:03.9640000+00:00</time>
      </trkpt>
      <trkpt lat="46.70421" lon="7.79977">
        <ele>1305.72</ele>
        <time>2026-05-04T00:28:06.1000000+00:00</time>
      </trkpt>
      <trkpt lat="46.70416" lon="7.79976">
        <ele>1305.06</ele>
        <time>2026-05-04T00:28:13.9610000+00:00</time>
      </trkpt>
      <trkpt lat="46.70406" lon="7.79973">
        <ele>1303.95</ele>
        <time>2026-05-04T00:28:29.8650000+00:00</time>
      </trkpt>
      <trkpt lat="46.70402" lon="7.79969">
        <ele>1304.05</ele>
        <time>2026-05-04T00:28:37.4200000+00:00</time>
      </trkpt>
      <trkpt lat="46.70398" lon="7.79957">
        <ele>1305.69</ele>
        <time>2026-05-04T00:28:51.6730000+00:00</time>
      </trkpt>
      <trkpt lat="46.70397" lon="7.79951">
        <ele>1306.69</ele>
        <time>2026-05-04T00:28:58.2700000+00:00</time>
      </trkpt>
      <trkpt lat="46.70399" lon="7.79944">
        <ele>1308.35</ele>
        <time>2026-05-04T00:29:06.3700000+00:00</time>
      </trkpt>
      <trkpt lat="46.70404" lon="7.79924">
        <ele>1313.84</ele>
        <time>2026-05-04T00:29:29.1110000+00:00</time>
      </trkpt>
      <trkpt lat="46.70406" lon="7.79909">
        <ele>1318.44</ele>
        <time>2026-05-04T00:29:45.4340000+00:00</time>
      </trkpt>
      <trkpt lat="46.7041" lon="7.79888">
        <ele>1325.13</ele>
        <time>2026-05-04T00:30:08.7160000+00:00</time>
      </trkpt>
      <trkpt lat="46.70412" lon="7.79878">
        <ele>1328.35</ele>
        <time>2026-05-04T00:30:19.8430000+00:00</time>
      </trkpt>
      <trkpt lat="46.70418" lon="7.79846">
        <ele>1338.33</ele>
        <time>2026-05-04T00:30:55.2810000+00:00</time>
      </trkpt>
      <trkpt lat="46.70422" lon="7.79825">
        <ele>1343.33</ele>
        <time>2026-05-04T00:31:18.5630000+00:00</time>
      </trkpt>
      <trkpt lat="46.70431" lon="7.79797">
        <ele>1351.35</ele>
        <time>2026-05-04T00:31:51.5960000+00:00</time>
      </trkpt>
      <trkpt lat="46.70434" lon="7.7978">
        <ele>1355.86</ele>
        <time>2026-05-04T00:32:10.3480000+00:00</time>
      </trkpt>
      <trkpt lat="46.70434" lon="7.79758">
        <ele>1359.63</ele>
        <time>2026-05-04T00:32:33.8490000+00:00</time>
      </trkpt>
      <trkpt lat="46.70437" lon="7.79747">
        <ele>1361.74</ele>
        <time>2026-05-04T00:32:46.4950000+00:00</time>
      </trkpt>
      <trkpt lat="46.7044" lon="7.79746">
        <ele>1362.83</ele>
        <time>2026-05-04T00:32:51.2880000+00:00</time>
      </trkpt>
      <trkpt lat="46.70444" lon="7.79745">
        <ele>1365.04</ele>
        <time>2026-05-04T00:32:57.6110000+00:00</time>
      </trkpt>
      <trkpt lat="46.70449" lon="7.79744">
        <ele>1368.28</ele>
        <time>2026-05-04T00:33:05.4720000+00:00</time>
      </trkpt>
      <trkpt lat="46.70454" lon="7.79744">
        <ele>1371.4</ele>
        <time>2026-05-04T00:33:13.2610000+00:00</time>
      </trkpt>
      <trkpt lat="46.70462" lon="7.79742">
        <ele>1376.78</ele>
        <time>2026-05-04T00:33:25.9050000+00:00</time>
      </trkpt>
      <trkpt lat="46.70468" lon="7.79739">
        <ele>1381.23</ele>
        <time>2026-05-04T00:33:35.7850000+00:00</time>
      </trkpt>
      <trkpt lat="46.70473" lon="7.79735">
        <ele>1385.42</ele>
        <time>2026-05-04T00:33:44.6690000+00:00</time>
      </trkpt>
      <trkpt lat="46.70476" lon="7.7973">
        <ele>1388.67</ele>
        <time>2026-05-04T00:33:51.7660000+00:00</time>
      </trkpt>
      <trkpt lat="46.70478" lon="7.79725">
        <ele>1391.35</ele>
        <time>2026-05-04T00:33:57.9490000+00:00</time>
      </trkpt>
      <trkpt lat="46.70485" lon="7.79722">
        <ele>1397.14</ele>
        <time>2026-05-04T00:34:09.3150000+00:00</time>
      </trkpt>
      <trkpt lat="46.70487" lon="7.79718">
        <ele>1399.77</ele>
        <time>2026-05-04T00:34:14.6010000+00:00</time>
      </trkpt>
      <trkpt lat="46.70491" lon="7.79713">
        <ele>1404.28</ele>
        <time>2026-05-04T00:34:22.8060000+00:00</time>
      </trkpt>
      <trkpt lat="46.70494" lon="7.79709">
        <ele>1407.86</ele>
        <time>2026-05-04T00:34:29.1370000+00:00</time>
      </trkpt>
      <trkpt lat="46.70496" lon="7.79698">
        <ele>1413.11</ele>
        <time>2026-05-04T00:34:41.2940000+00:00</time>
      </trkpt>
      <trkpt lat="46.70498" lon="7.79695">
        <ele>1415.77</ele>
        <time>2026-05-04T00:34:45.7650000+00:00</time>
      </trkpt>
      <trkpt lat="46.70501" lon="7.79694">
        <ele>1418.62</ele>
        <time>2026-05-04T00:34:50.5600000+00:00</time>
      </trkpt>
      <trkpt lat="46.70505" lon="7.79696">
        <ele>1421.2</ele>
        <time>2026-05-04T00:34:57.1480000+00:00</time>
      </trkpt>
      <trkpt lat="46.70508" lon="7.797">
        <ele>1422.13</ele>
        <time>2026-05-04T00:35:03.4820000+00:00</time>
      </trkpt>
      <trkpt lat="46.70509" lon="7.7971">
        <ele>1419.02</ele>
        <time>2026-05-04T00:35:14.2780000+00:00</time>
      </trkpt>
      <trkpt lat="46.70512" lon="7.79722">
        <ele>1416.48</ele>
        <time>2026-05-04T00:35:27.9220000+00:00</time>
      </trkpt>
      <trkpt lat="46.70518" lon="7.79737">
        <ele>1414.34</ele>
        <time>2026-05-04T00:35:46.4720000+00:00</time>
      </trkpt>
      <trkpt lat="46.70523" lon="7.79757">
        <ele>1408.61</ele>
        <time>2026-05-04T00:36:09.2120000+00:00</time>
      </trkpt>
      <trkpt lat="46.70527" lon="7.79765">
        <ele>1407.98</ele>
        <time>2026-05-04T00:36:19.7880000+00:00</time>
      </trkpt>
      <trkpt lat="46.70531" lon="7.79771">
        <ele>1409.23</ele>
        <time>2026-05-04T00:36:28.7270000+00:00</time>
      </trkpt>
      <trkpt lat="46.70534" lon="7.7976">
        <ele>1416.27</ele>
        <time>2026-05-04T00:36:41.3720000+00:00</time>
      </trkpt>
      <trkpt lat="46.70535" lon="7.7975">
        <ele>1421.49</ele>
        <time>2026-05-04T00:36:52.1670000+00:00</time>
      </trkpt>
      <trkpt lat="46.70538" lon="7.79739">
        <ele>1428.74</ele>
        <time>2026-05-04T00:37:04.8120000+00:00</time>
      </trkpt>
      <trkpt lat="46.7054" lon="7.79723">
        <ele>1437.18</ele>
        <time>2026-05-04T00:37:22.1850000+00:00</time>
      </trkpt>
      <trkpt lat="46.70541" lon="7.79715">
        <ele>1441.36</ele>
        <time>2026-05-04T00:37:30.8720000+00:00</time>
      </trkpt>
      <trkpt lat="46.70542" lon="7.79712">
        <ele>1443.39</ele>
        <time>2026-05-04T00:37:34.4360000+00:00</time>
      </trkpt>
      <trkpt lat="46.70544" lon="7.79713">
        <ele>1444.51</ele>
        <time>2026-05-04T00:37:37.7310000+00:00</time>
      </trkpt>
      <trkpt lat="46.70544" lon="7.79717">
        <ele>1442.84</ele>
        <time>2026-05-04T00:37:42.0040000+00:00</time>
      </trkpt>
      <trkpt lat="46.70547" lon="7.79724">
        <ele>1442.29</ele>
        <time>2026-05-04T00:37:50.8220000+00:00</time>
      </trkpt>
      <trkpt lat="46.7055" lon="7.79734">
        <ele>1440.61</ele>
        <time>2026-05-04T00:38:02.4810000+00:00</time>
      </trkpt>
      <trkpt lat="46.70555" lon="7.79745">
        <ele>1440.32</ele>
        <time>2026-05-04T00:38:16.5780000+00:00</time>
      </trkpt>
      <trkpt lat="46.70561" lon="7.79762">
        <ele>1438.81</ele>
        <time>2026-05-04T00:38:37.0010000+00:00</time>
      </trkpt>
      <trkpt lat="46.70566" lon="7.79773">
        <ele>1439.81</ele>
        <time>2026-05-04T00:38:51.0980000+00:00</time>
      </trkpt>
      <trkpt lat="46.70574" lon="7.79785">
        <ele>1444.27</ele>
        <time>2026-05-04T00:39:08.9760000+00:00</time>
      </trkpt>
      <trkpt lat="46.70582" lon="7.7979">
        <ele>1450.66</ele>
        <time>2026-05-04T00:39:22.5330000+00:00</time>
      </trkpt>
      <trkpt lat="46.70588" lon="7.79794">
        <ele>1455.56</ele>
        <time>2026-05-04T00:39:32.8100000+00:00</time>
      </trkpt>
      <trkpt lat="46.70594" lon="7.79794">
        <ele>1461.26</ele>
        <time>2026-05-04T00:39:42.1570000+00:00</time>
      </trkpt>
      <trkpt lat="46.70599" lon="7.79794">
        <ele>1466.02</ele>
        <time>2026-05-04T00:39:49.9460000+00:00</time>
      </trkpt>
      <trkpt lat="46.70607" lon="7.79807">
        <ele>1471.88</ele>
        <time>2026-05-04T00:40:08.6040000+00:00</time>
      </trkpt>
      <trkpt lat="46.70617" lon="7.7981">
        <ele>1477.49</ele>
        <time>2026-05-04T00:40:24.5080000+00:00</time>
      </trkpt>
      <trkpt lat="46.70618" lon="7.79807">
        <ele>1478.43</ele>
        <time>2026-05-04T00:40:28.0690000+00:00</time>
      </trkpt>
      <trkpt lat="46.70616" lon="7.7979">
        <ele>1479.47</ele>
        <time>2026-05-04T00:40:46.4930000+00:00</time>
      </trkpt>
      <trkpt lat="46.70626" lon="7.79792">
        <ele>1484.76</ele>
        <time>2026-05-04T00:41:02.2170000+00:00</time>
      </trkpt>
      <trkpt lat="46.70631" lon="7.79793">
        <ele>1487.42</ele>
        <time>2026-05-04T00:41:10.0780000+00:00</time>
      </trkpt>
      <trkpt lat="46.70639" lon="7.79787">
        <ele>1492.55</ele>
        <time>2026-05-04T00:41:24.0910000+00:00</time>
      </trkpt>
      <trkpt lat="46.70644" lon="7.79792">
        <ele>1494.75</ele>
        <time>2026-05-04T00:41:33.5350000+00:00</time>
      </trkpt>
      <trkpt lat="46.70646" lon="7.79795">
        <ele>1495.53</ele>
        <time>2026-05-04T00:41:38.0030000+00:00</time>
      </trkpt>
      <trkpt lat="46.70647" lon="7.798">
        <ele>1495.54</ele>
        <time>2026-05-04T00:41:43.5670000+00:00</time>
      </trkpt>
      <trkpt lat="46.70646" lon="7.7981">
        <ele>1493.88</ele>
        <time>2026-05-04T00:41:54.3620000+00:00</time>
      </trkpt>
      <trkpt lat="46.70643" lon="7.7983">
        <ele>1489.95</ele>
        <time>2026-05-04T00:42:16.2300000+00:00</time>
      </trkpt>
      <trkpt lat="46.70642" lon="7.79853">
        <ele>1486.33</ele>
        <time>2026-05-04T00:42:40.8480000+00:00</time>
      </trkpt>
      <trkpt lat="46.70642" lon="7.79878">
        <ele>1479.52</ele>
        <time>2026-05-04T00:43:07.5530000+00:00</time>
      </trkpt>
      <trkpt lat="46.70645" lon="7.7991">
        <ele>1472.91</ele>
        <time>2026-05-04T00:43:42.0540000+00:00</time>
      </trkpt>
      <trkpt lat="46.7065" lon="7.79936">
        <ele>1469.12</ele>
        <time>2026-05-04T00:44:10.8980000+00:00</time>
      </trkpt>
      <trkpt lat="46.70655" lon="7.79956">
        <ele>1463.32</ele>
        <time>2026-05-04T00:44:33.6370000+00:00</time>
      </trkpt>
      <trkpt lat="46.70663" lon="7.7997">
        <ele>1463.34</ele>
        <time>2026-05-04T00:44:53.1040000+00:00</time>
      </trkpt>
      <trkpt lat="46.70667" lon="7.79988">
        <ele>1458.66</ele>
        <time>2026-05-04T00:45:13.3160000+00:00</time>
      </trkpt>
      <trkpt lat="46.70667" lon="7.80004">
        <ele>1451.51</ele>
        <time>2026-05-04T00:45:30.4060000+00:00</time>
      </trkpt>
      <trkpt lat="46.70669" lon="7.80011">
        <ele>1450.27</ele>
        <time>2026-05-04T00:45:38.5070000+00:00</time>
      </trkpt>
      <trkpt lat="46.70671" lon="7.80017">
        <ele>1449.82</ele>
        <time>2026-05-04T00:45:45.6330000+00:00</time>
      </trkpt>
      <trkpt lat="46.7068" lon="7.80024">
        <ele>1461.2</ele>
        <time>2026-05-04T00:46:01.5220000+00:00</time>
      </trkpt>
      <trkpt lat="46.70687" lon="7.80028">
        <ele>1469.88</ele>
        <time>2026-05-04T00:46:13.2330000+00:00</time>
      </trkpt>
      <trkpt lat="46.7069" lon="7.8003">
        <ele>1473.81</ele>
        <time>2026-05-04T00:46:18.3700000+00:00</time>
      </trkpt>
      <trkpt lat="46.70695" lon="7.80031">
        <ele>1478.81</ele>
        <time>2026-05-04T00:46:26.2310000+00:00</time>
      </trkpt>
      <trkpt lat="46.70699" lon="7.8003">
        <ele>1481.91</ele>
        <time>2026-05-04T00:46:32.5520000+00:00</time>
      </trkpt>
      <trkpt lat="46.70712" lon="7.80022">
        <ele>1490.2</ele>
        <time>2026-05-04T00:46:54.5310000+00:00</time>
      </trkpt>
      <trkpt lat="46.70717" lon="7.80019">
        <ele>1493.55</ele>
        <time>2026-05-04T00:47:02.9520000+00:00</time>
      </trkpt>
      <trkpt lat="46.70722" lon="7.80018">
        <ele>1497.72</ele>
        <time>2026-05-04T00:47:10.8140000+00:00</time>
      </trkpt>
      <trkpt lat="46.70725" lon="7.80019">
        <ele>1500.81</ele>
        <time>2026-05-04T00:47:15.6050000+00:00</time>
      </trkpt>
      <trkpt lat="46.70729" lon="7.8002">
        <ele>1504.8</ele>
        <time>2026-05-04T00:47:21.9280000+00:00</time>
      </trkpt>
      <trkpt lat="46.70738" lon="7.8003">
        <ele>1516.3</ele>
        <time>2026-05-04T00:47:39.5530000+00:00</time>
      </trkpt>
      <trkpt lat="46.70741" lon="7.80035">
        <ele>1520.59</ele>
        <time>2026-05-04T00:47:46.6510000+00:00</time>
      </trkpt>
      <trkpt lat="46.70763" lon="7.80059">
        <ele>1546.43</ele>
        <time>2026-05-04T00:48:29.4480000+00:00</time>
      </trkpt>
      <trkpt lat="46.70764" lon="7.80063">
        <ele>1548.35</ele>
        <time>2026-05-04T00:48:33.9970000+00:00</time>
      </trkpt>
      <trkpt lat="46.70764" lon="7.80067">
        <ele>1549.45</ele>
        <time>2026-05-04T00:48:38.2700000+00:00</time>
      </trkpt>
      <trkpt lat="46.70762" lon="7.80081">
        <ele>1551.79</ele>
        <time>2026-05-04T00:48:53.5450000+00:00</time>
      </trkpt>
      <trkpt lat="46.70759" lon="7.80097">
        <ele>1554.1</ele>
        <time>2026-05-04T00:49:11.2630000+00:00</time>
      </trkpt>
      <trkpt lat="46.70758" lon="7.80106">
        <ele>1555.29</ele>
        <time>2026-05-04T00:49:21.0010000+00:00</time>
      </trkpt>
      <trkpt lat="46.70756" lon="7.80114">
        <ele>1555.36</ele>
        <time>2026-05-04T00:49:30.0970000+00:00</time>
      </trkpt>
      <trkpt lat="46.70751" lon="7.80121">
        <ele>1553.41</ele>
        <time>2026-05-04T00:49:40.8930000+00:00</time>
      </trkpt>
      <trkpt lat="46.70746" lon="7.80128">
        <ele>1551.7</ele>
        <time>2026-05-04T00:49:51.6890000+00:00</time>
      </trkpt>
      <trkpt lat="46.70742" lon="7.80138">
        <ele>1551.52</ele>
        <time>2026-05-04T00:50:04.0560000+00:00</time>
      </trkpt>
      <trkpt lat="46.70738" lon="7.80146">
        <ele>1551.14</ele>
        <time>2026-05-04T00:50:14.6330000+00:00</time>
      </trkpt>
      <trkpt lat="46.70736" lon="7.80153">
        <ele>1551.79</ele>
        <time>2026-05-04T00:50:22.7330000+00:00</time>
      </trkpt>
      <trkpt lat="46.70733" lon="7.80161">
        <ele>1552.28</ele>
        <time>2026-05-04T00:50:32.4730000+00:00</time>
      </trkpt>
      <trkpt lat="46.7073" lon="7.80171">
        <ele>1553.49</ele>
        <time>2026-05-04T00:50:44.1320000+00:00</time>
      </trkpt>
      <trkpt lat="46.70727" lon="7.80178">
        <ele>1554.05</ele>
        <time>2026-05-04T00:50:52.9500000+00:00</time>
      </trkpt>
      <trkpt lat="46.70724" lon="7.80182">
        <ele>1553.88</ele>
        <time>2026-05-04T00:50:59.2810000+00:00</time>
      </trkpt>
      <trkpt lat="46.70716" lon="7.8019">
        <ele>1549.72</ele>
        <time>2026-05-04T00:51:14.3910000+00:00</time>
      </trkpt>
      <trkpt lat="46.70712" lon="7.80195">
        <ele>1547.26</ele>
        <time>2026-05-04T00:51:22.5970000+00:00</time>
      </trkpt>
      <trkpt lat="46.70708" lon="7.80202">
        <ele>1544.55</ele>
        <time>2026-05-04T00:51:32.3300000+00:00</time>
      </trkpt>
      <trkpt lat="46.70702" lon="7.80212">
        <ele>1540.64</ele>
        <time>2026-05-04T00:51:46.5240000+00:00</time>
      </trkpt>
      <trkpt lat="46.70699" lon="7.80223">
        <ele>1537.89</ele>
        <time>2026-05-04T00:51:59.1690000+00:00</time>
      </trkpt>
      <trkpt lat="46.70696" lon="7.80235">
        <ele>1535.06</ele>
        <time>2026-05-04T00:52:12.8120000+00:00</time>
      </trkpt>
      <trkpt lat="46.70698" lon="7.80243">
        <ele>1534.73</ele>
        <time>2026-05-04T00:52:21.9080000+00:00</time>
      </trkpt>
      <trkpt lat="46.70701" lon="7.80252">
        <ele>1534.6</ele>
        <time>2026-05-04T00:52:32.5980000+00:00</time>
      </trkpt>
      <trkpt lat="46.70703" lon="7.80264">
        <ele>1533.64</ele>
        <time>2026-05-04T00:52:45.7890000+00:00</time>
      </trkpt>
      <trkpt lat="46.70706" lon="7.80274">
        <ele>1530.76</ele>
        <time>2026-05-04T00:52:57.4490000+00:00</time>
      </trkpt>
      <trkpt lat="46.70707" lon="7.80284">
        <ele>1526.39</ele>
        <time>2026-05-04T00:53:08.2430000+00:00</time>
      </trkpt>
      <trkpt lat="46.70707" lon="7.80296">
        <ele>1520.69</ele>
        <time>2026-05-04T00:53:21.0610000+00:00</time>
      </trkpt>
      <trkpt lat="46.70708" lon="7.80308">
        <ele>1515.46</ele>
        <time>2026-05-04T00:53:33.9730000+00:00</time>
      </trkpt>
      <trkpt lat="46.70711" lon="7.8032">
        <ele>1511.28</ele>
        <time>2026-05-04T00:53:47.6170000+00:00</time>
      </trkpt>
      <trkpt lat="46.70717" lon="7.80336">
        <ele>1507.09</ele>
        <time>2026-05-04T00:54:07.0960000+00:00</time>
      </trkpt>
      <trkpt lat="46.70725" lon="7.80352">
        <ele>1503.83</ele>
        <time>2026-05-04T00:54:28.2470000+00:00</time>
      </trkpt>
      <trkpt lat="46.70734" lon="7.80375">
        <ele>1492.63</ele>
        <time>2026-05-04T00:54:56.5340000+00:00</time>
      </trkpt>
      <trkpt lat="46.7074" lon="7.80391">
        <ele>1485.57</ele>
        <time>2026-05-04T00:55:16.0130000+00:00</time>
      </trkpt>
      <trkpt lat="46.70746" lon="7.804">
        <ele>1483.92</ele>
        <time>2026-05-04T00:55:29.4210000+00:00</time>
      </trkpt>
      <trkpt lat="46.70752" lon="7.80407">
        <ele>1483.97</ele>
        <time>2026-05-04T00:55:41.3900000+00:00</time>
      </trkpt>
      <trkpt lat="46.70754" lon="7.8041">
        <ele>1483.63</ele>
        <time>2026-05-04T00:55:45.8610000+00:00</time>
      </trkpt>
      <trkpt lat="46.70758" lon="7.80412">
        <ele>1485.59</ele>
        <time>2026-05-04T00:55:52.4480000+00:00</time>
      </trkpt>
      <trkpt lat="46.70761" lon="7.80417">
        <ele>1484.95</ele>
        <time>2026-05-04T00:55:59.5440000+00:00</time>
      </trkpt>
      <trkpt lat="46.70764" lon="7.80423">
        <ele>1483.81</ele>
        <time>2026-05-04T00:56:07.4750000+00:00</time>
      </trkpt>
      <trkpt lat="46.70767" lon="7.8043">
        <ele>1482.22</ele>
        <time>2026-05-04T00:56:16.2930000+00:00</time>
      </trkpt>
      <trkpt lat="46.7077" lon="7.80434">
        <ele>1482.31</ele>
        <time>2026-05-04T00:56:22.6230000+00:00</time>
      </trkpt>
      <trkpt lat="46.70774" lon="7.80441">
        <ele>1480.23</ele>
        <time>2026-05-04T00:56:32.3570000+00:00</time>
      </trkpt>
      <trkpt lat="46.70778" lon="7.80446">
        <ele>1479.4</ele>
        <time>2026-05-04T00:56:40.5630000+00:00</time>
      </trkpt>
      <trkpt lat="46.70781" lon="7.80449">
        <ele>1479.44</ele>
        <time>2026-05-04T00:56:46.2290000+00:00</time>
      </trkpt>
      <trkpt lat="46.70788" lon="7.80452">
        <ele>1482.79</ele>
        <time>2026-05-04T00:56:57.5950000+00:00</time>
      </trkpt>
      <trkpt lat="46.70794" lon="7.8045">
        <ele>1489.13</ele>
        <time>2026-05-04T00:57:07.1820000+00:00</time>
      </trkpt>
      <trkpt lat="46.70803" lon="7.80442">
        <ele>1502</ele>
        <time>2026-05-04T00:57:23.6010000+00:00</time>
      </trkpt>
      <trkpt lat="46.70807" lon="7.80439">
        <ele>1507.17</ele>
        <time>2026-05-04T00:57:30.6080000+00:00</time>
      </trkpt>
      <trkpt lat="46.70801" lon="7.80428">
        <ele>1509.09</ele>
        <time>2026-05-04T00:57:45.6210000+00:00</time>
      </trkpt>
      <trkpt lat="46.7081" lon="7.80426">
        <ele>1516.44</ele>
        <time>2026-05-04T00:57:59.8030000+00:00</time>
      </trkpt>
      <trkpt lat="46.70824" lon="7.80428">
        <ele>1525.74</ele>
        <time>2026-05-04T00:58:21.7150000+00:00</time>
      </trkpt>
      <trkpt lat="46.70829" lon="7.80429">
        <ele>1529.02</ele>
        <time>2026-05-04T00:58:29.5770000+00:00</time>
      </trkpt>
      <trkpt lat="46.70822" lon="7.80416">
        <ele>1528.68</ele>
        <time>2026-05-04T00:58:47.2320000+00:00</time>
      </trkpt>
      <trkpt lat="46.70811" lon="7.80409">
        <ele>1524.14</ele>
        <time>2026-05-04T00:59:05.9270000+00:00</time>
      </trkpt>
      <trkpt lat="46.70804" lon="7.80404">
        <ele>1521.84</ele>
        <time>2026-05-04T00:59:18.0700000+00:00</time>
      </trkpt>
      <trkpt lat="46.70797" lon="7.80399">
        <ele>1519.82</ele>
        <time>2026-05-04T00:59:30.2130000+00:00</time>
      </trkpt>
      <trkpt lat="46.70795" lon="7.80396">
        <ele>1520.05</ele>
        <time>2026-05-04T00:59:34.6790000+00:00</time>
      </trkpt>
      <trkpt lat="46.70793" lon="7.80388">
        <ele>1522.76</ele>
        <time>2026-05-04T00:59:43.7750000+00:00</time>
      </trkpt>
      <trkpt lat="46.70792" lon="7.80383">
        <ele>1524.66</ele>
        <time>2026-05-04T00:59:49.3370000+00:00</time>
      </trkpt>
      <trkpt lat="46.70789" lon="7.80381">
        <ele>1524.06</ele>
        <time>2026-05-04T00:59:54.4740000+00:00</time>
      </trkpt>
      <trkpt lat="46.70782" lon="7.80377">
        <ele>1522.5</ele>
        <time>2026-05-04T01:00:06.1850000+00:00</time>
      </trkpt>
      <trkpt lat="46.70774" lon="7.80373">
        <ele>1520.62</ele>
        <time>2026-05-04T01:00:19.3580000+00:00</time>
      </trkpt>
      <trkpt lat="46.70766" lon="7.80368">
        <ele>1518.29</ele>
        <time>2026-05-04T01:00:32.9160000+00:00</time>
      </trkpt>
      <trkpt lat="46.7076" lon="7.80361">
        <ele>1518.74</ele>
        <time>2026-05-04T01:00:44.8860000+00:00</time>
      </trkpt>
      <trkpt lat="46.70757" lon="7.80356">
        <ele>1520.03</ele>
        <time>2026-05-04T01:00:51.9820000+00:00</time>
      </trkpt>
      <trkpt lat="46.70753" lon="7.80351">
        <ele>1520.86</ele>
        <time>2026-05-04T01:01:00.1890000+00:00</time>
      </trkpt>
      <trkpt lat="46.7075" lon="7.80345">
        <ele>1521.67</ele>
        <time>2026-05-04T01:01:08.1210000+00:00</time>
      </trkpt>
      <trkpt lat="46.70747" lon="7.80338">
        <ele>1522.58</ele>
        <time>2026-05-04T01:01:16.9380000+00:00</time>
      </trkpt>
      <trkpt lat="46.70743" lon="7.8033">
        <ele>1523.45</ele>
        <time>2026-05-04T01:01:27.5140000+00:00</time>
      </trkpt>
      <trkpt lat="46.70736" lon="7.80316">
        <ele>1525.37</ele>
        <time>2026-05-04T01:01:46.0220000+00:00</time>
      </trkpt>
      <trkpt lat="46.7073" lon="7.80302">
        <ele>1528.25</ele>
        <time>2026-05-04T01:02:03.6560000+00:00</time>
      </trkpt>
      <trkpt lat="46.70726" lon="7.8029">
        <ele>1531.55</ele>
        <time>2026-05-04T01:02:17.9080000+00:00</time>
      </trkpt>
      <trkpt lat="46.70725" lon="7.8028">
        <ele>1535.41</ele>
        <time>2026-05-04T01:02:28.7030000+00:00</time>
      </trkpt>
      <trkpt lat="46.70727" lon="7.80268">
        <ele>1541.28</ele>
        <time>2026-05-04T01:02:41.8940000+00:00</time>
      </trkpt>
      <trkpt lat="46.70729" lon="7.80255">
        <ele>1544.55</ele>
        <time>2026-05-04T01:02:56.1260000+00:00</time>
      </trkpt>
      <trkpt lat="46.70732" lon="7.80247">
        <ele>1547</ele>
        <time>2026-05-04T01:03:05.8650000+00:00</time>
      </trkpt>
      <trkpt lat="46.70739" lon="7.80233">
        <ele>1552.07</ele>
        <time>2026-05-04T01:03:24.3730000+00:00</time>
      </trkpt>
      <trkpt lat="46.70747" lon="7.80205">
        <ele>1560.23</ele>
        <time>2026-05-04T01:03:56.7740000+00:00</time>
      </trkpt>
      <trkpt lat="46.70751" lon="7.80198">
        <ele>1563.18</ele>
        <time>2026-05-04T01:04:06.5070000+00:00</time>
      </trkpt>
      <trkpt lat="46.70758" lon="7.80171">
        <ele>1566.78</ele>
        <time>2026-05-04T01:04:37.3400000+00:00</time>
      </trkpt>
      <trkpt lat="46.70775" lon="7.8013">
        <ele>1569.85</ele>
        <time>2026-05-04T01:05:28.5190000+00:00</time>
      </trkpt>
      <trkpt lat="46.70793" lon="7.80088">
        <ele>1571.18</ele>
        <time>2026-05-04T01:06:21.4230000+00:00</time>
      </trkpt>
      <trkpt lat="46.70799" lon="7.8007">
        <ele>1569.54</ele>
        <time>2026-05-04T01:06:42.8010000+00:00</time>
      </trkpt>
      <trkpt lat="46.70809" lon="7.80046">
        <ele>1568.46</ele>
        <time>2026-05-04T01:07:12.7980000+00:00</time>
      </trkpt>
      <trkpt lat="46.70811" lon="7.80032">
        <ele>1566.15</ele>
        <time>2026-05-04T01:07:28.0730000+00:00</time>
      </trkpt>
      <trkpt lat="46.70813" lon="7.80016">
        <ele>1563.44</ele>
        <time>2026-05-04T01:07:45.4450000+00:00</time>
      </trkpt>
      <trkpt lat="46.70815" lon="7.79979">
        <ele>1557.34</ele>
        <time>2026-05-04T01:08:25.0900000+00:00</time>
      </trkpt>
      <trkpt lat="46.70815" lon="7.79946">
        <ele>1551.05</ele>
        <time>2026-05-04T01:09:00.3390000+00:00</time>
      </trkpt>
      <trkpt lat="46.70817" lon="7.79923">
        <ele>1549.04</ele>
        <time>2026-05-04T01:09:25.1030000+00:00</time>
      </trkpt>
      <trkpt lat="46.70816" lon="7.79911">
        <ele>1548.33</ele>
        <time>2026-05-04T01:09:38.0150000+00:00</time>
      </trkpt>
      <trkpt lat="46.70813" lon="7.79894">
        <ele>1546.86</ele>
        <time>2026-05-04T01:09:56.7650000+00:00</time>
      </trkpt>
      <trkpt lat="46.70809" lon="7.79872">
        <ele>1545.07</ele>
        <time>2026-05-04T01:10:21.0760000+00:00</time>
      </trkpt>
      <trkpt lat="46.70804" lon="7.79857">
        <ele>1543.31</ele>
        <time>2026-05-04T01:10:38.8910000+00:00</time>
      </trkpt>
      <trkpt lat="46.70791" lon="7.79837">
        <ele>1540.86</ele>
        <time>2026-05-04T01:11:08.3270000+00:00</time>
      </trkpt>
      <trkpt lat="46.70788" lon="7.79824">
        <ele>1541.22</ele>
        <time>2026-05-04T01:11:22.9790000+00:00</time>
      </trkpt>
      <trkpt lat="46.70781" lon="7.79818">
        <ele>1539.69</ele>
        <time>2026-05-04T01:11:35.6270000+00:00</time>
      </trkpt>
      <trkpt lat="46.70771" lon="7.79821">
        <ele>1536.68</ele>
        <time>2026-05-04T01:11:51.5300000+00:00</time>
      </trkpt>
      <trkpt lat="46.70762" lon="7.79822">
        <ele>1534.55</ele>
        <time>2026-05-04T01:12:05.5900000+00:00</time>
      </trkpt>
      <trkpt lat="46.70756" lon="7.79822">
        <ele>1533.18</ele>
        <time>2026-05-04T01:12:14.9350000+00:00</time>
      </trkpt>
      <trkpt lat="46.70751" lon="7.79818">
        <ele>1532.37</ele>
        <time>2026-05-04T01:12:23.8170000+00:00</time>
      </trkpt>
      <trkpt lat="46.70749" lon="7.79814">
        <ele>1532.25</ele>
        <time>2026-05-04T01:12:29.1040000+00:00</time>
      </trkpt>
      <trkpt lat="46.70744" lon="7.79804">
        <ele>1531.95</ele>
        <time>2026-05-04T01:12:42.3240000+00:00</time>
      </trkpt>
      <trkpt lat="46.70738" lon="7.79795">
        <ele>1531.34</ele>
        <time>2026-05-04T01:12:55.7320000+00:00</time>
      </trkpt>
      <trkpt lat="46.70736" lon="7.79788">
        <ele>1531.47</ele>
        <time>2026-05-04T01:13:03.8320000+00:00</time>
      </trkpt>
      <trkpt lat="46.70733" lon="7.79783">
        <ele>1531.21</ele>
        <time>2026-05-04T01:13:10.9300000+00:00</time>
      </trkpt>
      <trkpt lat="46.70732" lon="7.79778">
        <ele>1531.4</ele>
        <time>2026-05-04T01:13:16.4930000+00:00</time>
      </trkpt>
      <trkpt lat="46.70732" lon="7.79771">
        <ele>1531.99</ele>
        <time>2026-05-04T01:13:23.9710000+00:00</time>
      </trkpt>
      <trkpt lat="46.70733" lon="7.79763">
        <ele>1532.91</ele>
        <time>2026-05-04T01:13:32.6560000+00:00</time>
      </trkpt>
      <trkpt lat="46.70732" lon="7.7976">
        <ele>1532.96</ele>
        <time>2026-05-04T01:13:36.2170000+00:00</time>
      </trkpt>
      <trkpt lat="46.70729" lon="7.79756">
        <ele>1532.65</ele>
        <time>2026-05-04T01:13:42.5480000+00:00</time>
      </trkpt>
      <trkpt lat="46.70725" lon="7.79752">
        <ele>1532.13</ele>
        <time>2026-05-04T01:13:50.1030000+00:00</time>
      </trkpt>
      <trkpt lat="46.70724" lon="7.79749">
        <ele>1532.19</ele>
        <time>2026-05-04T01:13:53.6620000+00:00</time>
      </trkpt>
      <trkpt lat="46.70724" lon="7.79745">
        <ele>1532.56</ele>
        <time>2026-05-04T01:13:57.9320000+00:00</time>
      </trkpt>
      <trkpt lat="46.70722" lon="7.79742">
        <ele>1532.41</ele>
        <time>2026-05-04T01:14:02.4010000+00:00</time>
      </trkpt>
      <trkpt lat="46.70721" lon="7.7974">
        <ele>1532.38</ele>
        <time>2026-05-04T01:14:05.0410000+00:00</time>
      </trkpt>
      <trkpt lat="46.7072" lon="7.79738">
        <ele>1532.36</ele>
        <time>2026-05-04T01:14:07.6870000+00:00</time>
      </trkpt>
      <trkpt lat="46.70719" lon="7.79736">
        <ele>1532.33</ele>
        <time>2026-05-04T01:14:10.3300000+00:00</time>
      </trkpt>
      <trkpt lat="46.70719" lon="7.79732">
        <ele>1532.72</ele>
        <time>2026-05-04T01:14:14.6010000+00:00</time>
      </trkpt>
      <trkpt lat="46.70714" lon="7.79732">
        <ele>1531.65</ele>
        <time>2026-05-04T01:14:22.3890000+00:00</time>
      </trkpt>
      <trkpt lat="46.70709" lon="7.79731">
        <ele>1530.69</ele>
        <time>2026-05-04T01:14:30.2500000+00:00</time>
      </trkpt>
      <trkpt lat="46.70705" lon="7.79732">
        <ele>1529.73</ele>
        <time>2026-05-04T01:14:36.5720000+00:00</time>
      </trkpt>
      <trkpt lat="46.70702" lon="7.79733">
        <ele>1528.99</ele>
        <time>2026-05-04T01:14:41.3680000+00:00</time>
      </trkpt>
      <trkpt lat="46.70699" lon="7.79736">
        <ele>1528.03</ele>
        <time>2026-05-04T01:14:47.0320000+00:00</time>
      </trkpt>
      <trkpt lat="46.70696" lon="7.79738">
        <ele>1527.18</ele>
        <time>2026-05-04T01:14:52.1690000+00:00</time>
      </trkpt>
      <trkpt lat="46.70694" lon="7.79738">
        <ele>1526.75</ele>
        <time>2026-05-04T01:14:55.2820000+00:00</time>
      </trkpt>
      <trkpt lat="46.7069" lon="7.79736">
        <ele>1525.82</ele>
        <time>2026-05-04T01:15:01.8680000+00:00</time>
      </trkpt>
      <trkpt lat="46.70685" lon="7.79736">
        <ele>1523.45</ele>
        <time>2026-05-04T01:15:09.6560000+00:00</time>
      </trkpt>
      <trkpt lat="46.70678" lon="7.79736">
        <ele>1520.13</ele>
        <time>2026-05-04T01:15:20.5600000+00:00</time>
      </trkpt>
      <trkpt lat="46.70672" lon="7.79733">
        <ele>1517.74</ele>
        <time>2026-05-04T01:15:30.4410000+00:00</time>
      </trkpt>
      <trkpt lat="46.70669" lon="7.7973">
        <ele>1516.81</ele>
        <time>2026-05-04T01:15:36.1080000+00:00</time>
      </trkpt>
      <trkpt lat="46.70667" lon="7.79725">
        <ele>1516.69</ele>
        <time>2026-05-04T01:15:42.2920000+00:00</time>
      </trkpt>
      <trkpt lat="46.70662" lon="7.79718">
        <ele>1515.63</ele>
        <time>2026-05-04T01:15:53.0890000+00:00</time>
      </trkpt>
      <trkpt lat="46.70659" lon="7.79709">
        <ele>1515.93</ele>
        <time>2026-05-04T01:16:03.7790000+00:00</time>
      </trkpt>
      <trkpt lat="46.70655" lon="7.79697">
        <ele>1516.5</ele>
        <time>2026-05-04T01:16:18.0310000+00:00</time>
      </trkpt>
      <trkpt lat="46.7065" lon="7.79689">
        <ele>1516.13</ele>
        <time>2026-05-04T01:16:29.5930000+00:00</time>
      </trkpt>
      <trkpt lat="46.70646" lon="7.79685">
        <ele>1515.47</ele>
        <time>2026-05-04T01:16:37.1470000+00:00</time>
      </trkpt>
      <trkpt lat="46.70641" lon="7.79685">
        <ele>1513.65</ele>
        <time>2026-05-04T01:16:44.9350000+00:00</time>
      </trkpt>
      <trkpt lat="46.70633" lon="7.79688">
        <ele>1510.04</ele>
        <time>2026-05-04T01:16:57.8020000+00:00</time>
      </trkpt>
      <trkpt lat="46.70621" lon="7.79695">
        <ele>1503.78</ele>
        <time>2026-05-04T01:17:17.9350000+00:00</time>
      </trkpt>
      <trkpt lat="46.70615" lon="7.79699">
        <ele>1500.38</ele>
        <time>2026-05-04T01:17:28.2100000+00:00</time>
      </trkpt>
      <trkpt lat="46.7061" lon="7.79696">
        <ele>1499.27</ele>
        <time>2026-05-04T01:17:36.6320000+00:00</time>
      </trkpt>
      <trkpt lat="46.70604" lon="7.79663">
        <ele>1510.76</ele>
        <time>2026-05-04T01:18:13.1010000+00:00</time>
      </trkpt>
      <trkpt lat="46.70604" lon="7.79655">
        <ele>1515.21</ele>
        <time>2026-05-04T01:18:21.6480000+00:00</time>
      </trkpt>
      <trkpt lat="46.70601" lon="7.79637">
        <ele>1522.82</ele>
        <time>2026-05-04T01:18:41.4350000+00:00</time>
      </trkpt>
      <trkpt lat="46.70599" lon="7.79632">
        <ele>1523.95</ele>
        <time>2026-05-04T01:18:47.6190000+00:00</time>
      </trkpt>
      <trkpt lat="46.70595" lon="7.79622">
        <ele>1526.09</ele>
        <time>2026-05-04T01:18:59.9850000+00:00</time>
      </trkpt>
      <trkpt lat="46.70594" lon="7.79618">
        <ele>1527.4</ele>
        <time>2026-05-04T01:19:04.5300000+00:00</time>
      </trkpt>
      <trkpt lat="46.70595" lon="7.79611">
        <ele>1532.01</ele>
        <time>2026-05-04T01:19:12.1670000+00:00</time>
      </trkpt>
      <trkpt lat="46.70598" lon="7.79607">
        <ele>1536.75</ele>
        <time>2026-05-04T01:19:18.4960000+00:00</time>
      </trkpt>
      <trkpt lat="46.70607" lon="7.79593">
        <ele>1551.69</ele>
        <time>2026-05-04T01:19:38.9950000+00:00</time>
      </trkpt>
      <trkpt lat="46.70614" lon="7.79577">
        <ele>1560.54</ele>
        <time>2026-05-04T01:19:59.2680000+00:00</time>
      </trkpt>
      <trkpt lat="46.70615" lon="7.79571">
        <ele>1563.5</ele>
        <time>2026-05-04T01:20:05.8630000+00:00</time>
      </trkpt>
      <trkpt lat="46.70614" lon="7.79566">
        <ele>1565.77</ele>
        <time>2026-05-04T01:20:11.4270000+00:00</time>
      </trkpt>
      <trkpt lat="46.7061" lon="7.79561">
        <ele>1567.68</ele>
        <time>2026-05-04T01:20:19.6340000+00:00</time>
      </trkpt>
      <trkpt lat="46.70607" lon="7.79556">
        <ele>1568.95</ele>
        <time>2026-05-04T01:20:26.7310000+00:00</time>
      </trkpt>
      <trkpt lat="46.706" lon="7.79549">
        <ele>1565.14</ele>
        <time>2026-05-04T01:20:39.9530000+00:00</time>
      </trkpt>
      <trkpt lat="46.70591" lon="7.79542">
        <ele>1559.02</ele>
        <time>2026-05-04T01:20:55.8420000+00:00</time>
      </trkpt>
      <trkpt lat="46.70587" lon="7.79536">
        <ele>1557.39</ele>
        <time>2026-05-04T01:21:04.7820000+00:00</time>
      </trkpt>
      <trkpt lat="46.70586" lon="7.79531">
        <ele>1558.41</ele>
        <time>2026-05-04T01:21:10.3450000+00:00</time>
      </trkpt>
      <trkpt lat="46.70586" lon="7.79525">
        <ele>1560.88</ele>
        <time>2026-05-04T01:21:16.7550000+00:00</time>
      </trkpt>
      <trkpt lat="46.70588" lon="7.79516">
        <ele>1566.53</ele>
        <time>2026-05-04T01:21:26.8620000+00:00</time>
      </trkpt>
      <trkpt lat="46.70593" lon="7.795">
        <ele>1575.04</ele>
        <time>2026-05-04T01:21:45.6440000+00:00</time>
      </trkpt>
      <trkpt lat="46.70597" lon="7.79483">
        <ele>1582.66</ele>
        <time>2026-05-04T01:22:04.8430000+00:00</time>
      </trkpt>
      <trkpt lat="46.70599" lon="7.79473">
        <ele>1586.77</ele>
        <time>2026-05-04T01:22:15.9710000+00:00</time>
      </trkpt>
      <trkpt lat="46.70599" lon="7.79467">
        <ele>1587.91</ele>
        <time>2026-05-04T01:22:22.3790000+00:00</time>
      </trkpt>
      <trkpt lat="46.70599" lon="7.79452">
        <ele>1590.77</ele>
        <time>2026-05-04T01:22:38.4020000+00:00</time>
      </trkpt>
      <trkpt lat="46.706" lon="7.79444">
        <ele>1593.4</ele>
        <time>2026-05-04T01:22:47.0890000+00:00</time>
      </trkpt>
      <trkpt lat="46.70602" lon="7.79438">
        <ele>1596.76</ele>
        <time>2026-05-04T01:22:54.2160000+00:00</time>
      </trkpt>
      <trkpt lat="46.70605" lon="7.79433">
        <ele>1600.69</ele>
        <time>2026-05-04T01:23:01.3120000+00:00</time>
      </trkpt>
      <trkpt lat="46.7061" lon="7.79419">
        <ele>1601.41</ele>
        <time>2026-05-04T01:23:18.1740000+00:00</time>
      </trkpt>
      <trkpt lat="46.70616" lon="7.79401">
        <ele>1600.34</ele>
        <time>2026-05-04T01:23:39.5520000+00:00</time>
      </trkpt>
      <trkpt lat="46.7062" lon="7.79392">
        <ele>1600.69</ele>
        <time>2026-05-04T01:23:51.0090000+00:00</time>
      </trkpt>
      <trkpt lat="46.70621" lon="7.79389">
        <ele>1600.68</ele>
        <time>2026-05-04T01:23:54.5730000+00:00</time>
      </trkpt>
      <trkpt lat="46.70619" lon="7.79386">
        <ele>1598.97</ele>
        <time>2026-05-04T01:23:59.0420000+00:00</time>
      </trkpt>
      <trkpt lat="46.70616" lon="7.79384">
        <ele>1596.82</ele>
        <time>2026-05-04T01:24:04.1820000+00:00</time>
      </trkpt>
      <trkpt lat="46.70609" lon="7.79385">
        <ele>1592.96</ele>
        <time>2026-05-04T01:24:15.1380000+00:00</time>
      </trkpt>
      <trkpt lat="46.70602" lon="7.79387">
        <ele>1586.63</ele>
        <time>2026-05-04T01:24:26.2490000+00:00</time>
      </trkpt>
      <trkpt lat="46.70589" lon="7.79391">
        <ele>1573.85</ele>
        <time>2026-05-04T01:24:46.9450000+00:00</time>
      </trkpt>
      <trkpt lat="46.70586" lon="7.7939">
        <ele>1570.46</ele>
        <time>2026-05-04T01:24:51.7380000+00:00</time>
      </trkpt>
      <trkpt lat="46.7058" lon="7.79376">
        <ele>1561.22</ele>
        <time>2026-05-04T01:25:09.3730000+00:00</time>
      </trkpt>
      <trkpt lat="46.70582" lon="7.79359">
        <ele>1559.72</ele>
        <time>2026-05-04T01:25:27.7980000+00:00</time>
      </trkpt>
      <trkpt lat="46.70584" lon="7.79349">
        <ele>1559.98</ele>
        <time>2026-05-04T01:25:38.9260000+00:00</time>
      </trkpt>
      <trkpt lat="46.70584" lon="7.79334">
        <ele>1560.19</ele>
        <time>2026-05-04T01:25:54.9490000+00:00</time>
      </trkpt>
      <trkpt lat="46.70585" lon="7.79327">
        <ele>1561.26</ele>
        <time>2026-05-04T01:26:02.5870000+00:00</time>
      </trkpt>
      <trkpt lat="46.70587" lon="7.7932">
        <ele>1563.26</ele>
        <time>2026-05-04T01:26:10.6870000+00:00</time>
      </trkpt>
      <trkpt lat="46.70586" lon="7.79314">
        <ele>1562.37</ele>
        <time>2026-05-04T01:26:17.2840000+00:00</time>
      </trkpt>
      <trkpt lat="46.70584" lon="7.79306">
        <ele>1560.58</ele>
        <time>2026-05-04T01:26:26.3800000+00:00</time>
      </trkpt>
      <trkpt lat="46.7058" lon="7.79298">
        <ele>1556.98</ele>
        <time>2026-05-04T01:26:36.9560000+00:00</time>
      </trkpt>
      <trkpt lat="46.70576" lon="7.79293">
        <ele>1553.42</ele>
        <time>2026-05-04T01:26:45.1630000+00:00</time>
      </trkpt>
      <trkpt lat="46.70575" lon="7.79292">
        <ele>1552.53</ele>
        <time>2026-05-04T01:26:47.0530000+00:00</time>
      </trkpt>
      <trkpt lat="46.70574" lon="7.7928">
        <ele>1551.97</ele>
        <time>2026-05-04T01:26:59.9650000+00:00</time>
      </trkpt>
      <trkpt lat="46.70573" lon="7.79268">
        <ele>1551.44</ele>
        <time>2026-05-04T01:27:12.8770000+00:00</time>
      </trkpt>
      <trkpt lat="46.70575" lon="7.79256">
        <ele>1552.43</ele>
        <time>2026-05-04T01:27:26.0690000+00:00</time>
      </trkpt>
      <trkpt lat="46.70574" lon="7.79247">
        <ele>1550.94</ele>
        <time>2026-05-04T01:27:35.8070000+00:00</time>
      </trkpt>
      <trkpt lat="46.70571" lon="7.79241">
        <ele>1547.92</ele>
        <time>2026-05-04T01:27:43.7380000+00:00</time>
      </trkpt>
      <trkpt lat="46.7057" lon="7.79229">
        <ele>1546.24</ele>
        <time>2026-05-04T01:27:56.6510000+00:00</time>
      </trkpt>
      <trkpt lat="46.70571" lon="7.79222">
        <ele>1546.63</ele>
        <time>2026-05-04T01:28:04.2890000+00:00</time>
      </trkpt>
      <trkpt lat="46.7057" lon="7.79218">
        <ele>1545.5</ele>
        <time>2026-05-04T01:28:08.8380000+00:00</time>
      </trkpt>
      <trkpt lat="46.70565" lon="7.79213">
        <ele>1540.9</ele>
        <time>2026-05-04T01:28:18.2830000+00:00</time>
      </trkpt>
      <trkpt lat="46.70561" lon="7.79206">
        <ele>1537.04</ele>
        <time>2026-05-04T01:28:28.0160000+00:00</time>
      </trkpt>
      <trkpt lat="46.70558" lon="7.79198">
        <ele>1533.98</ele>
        <time>2026-05-04T01:28:37.7570000+00:00</time>
      </trkpt>
      <trkpt lat="46.70554" lon="7.79192">
        <ele>1530.23</ele>
        <time>2026-05-04T01:28:46.6960000+00:00</time>
      </trkpt>
      <trkpt lat="46.70548" lon="7.79189">
        <ele>1524.99</ele>
        <time>2026-05-04T01:28:56.5770000+00:00</time>
      </trkpt>
      <trkpt lat="46.70536" lon="7.79188">
        <ele>1514.83</ele>
        <time>2026-05-04T01:29:15.3000000+00:00</time>
      </trkpt>
      <trkpt lat="46.70529" lon="7.79187">
        <ele>1508.88</ele>
        <time>2026-05-04T01:29:26.2560000+00:00</time>
      </trkpt>
      <trkpt lat="46.70524" lon="7.79183">
        <ele>1504.68</ele>
        <time>2026-05-04T01:29:35.1400000+00:00</time>
      </trkpt>
      <trkpt lat="46.70519" lon="7.79172">
        <ele>1502.36</ele>
        <time>2026-05-04T01:29:49.2360000+00:00</time>
      </trkpt>
      <trkpt lat="46.70516" lon="7.79163">
        <ele>1501.54</ele>
        <time>2026-05-04T01:29:59.9250000+00:00</time>
      </trkpt>
      <trkpt lat="46.70512" lon="7.79149">
        <ele>1501.04</ele>
        <time>2026-05-04T01:30:16.1270000+00:00</time>
      </trkpt>
      <trkpt lat="46.70511" lon="7.7914">
        <ele>1502.05</ele>
        <time>2026-05-04T01:30:25.8660000+00:00</time>
      </trkpt>
      <trkpt lat="46.70511" lon="7.79122">
        <ele>1505.64</ele>
        <time>2026-05-04T01:30:45.0940000+00:00</time>
      </trkpt>
      <trkpt lat="46.70509" lon="7.79118">
        <ele>1505.01</ele>
        <time>2026-05-04T01:30:50.3820000+00:00</time>
      </trkpt>
      <trkpt lat="46.70506" lon="7.79116">
        <ele>1503.3</ele>
        <time>2026-05-04T01:30:55.5210000+00:00</time>
      </trkpt>
      <trkpt lat="46.70502" lon="7.79116">
        <ele>1500.47</ele>
        <time>2026-05-04T01:31:01.7520000+00:00</time>
      </trkpt>
      <trkpt lat="46.70498" lon="7.79117">
        <ele>1497.41</ele>
        <time>2026-05-04T01:31:08.0740000+00:00</time>
      </trkpt>
      <trkpt lat="46.70489" lon="7.79122">
        <ele>1489.76</ele>
        <time>2026-05-04T01:31:23.0760000+00:00</time>
      </trkpt>
      <trkpt lat="46.70481" lon="7.79126">
        <ele>1482.92</ele>
        <time>2026-05-04T01:31:36.2500000+00:00</time>
      </trkpt>
      <trkpt lat="46.70471" lon="7.79133">
        <ele>1473.57</ele>
        <time>2026-05-04T01:31:53.5290000+00:00</time>
      </trkpt>
      <trkpt lat="46.70463" lon="7.79137">
        <ele>1466.35</ele>
        <time>2026-05-04T01:32:06.7030000+00:00</time>
      </trkpt>
      <trkpt lat="46.70458" lon="7.79137">
        <ele>1462.57</ele>
        <time>2026-05-04T01:32:14.4920000+00:00</time>
      </trkpt>
      <trkpt lat="46.70452" lon="7.79136">
        <ele>1458.37</ele>
        <time>2026-05-04T01:32:23.9000000+00:00</time>
      </trkpt>
      <trkpt lat="46.70441" lon="7.79127">
        <ele>1453.35</ele>
        <time>2026-05-04T01:32:43.5480000+00:00</time>
      </trkpt>
      <trkpt lat="46.70434" lon="7.7912">
        <ele>1451.35</ele>
        <time>2026-05-04T01:32:56.7700000+00:00</time>
      </trkpt>
      <trkpt lat="46.70431" lon="7.79114">
        <ele>1451.57</ele>
        <time>2026-05-04T01:33:04.7030000+00:00</time>
      </trkpt>
      <trkpt lat="46.70429" lon="7.79107">
        <ele>1452.78</ele>
        <time>2026-05-04T01:33:12.8030000+00:00</time>
      </trkpt>
      <trkpt lat="46.70425" lon="7.79092">
        <ele>1457.14</ele>
        <time>2026-05-04T01:33:29.9960000+00:00</time>
      </trkpt>
      <trkpt lat="46.7042" lon="7.79077">
        <ele>1461.87</ele>
        <time>2026-05-04T01:33:47.8110000+00:00</time>
      </trkpt>
      <trkpt lat="46.70416" lon="7.79067">
        <ele>1464.5</ele>
        <time>2026-05-04T01:34:00.1780000+00:00</time>
      </trkpt>
      <trkpt lat="46.70414" lon="7.79063">
        <ele>1465.26</ele>
        <time>2026-05-04T01:34:05.4680000+00:00</time>
      </trkpt>
      <trkpt lat="46.70408" lon="7.79057">
        <ele>1464.31</ele>
        <time>2026-05-04T01:34:16.8010000+00:00</time>
      </trkpt>
      <trkpt lat="46.70394" lon="7.79045">
        <ele>1460.84</ele>
        <time>2026-05-04T01:34:42.0980000+00:00</time>
      </trkpt>
      <trkpt lat="46.70389" lon="7.79041">
        <ele>1459.39</ele>
        <time>2026-05-04T01:34:50.9820000+00:00</time>
      </trkpt>
      <trkpt lat="46.70384" lon="7.79037">
        <ele>1457.9</ele>
        <time>2026-05-04T01:34:59.8650000+00:00</time>
      </trkpt>
      <trkpt lat="46.7038" lon="7.79035">
        <ele>1456.08</ele>
        <time>2026-05-04T01:35:06.4520000+00:00</time>
      </trkpt>
      <trkpt lat="46.70372" lon="7.79035">
        <ele>1450.44</ele>
        <time>2026-05-04T01:35:18.9150000+00:00</time>
      </trkpt>
      <trkpt lat="46.70362" lon="7.79039">
        <ele>1441.45</ele>
        <time>2026-05-04T01:35:35.0680000+00:00</time>
      </trkpt>
      <trkpt lat="46.70354" lon="7.79042">
        <ele>1434.54</ele>
        <time>2026-05-04T01:35:47.9360000+00:00</time>
      </trkpt>
      <trkpt lat="46.70347" lon="7.79045">
        <ele>1428.41</ele>
        <time>2026-05-04T01:35:59.3020000+00:00</time>
      </trkpt>
      <trkpt lat="46.70342" lon="7.79045">
        <ele>1425.07</ele>
        <time>2026-05-04T01:36:07.0910000+00:00</time>
      </trkpt>
      <trkpt lat="46.70334" lon="7.79042">
        <ele>1421.24</ele>
        <time>2026-05-04T01:36:19.9590000+00:00</time>
      </trkpt>
      <trkpt lat="46.70324" lon="7.79037">
        <ele>1417.19</ele>
        <time>2026-05-04T01:36:36.4270000+00:00</time>
      </trkpt>
      <trkpt lat="46.70318" lon="7.79033">
        <ele>1415.35</ele>
        <time>2026-05-04T01:36:46.7040000+00:00</time>
      </trkpt>
      <trkpt lat="46.7031" lon="7.79028">
        <ele>1412.79</ele>
        <time>2026-05-04T01:37:00.2630000+00:00</time>
      </trkpt>
      <trkpt lat="46.70302" lon="7.79023">
        <ele>1410.33</ele>
        <time>2026-05-04T01:37:13.8220000+00:00</time>
      </trkpt>
      <trkpt lat="46.70288" lon="7.79021">
        <ele>1402.45</ele>
        <time>2026-05-04T01:37:35.7350000+00:00</time>
      </trkpt>
      <trkpt lat="46.70275" lon="7.79017">
        <ele>1396.54</ele>
        <time>2026-05-04T01:37:56.4320000+00:00</time>
      </trkpt>
      <trkpt lat="46.70265" lon="7.79011">
        <ele>1398.91</ele>
        <time>2026-05-04T01:38:13.2760000+00:00</time>
      </trkpt>
      <trkpt lat="46.70254" lon="7.79002">
        <ele>1403.12</ele>
        <time>2026-05-04T01:38:32.9250000+00:00</time>
      </trkpt>
      <trkpt lat="46.7024" lon="7.78991">
        <ele>1407.44</ele>
        <time>2026-05-04T01:38:57.6970000+00:00</time>
      </trkpt>
      <trkpt lat="46.70232" lon="7.78983">
        <ele>1410.79</ele>
        <time>2026-05-04T01:39:12.8080000+00:00</time>
      </trkpt>
      <trkpt lat="46.70226" lon="7.78972">
        <ele>1416.58</ele>
        <time>2026-05-04T01:39:27.8230000+00:00</time>
      </trkpt>
      <trkpt lat="46.70218" lon="7.78954">
        <ele>1426.06</ele>
        <time>2026-05-04T01:39:50.7370000+00:00</time>
      </trkpt>
      <trkpt lat="46.70207" lon="7.78937">
        <ele>1432.89</ele>
        <time>2026-05-04T01:40:15.7050000+00:00</time>
      </trkpt>
      <trkpt lat="46.70202" lon="7.78931">
        <ele>1433.55</ele>
        <time>2026-05-04T01:40:25.7930000+00:00</time>
      </trkpt>
      <trkpt lat="46.70197" lon="7.78926">
        <ele>1432.86</ele>
        <time>2026-05-04T01:40:35.2370000+00:00</time>
      </trkpt>
      <trkpt lat="46.70193" lon="7.78922">
        <ele>1432.21</ele>
        <time>2026-05-04T01:40:42.7930000+00:00</time>
      </trkpt>
      <trkpt lat="46.70179" lon="7.78912">
        <ele>1427.9</ele>
        <time>2026-05-04T01:41:07.0770000+00:00</time>
      </trkpt>
      <trkpt lat="46.70146" lon="7.78884">
        <ele>1417.87</ele>
        <time>2026-05-04T01:42:06.5510000+00:00</time>
      </trkpt>
      <trkpt lat="46.70143" lon="7.7888">
        <ele>1417.26</ele>
        <time>2026-05-04T01:42:12.8850000+00:00</time>
      </trkpt>
      <trkpt lat="46.70115" lon="7.78849">
        <ele>1409.52</ele>
        <time>2026-05-04T01:43:07.6490000+00:00</time>
      </trkpt>
      <trkpt lat="46.7011" lon="7.78841">
        <ele>1409.58</ele>
        <time>2026-05-04T01:43:19.2110000+00:00</time>
      </trkpt>
      <trkpt lat="46.70101" lon="7.78829">
        <ele>1409.23</ele>
        <time>2026-05-04T01:43:38.2090000+00:00</time>
      </trkpt>
      <trkpt lat="46.70094" lon="7.78821">
        <ele>1408.4</ele>
        <time>2026-05-04T01:43:52.0630000+00:00</time>
      </trkpt>
      <trkpt lat="46.70086" lon="7.78816">
        <ele>1405.9</ele>
        <time>2026-05-04T01:44:05.6210000+00:00</time>
      </trkpt>
      <trkpt lat="46.70076" lon="7.78811">
        <ele>1402.23</ele>
        <time>2026-05-04T01:44:22.0890000+00:00</time>
      </trkpt>
      <trkpt lat="46.70068" lon="7.78803">
        <ele>1400.44</ele>
        <time>2026-05-04T01:44:37.2000000+00:00</time>
      </trkpt>
      <trkpt lat="46.70062" lon="7.78794">
        <ele>1399.89</ele>
        <time>2026-05-04T01:44:50.6090000+00:00</time>
      </trkpt>
      <trkpt lat="46.70054" lon="7.78781">
        <ele>1399.22</ele>
        <time>2026-05-04T01:45:09.2690000+00:00</time>
      </trkpt>
      <trkpt lat="46.70048" lon="7.78768">
        <ele>1399.46</ele>
        <time>2026-05-04T01:45:26.0100000+00:00</time>
      </trkpt>
      <trkpt lat="46.70042" lon="7.78759">
        <ele>1399</ele>
        <time>2026-05-04T01:45:39.4190000+00:00</time>
      </trkpt>
      <trkpt lat="46.70034" lon="7.78756">
        <ele>1395.29</ele>
        <time>2026-05-04T01:45:52.2870000+00:00</time>
      </trkpt>
      <trkpt lat="46.70028" lon="7.78749">
        <ele>1394.09</ele>
        <time>2026-05-04T01:46:04.2570000+00:00</time>
      </trkpt>
      <trkpt lat="46.70022" lon="7.78746">
        <ele>1391.84</ele>
        <time>2026-05-04T01:46:14.1370000+00:00</time>
      </trkpt>
      <trkpt lat="46.70012" lon="7.78742">
        <ele>1388.3</ele>
        <time>2026-05-04T01:46:30.2900000+00:00</time>
      </trkpt>
      <trkpt lat="46.70002" lon="7.7874">
        <ele>1384.09</ele>
        <time>2026-05-04T01:46:46.0120000+00:00</time>
      </trkpt>
      <trkpt lat="46.69993" lon="7.78737">
        <ele>1380.72</ele>
        <time>2026-05-04T01:47:00.3940000+00:00</time>
      </trkpt>
      <trkpt lat="46.69983" lon="7.78728">
        <ele>1378.92</ele>
        <time>2026-05-04T01:47:18.6990000+00:00</time>
      </trkpt>
      <trkpt lat="46.69963" lon="7.78717">
        <ele>1372.98</ele>
        <time>2026-05-04T01:47:51.9960000+00:00</time>
      </trkpt>
      <trkpt lat="46.69949" lon="7.78706">
        <ele>1370.01</ele>
        <time>2026-05-04T01:48:16.7690000+00:00</time>
      </trkpt>
      <trkpt lat="46.69931" lon="7.7868">
        <ele>1372.32</ele>
        <time>2026-05-04T01:48:56.2370000+00:00</time>
      </trkpt>
      <trkpt lat="46.69927" lon="7.78673">
        <ele>1373.99</ele>
        <time>2026-05-04T01:49:05.9720000+00:00</time>
      </trkpt>
      <trkpt lat="46.69923" lon="7.78668">
        <ele>1374.57</ele>
        <time>2026-05-04T01:49:14.1810000+00:00</time>
      </trkpt>
      <trkpt lat="46.69919" lon="7.78667">
        <ele>1373.34</ele>
        <time>2026-05-04T01:49:20.5030000+00:00</time>
      </trkpt>
      <trkpt lat="46.69915" lon="7.78671">
        <ele>1370.07</ele>
        <time>2026-05-04T01:49:28.0600000+00:00</time>
      </trkpt>
      <trkpt lat="46.69911" lon="7.78664">
        <ele>1371.16</ele>
        <time>2026-05-04T01:49:37.7940000+00:00</time>
      </trkpt>
      <trkpt lat="46.69905" lon="7.78655">
        <ele>1371.85</ele>
        <time>2026-05-04T01:49:51.2020000+00:00</time>
      </trkpt>
      <trkpt lat="46.69901" lon="7.78651">
        <ele>1371.38</ele>
        <time>2026-05-04T01:49:58.7550000+00:00</time>
      </trkpt>
      <trkpt lat="46.69893" lon="7.78648">
        <ele>1368.5</ele>
        <time>2026-05-04T01:50:11.6220000+00:00</time>
      </trkpt>
      <trkpt lat="46.69884" lon="7.78645">
        <ele>1364.92</ele>
        <time>2026-05-04T01:50:26.0040000+00:00</time>
      </trkpt>
      <trkpt lat="46.69875" lon="7.78639">
        <ele>1361.88</ele>
        <time>2026-05-04T01:50:41.4190000+00:00</time>
      </trkpt>
      <trkpt lat="46.69867" lon="7.78631">
        <ele>1359.38</ele>
        <time>2026-05-04T01:50:56.5300000+00:00</time>
      </trkpt>
      <trkpt lat="46.69862" lon="7.78622">
        <ele>1358.35</ele>
        <time>2026-05-04T01:51:08.9030000+00:00</time>
      </trkpt>
      <trkpt lat="46.69856" lon="7.78612">
        <ele>1356.95</ele>
        <time>2026-05-04T01:51:23.0980000+00:00</time>
      </trkpt>
      <trkpt lat="46.69852" lon="7.78607">
        <ele>1356.11</ele>
        <time>2026-05-04T01:51:31.3050000+00:00</time>
      </trkpt>
      <trkpt lat="46.69847" lon="7.78604">
        <ele>1354.49</ele>
        <time>2026-05-04T01:51:39.7280000+00:00</time>
      </trkpt>
      <trkpt lat="46.69839" lon="7.78603">
        <ele>1351.21</ele>
        <time>2026-05-04T01:51:52.2350000+00:00</time>
      </trkpt>
      <trkpt lat="46.69828" lon="7.78603">
        <ele>1346.42</ele>
        <time>2026-05-04T01:52:09.3700000+00:00</time>
      </trkpt>
      <trkpt lat="46.69816" lon="7.78598">
        <ele>1343.15</ele>
        <time>2026-05-04T01:52:28.8110000+00:00</time>
      </trkpt>
      <trkpt lat="46.69815" lon="7.786">
        <ele>1341.77</ele>
        <time>2026-05-04T01:52:31.4540000+00:00</time>
      </trkpt>
      <trkpt lat="46.69811" lon="7.78601">
        <ele>1339.56</ele>
        <time>2026-05-04T01:52:37.7760000+00:00</time>
      </trkpt>
      <trkpt lat="46.69807" lon="7.78601">
        <ele>1337.83</ele>
        <time>2026-05-04T01:52:44.0070000+00:00</time>
      </trkpt>
      <trkpt lat="46.69805" lon="7.78602">
        <ele>1336.68</ele>
        <time>2026-05-04T01:52:47.3030000+00:00</time>
      </trkpt>
      <trkpt lat="46.69804" lon="7.78605">
        <ele>1335.47</ele>
        <time>2026-05-04T01:52:50.8660000+00:00</time>
      </trkpt>
      <trkpt lat="46.69804" lon="7.78608">
        <ele>1334.69</ele>
        <time>2026-05-04T01:52:54.0690000+00:00</time>
      </trkpt>
      <trkpt lat="46.69806" lon="7.7861">
        <ele>1335.06</ele>
        <time>2026-05-04T01:52:57.8470000+00:00</time>
      </trkpt>
      <trkpt lat="46.69814" lon="7.78618">
        <ele>1336.67</ele>
        <time>2026-05-04T01:53:12.9590000+00:00</time>
      </trkpt>
      <trkpt lat="46.69815" lon="7.7862">
        <ele>1336.64</ele>
        <time>2026-05-04T01:53:15.6020000+00:00</time>
      </trkpt>
      <trkpt lat="46.69815" lon="7.78622">
        <ele>1336.15</ele>
        <time>2026-05-04T01:53:17.7380000+00:00</time>
      </trkpt>
      <trkpt lat="46.69814" lon="7.78623">
        <ele>1335.45</ele>
        <time>2026-05-04T01:53:19.6280000+00:00</time>
      </trkpt>
      <trkpt lat="46.6981" lon="7.78624">
        <ele>1333.34</ele>
        <time>2026-05-04T01:53:25.9510000+00:00</time>
      </trkpt>
      <trkpt lat="46.69805" lon="7.78624">
        <ele>1331.02</ele>
        <time>2026-05-04T01:53:33.7400000+00:00</time>
      </trkpt>
      <trkpt lat="46.698" lon="7.78624">
        <ele>1328.69</ele>
        <time>2026-05-04T01:53:41.5290000+00:00</time>
      </trkpt>
      <trkpt lat="46.69796" lon="7.78621">
        <ele>1327.64</ele>
        <time>2026-05-04T01:53:48.5360000+00:00</time>
      </trkpt>
      <trkpt lat="46.69784" lon="7.7861">
        <ele>1325.27</ele>
        <time>2026-05-04T01:54:10.6160000+00:00</time>
      </trkpt>
      <trkpt lat="46.69775" lon="7.78606">
        <ele>1322.52</ele>
        <time>2026-05-04T01:54:25.2730000+00:00</time>
      </trkpt>
      <trkpt lat="46.69762" lon="7.78595">
        <ele>1324.64</ele>
        <time>2026-05-04T01:54:48.6860000+00:00</time>
      </trkpt>
      <trkpt lat="46.69753" lon="7.78589">
        <ele>1325.61</ele>
        <time>2026-05-04T01:55:04.1020000+00:00</time>
      </trkpt>
      <trkpt lat="46.69748" lon="7.78584">
        <ele>1326.72</ele>
        <time>2026-05-04T01:55:13.5470000+00:00</time>
      </trkpt>
      <trkpt lat="46.69741" lon="7.78574">
        <ele>1329.24</ele>
        <time>2026-05-04T01:55:28.8130000+00:00</time>
      </trkpt>
      <trkpt lat="46.69737" lon="7.78567">
        <ele>1331.03</ele>
        <time>2026-05-04T01:55:38.5480000+00:00</time>
      </trkpt>
      <trkpt lat="46.6973" lon="7.78561">
        <ele>1331.57</ele>
        <time>2026-05-04T01:55:51.1970000+00:00</time>
      </trkpt>
      <trkpt lat="46.69724" lon="7.78553">
        <ele>1332.88</ele>
        <time>2026-05-04T01:56:03.8630000+00:00</time>
      </trkpt>
      <trkpt lat="46.69718" lon="7.78547">
        <ele>1333.29</ele>
        <time>2026-05-04T01:56:15.1960000+00:00</time>
      </trkpt>
      <trkpt lat="46.69711" lon="7.78544">
        <ele>1332.29</ele>
        <time>2026-05-04T01:56:26.5610000+00:00</time>
      </trkpt>
      <trkpt lat="46.69703" lon="7.78543">
        <ele>1330.28</ele>
        <time>2026-05-04T01:56:39.0690000+00:00</time>
      </trkpt>
      <trkpt lat="46.69689" lon="7.78543">
        <ele>1325.62</ele>
        <time>2026-05-04T01:57:00.8760000+00:00</time>
      </trkpt>
      <trkpt lat="46.69675" lon="7.78539">
        <ele>1319.79</ele>
        <time>2026-05-04T01:57:23.0990000+00:00</time>
      </trkpt>
      <trkpt lat="46.69661" lon="7.78533">
        <ele>1314.54</ele>
        <time>2026-05-04T01:57:45.8300000+00:00</time>
      </trkpt>
      <trkpt lat="46.6965" lon="7.78528">
        <ele>1310.51</ele>
        <time>2026-05-04T01:58:03.7780000+00:00</time>
      </trkpt>
      <trkpt lat="46.69641" lon="7.78523">
        <ele>1307.48</ele>
        <time>2026-05-04T01:58:18.7810000+00:00</time>
      </trkpt>
      <trkpt lat="46.6962" lon="7.7851">
        <ele>1302.36</ele>
        <time>2026-05-04T01:58:54.3200000+00:00</time>
      </trkpt>
      <trkpt lat="46.69603" lon="7.785">
        <ele>1299.82</ele>
        <time>2026-05-04T01:59:22.8750000+00:00</time>
      </trkpt>
      <trkpt lat="46.69591" lon="7.7849">
        <ele>1300.37</ele>
        <time>2026-05-04T01:59:44.4060000+00:00</time>
      </trkpt>
      <trkpt lat="46.69583" lon="7.78488">
        <ele>1298.43</ele>
        <time>2026-05-04T01:59:57.0500000+00:00</time>
      </trkpt>
      <trkpt lat="46.69575" lon="7.78486">
        <ele>1296.46</ele>
        <time>2026-05-04T02:00:09.6940000+00:00</time>
      </trkpt>
      <trkpt lat="46.6957" lon="7.78484">
        <ele>1295.56</ele>
        <time>2026-05-04T02:00:17.7710000+00:00</time>
      </trkpt>
      <trkpt lat="46.69564" lon="7.78482">
        <ele>1294.27</ele>
        <time>2026-05-04T02:00:27.3590000+00:00</time>
      </trkpt>
      <trkpt lat="46.6956" lon="7.78478">
        <ele>1294.6</ele>
        <time>2026-05-04T02:00:34.9150000+00:00</time>
      </trkpt>
      <trkpt lat="46.69549" lon="7.78468">
        <ele>1294.93</ele>
        <time>2026-05-04T02:00:55.1090000+00:00</time>
      </trkpt>
      <trkpt lat="46.69523" lon="7.78431">
        <ele>1300.03</ele>
        <time>2026-05-04T02:01:51.7040000+00:00</time>
      </trkpt>
      <trkpt lat="46.69515" lon="7.78416">
        <ele>1300.8</ele>
        <time>2026-05-04T02:02:12.0050000+00:00</time>
      </trkpt>
      <trkpt lat="46.69506" lon="7.78399">
        <ele>1301.28</ele>
        <time>2026-05-04T02:02:34.9490000+00:00</time>
      </trkpt>
      <trkpt lat="46.6948" lon="7.78353">
        <ele>1299.43</ele>
        <time>2026-05-04T02:03:38.6340000+00:00</time>
      </trkpt>
      <trkpt lat="46.69475" lon="7.78344">
        <ele>1298.12</ele>
        <time>2026-05-04T02:03:51.0080000+00:00</time>
      </trkpt>
      <trkpt lat="46.69468" lon="7.78331">
        <ele>1296.08</ele>
        <time>2026-05-04T02:04:08.6660000+00:00</time>
      </trkpt>
      <trkpt lat="46.69462" lon="7.78318">
        <ele>1294.55</ele>
        <time>2026-05-04T02:04:25.4080000+00:00</time>
      </trkpt>
      <trkpt lat="46.69459" lon="7.78313">
        <ele>1293.53</ele>
        <time>2026-05-04T02:04:32.5050000+00:00</time>
      </trkpt>
      <trkpt lat="46.69453" lon="7.78306">
        <ele>1291.02</ele>
        <time>2026-05-04T02:04:44.4760000+00:00</time>
      </trkpt>
      <trkpt lat="46.69447" lon="7.78301">
        <ele>1288.17</ele>
        <time>2026-05-04T02:04:55.2410000+00:00</time>
      </trkpt>
      <trkpt lat="46.69443" lon="7.78298">
        <ele>1286.21</ele>
        <time>2026-05-04T02:05:02.2490000+00:00</time>
      </trkpt>
      <trkpt lat="46.69438" lon="7.78294">
        <ele>1284.42</ele>
        <time>2026-05-04T02:05:11.1330000+00:00</time>
      </trkpt>
      <trkpt lat="46.69434" lon="7.78294">
        <ele>1282.62</ele>
        <time>2026-05-04T02:05:17.3630000+00:00</time>
      </trkpt>
      <trkpt lat="46.69427" lon="7.78295">
        <ele>1279.34</ele>
        <time>2026-05-04T02:05:28.3190000+00:00</time>
      </trkpt>
      <trkpt lat="46.69406" lon="7.78303">
        <ele>1268.73</ele>
        <time>2026-05-04T02:06:02.1290000+00:00</time>
      </trkpt>
      <trkpt lat="46.69403" lon="7.78303">
        <ele>1267.39</ele>
        <time>2026-05-04T02:06:06.8010000+00:00</time>
      </trkpt>
      <trkpt lat="46.69401" lon="7.78302">
        <ele>1266.64</ele>
        <time>2026-05-04T02:06:10.0940000+00:00</time>
      </trkpt>
      <trkpt lat="46.69399" lon="7.78299">
        <ele>1266.19</ele>
        <time>2026-05-04T02:06:14.5640000+00:00</time>
      </trkpt>
      <trkpt lat="46.69396" lon="7.78291">
        <ele>1266.05</ele>
        <time>2026-05-04T02:06:24.3060000+00:00</time>
      </trkpt>
      <trkpt lat="46.69392" lon="7.78281">
        <ele>1265.77</ele>
        <time>2026-05-04T02:06:36.6730000+00:00</time>
      </trkpt>
      <trkpt lat="46.69389" lon="7.78275">
        <ele>1265.34</ele>
        <time>2026-05-04T02:06:44.6060000+00:00</time>
      </trkpt>
      <trkpt lat="46.69386" lon="7.78271">
        <ele>1264.62</ele>
        <time>2026-05-04T02:06:50.9390000+00:00</time>
      </trkpt>
      <trkpt lat="46.69382" lon="7.78267">
        <ele>1263.41</ele>
        <time>2026-05-04T02:06:58.4940000+00:00</time>
      </trkpt>
      <trkpt lat="46.69374" lon="7.78262">
        <ele>1260.44</ele>
        <time>2026-05-04T02:07:12.0510000+00:00</time>
      </trkpt>
      <trkpt lat="46.6937" lon="7.78257">
        <ele>1259.26</ele>
        <time>2026-05-04T02:07:20.2580000+00:00</time>
      </trkpt>
      <trkpt lat="46.69358" lon="7.78243">
        <ele>1255.75</ele>
        <time>2026-05-04T02:07:44.1990000+00:00</time>
      </trkpt>
      <trkpt lat="46.69348" lon="7.78227">
        <ele>1254.74</ele>
        <time>2026-05-04T02:08:07.3260000+00:00</time>
      </trkpt>
      <trkpt lat="46.69343" lon="7.78218">
        <ele>1254.41</ele>
        <time>2026-05-04T02:08:19.7010000+00:00</time>
      </trkpt>
      <trkpt lat="46.69334" lon="7.78194">
        <ele>1254.93</ele>
        <time>2026-05-04T02:08:48.9260000+00:00</time>
      </trkpt>
      <trkpt lat="46.69321" lon="7.78157">
        <ele>1254.24</ele>
        <time>2026-05-04T02:09:33.3440000+00:00</time>
      </trkpt>
      <trkpt lat="46.69314" lon="7.78136">
        <ele>1253.49</ele>
        <time>2026-05-04T02:09:58.2900000+00:00</time>
      </trkpt>
      <trkpt lat="46.69307" lon="7.78109">
        <ele>1253</ele>
        <time>2026-05-04T02:10:29.1300000+00:00</time>
      </trkpt>
      <trkpt lat="46.69305" lon="7.78099">
        <ele>1252.92</ele>
        <time>2026-05-04T02:10:40.2610000+00:00</time>
      </trkpt>
      <trkpt lat="46.69303" lon="7.78085">
        <ele>1252.82</ele>
        <time>2026-05-04T02:10:55.5400000+00:00</time>
      </trkpt>
      <trkpt lat="46.69301" lon="7.78076">
        <ele>1252.52</ele>
        <time>2026-05-04T02:11:05.6470000+00:00</time>
      </trkpt>
      <trkpt lat="46.69299" lon="7.78069">
        <ele>1252.14</ele>
        <time>2026-05-04T02:11:13.7480000+00:00</time>
      </trkpt>
      <trkpt lat="46.69293" lon="7.78049">
        <ele>1250.88</ele>
        <time>2026-05-04T02:11:37.0720000+00:00</time>
      </trkpt>
      <trkpt lat="46.6929" lon="7.78042">
        <ele>1250.12</ele>
        <time>2026-05-04T02:11:45.8910000+00:00</time>
      </trkpt>
      <trkpt lat="46.69288" lon="7.78037">
        <ele>1249.62</ele>
        <time>2026-05-04T02:11:52.0730000+00:00</time>
      </trkpt>
      <trkpt lat="46.69283" lon="7.78029">
        <ele>1248.2</ele>
        <time>2026-05-04T02:12:03.6370000+00:00</time>
      </trkpt>
      <trkpt lat="46.69279" lon="7.78023">
        <ele>1247.02</ele>
        <time>2026-05-04T02:12:12.5770000+00:00</time>
      </trkpt>
      <trkpt lat="46.69275" lon="7.78016">
        <ele>1245.89</ele>
        <time>2026-05-04T02:12:22.3120000+00:00</time>
      </trkpt>
      <trkpt lat="46.69272" lon="7.78008">
        <ele>1245.26</ele>
        <time>2026-05-04T02:12:32.0540000+00:00</time>
      </trkpt>
      <trkpt lat="46.69269" lon="7.77999">
        <ele>1244.66</ele>
        <time>2026-05-04T02:12:42.7460000+00:00</time>
      </trkpt>
      <trkpt lat="46.69264" lon="7.77982">
        <ele>1243.73</ele>
        <time>2026-05-04T02:13:02.5100000+00:00</time>
      </trkpt>
      <trkpt lat="46.69262" lon="7.77977">
        <ele>1243.32</ele>
        <time>2026-05-04T02:13:08.6930000+00:00</time>
      </trkpt>
      <trkpt lat="46.69258" lon="7.77969">
        <ele>1242.45</ele>
        <time>2026-05-04T02:13:19.2710000+00:00</time>
      </trkpt>
      <trkpt lat="46.6925" lon="7.77955">
        <ele>1240.68</ele>
        <time>2026-05-04T02:13:38.7400000+00:00</time>
      </trkpt>
      <trkpt lat="46.69245" lon="7.77946">
        <ele>1239.6</ele>
        <time>2026-05-04T02:13:51.1150000+00:00</time>
      </trkpt>
      <trkpt lat="46.69239" lon="7.77935">
        <ele>1238.33</ele>
        <time>2026-05-04T02:14:06.1320000+00:00</time>
      </trkpt>
      <trkpt lat="46.69237" lon="7.77933">
        <ele>1237.84</ele>
        <time>2026-05-04T02:14:09.9100000+00:00</time>
      </trkpt>
      <trkpt lat="46.69232" lon="7.7793">
        <ele>1236.57</ele>
        <time>2026-05-04T02:14:18.3330000+00:00</time>
      </trkpt>
      <trkpt lat="46.69228" lon="7.77928">
        <ele>1235.56</ele>
        <time>2026-05-04T02:14:24.9190000+00:00</time>
      </trkpt>
      <trkpt lat="46.69225" lon="7.77925">
        <ele>1234.82</ele>
        <time>2026-05-04T02:14:30.5850000+00:00</time>
      </trkpt>
      <trkpt lat="46.69223" lon="7.7792">
        <ele>1234.4</ele>
        <time>2026-05-04T02:14:36.7700000+00:00</time>
      </trkpt>
      <trkpt lat="46.69222" lon="7.77918">
        <ele>1234.17</ele>
        <time>2026-05-04T02:14:39.4170000+00:00</time>
      </trkpt>
      <trkpt lat="46.6922" lon="7.77918">
        <ele>1233.65</ele>
        <time>2026-05-04T02:14:42.5360000+00:00</time>
      </trkpt>
      <trkpt lat="46.6922" lon="7.77927">
        <ele>1233.47</ele>
        <time>2026-05-04T02:14:52.1520000+00:00</time>
      </trkpt>
      <trkpt lat="46.69214" lon="7.77916">
        <ele>1232.12</ele>
        <time>2026-05-04T02:15:07.1680000+00:00</time>
      </trkpt>
      <trkpt lat="46.69201" lon="7.77889">
        <ele>1229.34</ele>
        <time>2026-05-04T02:15:42.4150000+00:00</time>
      </trkpt>
      <trkpt lat="46.69197" lon="7.7788">
        <ele>1228.52</ele>
        <time>2026-05-04T02:15:53.8740000+00:00</time>
      </trkpt>
      <trkpt lat="46.6919" lon="7.77861">
        <ele>1226.93</ele>
        <time>2026-05-04T02:16:16.9170000+00:00</time>
      </trkpt>
      <trkpt lat="46.69188" lon="7.77858">
        <ele>1226.28</ele>
        <time>2026-05-04T02:16:21.3880000+00:00</time>
      </trkpt>
      <trkpt lat="46.69181" lon="7.77854">
        <ele>1223.86</ele>
        <time>2026-05-04T02:16:33.0990000+00:00</time>
      </trkpt>
      <trkpt lat="46.69168" lon="7.77831">
        <ele>1219.8</ele>
        <time>2026-05-04T02:17:04.9420000+00:00</time>
      </trkpt>
      <trkpt lat="46.69158" lon="7.77813">
        <ele>1216.75</ele>
        <time>2026-05-04T02:17:29.6920000+00:00</time>
      </trkpt>
      <trkpt lat="46.69154" lon="7.77805">
        <ele>1215.57</ele>
        <time>2026-05-04T02:17:40.2700000+00:00</time>
      </trkpt>
      <trkpt lat="46.69131" lon="7.77762">
        <ele>1208.81</ele>
        <time>2026-05-04T02:18:38.5320000+00:00</time>
      </trkpt>
      <trkpt lat="46.69127" lon="7.77754">
        <ele>1207.65</ele>
        <time>2026-05-04T02:18:49.1100000+00:00</time>
      </trkpt>
      <trkpt lat="46.69124" lon="7.77747">
        <ele>1206.83</ele>
        <time>2026-05-04T02:18:57.9290000+00:00</time>
      </trkpt>
      <trkpt lat="46.69123" lon="7.77742">
        <ele>1206.65</ele>
        <time>2026-05-04T02:19:03.4930000+00:00</time>
      </trkpt>
      <trkpt lat="46.69121" lon="7.77728">
        <ele>1206.4</ele>
        <time>2026-05-04T02:19:18.7730000+00:00</time>
      </trkpt>
      <trkpt lat="46.69115" lon="7.77705">
        <ele>1205.19</ele>
        <time>2026-05-04T02:19:45.0650000+00:00</time>
      </trkpt>
      <trkpt lat="46.69108" lon="7.77682">
        <ele>1203.54</ele>
        <time>2026-05-04T02:20:11.9510000+00:00</time>
      </trkpt>
      <trkpt lat="46.69107" lon="7.77673">
        <ele>1203.11</ele>
        <time>2026-05-04T02:20:21.6930000+00:00</time>
      </trkpt>
      <trkpt lat="46.69106" lon="7.77665">
        <ele>1202.68</ele>
        <time>2026-05-04T02:20:30.3830000+00:00</time>
      </trkpt>
      <trkpt lat="46.69103" lon="7.77659">
        <ele>1201.4</ele>
        <time>2026-05-04T02:20:38.3170000+00:00</time>
      </trkpt>
      <trkpt lat="46.69102" lon="7.77659">
        <ele>1200.97</ele>
        <time>2026-05-04T02:20:39.8790000+00:00</time>
      </trkpt>
      <trkpt lat="46.69101" lon="7.77654">
        <ele>1200.54</ele>
        <time>2026-05-04T02:20:45.4460000+00:00</time>
      </trkpt>
      <trkpt lat="46.69099" lon="7.77646">
        <ele>1199.7</ele>
        <time>2026-05-04T02:20:54.5440000+00:00</time>
      </trkpt>
      <trkpt lat="46.69096" lon="7.77635">
        <ele>1198.44</ele>
        <time>2026-05-04T02:21:07.1920000+00:00</time>
      </trkpt>
      <trkpt lat="46.69092" lon="7.77623">
        <ele>1196.77</ele>
        <time>2026-05-04T02:21:21.4470000+00:00</time>
      </trkpt>
      <trkpt lat="46.69088" lon="7.77606">
        <ele>1195.13</ele>
        <time>2026-05-04T02:21:40.6500000+00:00</time>
      </trkpt>
      <trkpt lat="46.69088" lon="7.77598">
        <ele>1194.85</ele>
        <time>2026-05-04T02:21:49.1980000+00:00</time>
      </trkpt>
      <trkpt lat="46.69086" lon="7.7759">
        <ele>1193.45</ele>
        <time>2026-05-04T02:21:58.2960000+00:00</time>
      </trkpt>
      <trkpt lat="46.69084" lon="7.77586">
        <ele>1192.35</ele>
        <time>2026-05-04T02:22:03.5860000+00:00</time>
      </trkpt>
      <trkpt lat="46.69082" lon="7.7758">
        <ele>1191.11</ele>
        <time>2026-05-04T02:22:10.7160000+00:00</time>
      </trkpt>
      <trkpt lat="46.6908" lon="7.77569">
        <ele>1189.56</ele>
        <time>2026-05-04T02:22:22.8750000+00:00</time>
      </trkpt>
      <trkpt lat="46.6908" lon="7.77562">
        <ele>1189.09</ele>
        <time>2026-05-04T02:22:30.3560000+00:00</time>
      </trkpt>
      <trkpt lat="46.69078" lon="7.77551">
        <ele>1187.56</ele>
        <time>2026-05-04T02:22:42.5160000+00:00</time>
      </trkpt>
      <trkpt lat="46.69076" lon="7.77549">
        <ele>1186.65</ele>
        <time>2026-05-04T02:22:46.2960000+00:00</time>
      </trkpt>
      <trkpt lat="46.69074" lon="7.77547">
        <ele>1185.75</ele>
        <time>2026-05-04T02:22:50.0740000+00:00</time>
      </trkpt>
      <trkpt lat="46.69063" lon="7.77547">
        <ele>1181.47</ele>
        <time>2026-05-04T02:23:07.2090000+00:00</time>
      </trkpt>
      <trkpt lat="46.6906" lon="7.77543">
        <ele>1180.08</ele>
        <time>2026-05-04T02:23:13.5430000+00:00</time>
      </trkpt>
      <trkpt lat="46.69058" lon="7.77537">
        <ele>1178.98</ele>
        <time>2026-05-04T02:23:20.6730000+00:00</time>
      </trkpt>
      <trkpt lat="46.69056" lon="7.7753">
        <ele>1177.84</ele>
        <time>2026-05-04T02:23:28.7750000+00:00</time>
      </trkpt>
      <trkpt lat="46.69056" lon="7.77524">
        <ele>1177.52</ele>
        <time>2026-05-04T02:23:35.1880000+00:00</time>
      </trkpt>
      <trkpt lat="46.69057" lon="7.77503">
        <ele>1178.49</ele>
        <time>2026-05-04T02:23:57.6810000+00:00</time>
      </trkpt>
      <trkpt lat="46.69052" lon="7.77499">
        <ele>1176.86</ele>
        <time>2026-05-04T02:24:06.5650000+00:00</time>
      </trkpt>
      <trkpt lat="46.69042" lon="7.77495">
        <ele>1173.4</ele>
        <time>2026-05-04T02:24:22.7180000+00:00</time>
      </trkpt>
      <trkpt lat="46.69039" lon="7.77493">
        <ele>1172.41</ele>
        <time>2026-05-04T02:24:27.8590000+00:00</time>
      </trkpt>
      <trkpt lat="46.69035" lon="7.77486">
        <ele>1171.34</ele>
        <time>2026-05-04T02:24:37.5930000+00:00</time>
      </trkpt>
      <trkpt lat="46.69028" lon="7.77469">
        <ele>1169.79</ele>
        <time>2026-05-04T02:24:58.7780000+00:00</time>
      </trkpt>
      <trkpt lat="46.69024" lon="7.7746">
        <ele>1168.92</ele>
        <time>2026-05-04T02:25:10.2380000+00:00</time>
      </trkpt>
      <trkpt lat="46.69022" lon="7.77452">
        <ele>1168.73</ele>
        <time>2026-05-04T02:25:19.3360000+00:00</time>
      </trkpt>
      <trkpt lat="46.6902" lon="7.77444">
        <ele>1168.53</ele>
        <time>2026-05-04T02:25:28.4340000+00:00</time>
      </trkpt>
      <trkpt lat="46.69015" lon="7.77413">
        <ele>1169.89</ele>
        <time>2026-05-04T02:26:02.4610000+00:00</time>
      </trkpt>
      <trkpt lat="46.69014" lon="7.77396">
        <ele>1171.43</ele>
        <time>2026-05-04T02:26:20.6920000+00:00</time>
      </trkpt>
      <trkpt lat="46.69013" lon="7.77389">
        <ele>1171.84</ele>
        <time>2026-05-04T02:26:28.3320000+00:00</time>
      </trkpt>
      <trkpt lat="46.69012" lon="7.77372">
        <ele>1173.35</ele>
        <time>2026-05-04T02:26:46.5640000+00:00</time>
      </trkpt>
      <trkpt lat="46.69011" lon="7.77356">
        <ele>1174.71</ele>
        <time>2026-05-04T02:27:03.7310000+00:00</time>
      </trkpt>
      <trkpt lat="46.6901" lon="7.77346">
        <ele>1174.95</ele>
        <time>2026-05-04T02:27:14.5290000+00:00</time>
      </trkpt>
      <trkpt lat="46.69008" lon="7.77334">
        <ele>1174.53</ele>
        <time>2026-05-04T02:27:27.7240000+00:00</time>
      </trkpt>
      <trkpt lat="46.69005" lon="7.7732">
        <ele>1173.72</ele>
        <time>2026-05-04T02:27:43.3960000+00:00</time>
      </trkpt>
      <trkpt lat="46.69" lon="7.77301">
        <ele>1172.09</ele>
        <time>2026-05-04T02:28:05.1400000+00:00</time>
      </trkpt>
      <trkpt lat="46.68994" lon="7.77279">
        <ele>1169.89</ele>
        <time>2026-05-04T02:28:30.4370000+00:00</time>
      </trkpt>
      <trkpt lat="46.6899" lon="7.77267">
        <ele>1168.2</ele>
        <time>2026-05-04T02:28:44.6930000+00:00</time>
      </trkpt>
      <trkpt lat="46.68988" lon="7.77261">
        <ele>1167.19</ele>
        <time>2026-05-04T02:28:51.8220000+00:00</time>
      </trkpt>
      <trkpt lat="46.68986" lon="7.77259">
        <ele>1166.23</ele>
        <time>2026-05-04T02:28:55.6000000+00:00</time>
      </trkpt>
      <trkpt lat="46.68985" lon="7.77259">
        <ele>1165.76</ele>
        <time>2026-05-04T02:28:57.1620000+00:00</time>
      </trkpt>
      <trkpt lat="46.68984" lon="7.77259">
        <ele>1165.3</ele>
        <time>2026-05-04T02:28:58.7130000+00:00</time>
      </trkpt>
      <trkpt lat="46.68983" lon="7.7726">
        <ele>1164.84</ele>
        <time>2026-05-04T02:29:00.5990000+00:00</time>
      </trkpt>
      <trkpt lat="46.68981" lon="7.77262">
        <ele>1163.93</ele>
        <time>2026-05-04T02:29:04.3770000+00:00</time>
      </trkpt>
      <trkpt lat="46.6898" lon="7.77265">
        <ele>1163.49</ele>
        <time>2026-05-04T02:29:07.9380000+00:00</time>
      </trkpt>
      <trkpt lat="46.68979" lon="7.77271">
        <ele>1163.06</ele>
        <time>2026-05-04T02:29:14.5350000+00:00</time>
      </trkpt>
      <trkpt lat="46.68979" lon="7.77278">
        <ele>1163.01</ele>
        <time>2026-05-04T02:29:22.0150000+00:00</time>
      </trkpt>
      <trkpt lat="46.68978" lon="7.77281">
        <ele>1162.53</ele>
        <time>2026-05-04T02:29:25.5790000+00:00</time>
      </trkpt>
      <trkpt lat="46.68977" lon="7.77283">
        <ele>1162.06</ele>
        <time>2026-05-04T02:29:28.2250000+00:00</time>
      </trkpt>
      <trkpt lat="46.68974" lon="7.77269">
        <ele>1160.73</ele>
        <time>2026-05-04T02:29:43.8970000+00:00</time>
      </trkpt>
      <trkpt lat="46.68973" lon="7.77254">
        <ele>1160.08</ele>
        <time>2026-05-04T02:30:00.0000000+00:00</time>
      </trkpt>
    </trkseg>
  </trk>
</gpx>