<?xml version="1.0" encoding="utf-8"?>
<gpx xmlns:xsd="http://www.w3.org/2001/XMLSchema" xmlns:xsi="http://www.w3.org/2001/XMLSchema-instance" creator="eT4 META" version="1.1" xsi:schemaLocation="http://www.topografix.com/GPX/1/1 http://www.topografix.com/GPX/1/1/gpx.xsd" xmlns="http://www.topografix.com/GPX/1/1">
  <trk>
    <name>Chemin panoramique Niesen-Diemtigtal</name>
    <trkseg>
      <trkpt lat="46.64588" lon="7.65267">
        <ele>2283.83</ele>
        <time>2026-05-04T00:00:00.0000000+00:00</time>
      </trkpt>
      <trkpt lat="46.64527" lon="7.65204">
        <ele>2334.14</ele>
        <time>2026-05-04T00:01:49.7610000+00:00</time>
      </trkpt>
      <trkpt lat="46.64501" lon="7.65169">
        <ele>2321.08</ele>
        <time>2026-05-04T00:02:41.7270000+00:00</time>
      </trkpt>
      <trkpt lat="46.64502" lon="7.65158">
        <ele>2322.95</ele>
        <time>2026-05-04T00:02:52.9100000+00:00</time>
      </trkpt>
      <trkpt lat="46.64527" lon="7.6513">
        <ele>2333</ele>
        <time>2026-05-04T00:03:39.1990000+00:00</time>
      </trkpt>
      <trkpt lat="46.64491" lon="7.65068">
        <ele>2316.68</ele>
        <time>2026-05-04T00:05:01.0270000+00:00</time>
      </trkpt>
      <trkpt lat="46.64493" lon="7.65054">
        <ele>2313.18</ele>
        <time>2026-05-04T00:05:15.4370000+00:00</time>
      </trkpt>
      <trkpt lat="46.64466" lon="7.65034">
        <ele>2314.59</ele>
        <time>2026-05-04T00:05:59.8990000+00:00</time>
      </trkpt>
      <trkpt lat="46.64454" lon="7.65045">
        <ele>2318</ele>
        <time>2026-05-04T00:06:20.7110000+00:00</time>
      </trkpt>
      <trkpt lat="46.64454" lon="7.64955">
        <ele>2289.83</ele>
        <time>2026-05-04T00:07:51.4050000+00:00</time>
      </trkpt>
      <trkpt lat="46.64451" lon="7.64912">
        <ele>2272.14</ele>
        <time>2026-05-04T00:08:34.9600000+00:00</time>
      </trkpt>
      <trkpt lat="46.64436" lon="7.64819">
        <ele>2237.05</ele>
        <time>2026-05-04T00:10:11.2290000+00:00</time>
      </trkpt>
      <trkpt lat="46.64432" lon="7.64733">
        <ele>2219.16</ele>
        <time>2026-05-04T00:11:38.0910000+00:00</time>
      </trkpt>
      <trkpt lat="46.64412" lon="7.64661">
        <ele>2228.65</ele>
        <time>2026-05-04T00:12:56.3610000+00:00</time>
      </trkpt>
      <trkpt lat="46.64404" lon="7.6465">
        <ele>2235.3</ele>
        <time>2026-05-04T00:13:12.5100000+00:00</time>
      </trkpt>
      <trkpt lat="46.644" lon="7.64636">
        <ele>2238.93</ele>
        <time>2026-05-04T00:13:27.7910000+00:00</time>
      </trkpt>
      <trkpt lat="46.644" lon="7.64612">
        <ele>2239.03</ele>
        <time>2026-05-04T00:13:51.9760000+00:00</time>
      </trkpt>
      <trkpt lat="46.64407" lon="7.64591">
        <ele>2228.83</ele>
        <time>2026-05-04T00:14:15.5000000+00:00</time>
      </trkpt>
      <trkpt lat="46.64419" lon="7.64574">
        <ele>2213.66</ele>
        <time>2026-05-04T00:14:40.0710000+00:00</time>
      </trkpt>
      <trkpt lat="46.64408" lon="7.6457">
        <ele>2224.56</ele>
        <time>2026-05-04T00:14:56.7130000+00:00</time>
      </trkpt>
      <trkpt lat="46.64416" lon="7.64553">
        <ele>2213.34</ele>
        <time>2026-05-04T00:15:17.4820000+00:00</time>
      </trkpt>
      <trkpt lat="46.64405" lon="7.64554">
        <ele>2225.31</ele>
        <time>2026-05-04T00:15:33.6600000+00:00</time>
      </trkpt>
      <trkpt lat="46.64388" lon="7.64562">
        <ele>2244.58</ele>
        <time>2026-05-04T00:15:59.8840000+00:00</time>
      </trkpt>
      <trkpt lat="46.64371" lon="7.64576">
        <ele>2264.14</ele>
        <time>2026-05-04T00:16:28.5500000+00:00</time>
      </trkpt>
      <trkpt lat="46.6435" lon="7.64603">
        <ele>2267.64</ele>
        <time>2026-05-04T00:17:09.6650000+00:00</time>
      </trkpt>
      <trkpt lat="46.64352" lon="7.6457">
        <ele>2265.87</ele>
        <time>2026-05-04T00:17:43.0500000+00:00</time>
      </trkpt>
      <trkpt lat="46.64369" lon="7.64512">
        <ele>2257.34</ele>
        <time>2026-05-04T00:18:46.6020000+00:00</time>
      </trkpt>
      <trkpt lat="46.64398" lon="7.64453">
        <ele>2214.83</ele>
        <time>2026-05-04T00:19:59.7250000+00:00</time>
      </trkpt>
      <trkpt lat="46.64448" lon="7.64375">
        <ele>2175.97</ele>
        <time>2026-05-04T00:21:47.2650000+00:00</time>
      </trkpt>
      <trkpt lat="46.64494" lon="7.64283">
        <ele>2122.79</ele>
        <time>2026-05-04T00:23:41.9560000+00:00</time>
      </trkpt>
      <trkpt lat="46.64543" lon="7.64162">
        <ele>2118.6</ele>
        <time>2026-05-04T00:26:03.5210000+00:00</time>
      </trkpt>
      <trkpt lat="46.64573" lon="7.64078">
        <ele>2121.51</ele>
        <time>2026-05-04T00:27:38.9360000+00:00</time>
      </trkpt>
      <trkpt lat="46.64572" lon="7.64069">
        <ele>2125.13</ele>
        <time>2026-05-04T00:27:48.1230000+00:00</time>
      </trkpt>
      <trkpt lat="46.64529" lon="7.6411">
        <ele>2158.09</ele>
        <time>2026-05-04T00:29:03.5610000+00:00</time>
      </trkpt>
      <trkpt lat="46.64498" lon="7.64127">
        <ele>2153.89</ele>
        <time>2026-05-04T00:29:52.1820000+00:00</time>
      </trkpt>
      <trkpt lat="46.64495" lon="7.64134">
        <ele>2152.86</ele>
        <time>2026-05-04T00:30:00.4970000+00:00</time>
      </trkpt>
      <trkpt lat="46.64446" lon="7.64162">
        <ele>2168.36</ele>
        <time>2026-05-04T00:31:17.7580000+00:00</time>
      </trkpt>
      <trkpt lat="46.64409" lon="7.6418">
        <ele>2160.01</ele>
        <time>2026-05-04T00:32:15.0180000+00:00</time>
      </trkpt>
      <trkpt lat="46.64406" lon="7.64174">
        <ele>2156.93</ele>
        <time>2026-05-04T00:32:22.4970000+00:00</time>
      </trkpt>
      <trkpt lat="46.64414" lon="7.64156">
        <ele>2154.07</ele>
        <time>2026-05-04T00:32:44.1060000+00:00</time>
      </trkpt>
      <trkpt lat="46.64412" lon="7.64149">
        <ele>2151</ele>
        <time>2026-05-04T00:32:51.7470000+00:00</time>
      </trkpt>
      <trkpt lat="46.64341" lon="7.64189">
        <ele>2138.66</ele>
        <time>2026-05-04T00:34:43.4880000+00:00</time>
      </trkpt>
      <trkpt lat="46.64222" lon="7.64203">
        <ele>2102.85</ele>
        <time>2026-05-04T00:37:38.7310000+00:00</time>
      </trkpt>
      <trkpt lat="46.64154" lon="7.64232">
        <ele>2083.14</ele>
        <time>2026-05-04T00:39:22.7360000+00:00</time>
      </trkpt>
      <trkpt lat="46.64118" lon="7.64257">
        <ele>2068.94</ele>
        <time>2026-05-04T00:40:21.2770000+00:00</time>
      </trkpt>
      <trkpt lat="46.64111" lon="7.64257">
        <ele>2064.78</ele>
        <time>2026-05-04T00:40:31.5520000+00:00</time>
      </trkpt>
      <trkpt lat="46.64092" lon="7.64273">
        <ele>2054.72</ele>
        <time>2026-05-04T00:41:03.7670000+00:00</time>
      </trkpt>
      <trkpt lat="46.64085" lon="7.6426">
        <ele>2048.87</ele>
        <time>2026-05-04T00:41:20.4170000+00:00</time>
      </trkpt>
      <trkpt lat="46.64053" lon="7.6425">
        <ele>2028.67</ele>
        <time>2026-05-04T00:42:08.4580000+00:00</time>
      </trkpt>
      <trkpt lat="46.64044" lon="7.64242">
        <ele>2023.42</ele>
        <time>2026-05-04T00:42:23.9340000+00:00</time>
      </trkpt>
      <trkpt lat="46.64015" lon="7.64236">
        <ele>2008.33</ele>
        <time>2026-05-04T00:43:06.9290000+00:00</time>
      </trkpt>
      <trkpt lat="46.63977" lon="7.64234">
        <ele>1990.17</ele>
        <time>2026-05-04T00:44:02.7430000+00:00</time>
      </trkpt>
      <trkpt lat="46.63993" lon="7.64208">
        <ele>2001.67</ele>
        <time>2026-05-04T00:44:37.9310000+00:00</time>
      </trkpt>
      <trkpt lat="46.6403" lon="7.64169">
        <ele>2011.07</ele>
        <time>2026-05-04T00:45:44.9710000+00:00</time>
      </trkpt>
      <trkpt lat="46.64052" lon="7.64124">
        <ele>2007.92</ele>
        <time>2026-05-04T00:46:40.6450000+00:00</time>
      </trkpt>
      <trkpt lat="46.64082" lon="7.64077">
        <ele>2000.89</ele>
        <time>2026-05-04T00:47:45.3180000+00:00</time>
      </trkpt>
      <trkpt lat="46.64102" lon="7.64057">
        <ele>1999.09</ele>
        <time>2026-05-04T00:48:20.9290000+00:00</time>
      </trkpt>
      <trkpt lat="46.64135" lon="7.64004">
        <ele>1984.77</ele>
        <time>2026-05-04T00:49:33.0340000+00:00</time>
      </trkpt>
      <trkpt lat="46.64154" lon="7.6397">
        <ele>1974.49</ele>
        <time>2026-05-04T00:50:17.2140000+00:00</time>
      </trkpt>
      <trkpt lat="46.64154" lon="7.63965">
        <ele>1972.3</ele>
        <time>2026-05-04T00:50:22.2520000+00:00</time>
      </trkpt>
      <trkpt lat="46.64146" lon="7.63965">
        <ele>1970.3</ele>
        <time>2026-05-04T00:50:33.9940000+00:00</time>
      </trkpt>
      <trkpt lat="46.64147" lon="7.6396">
        <ele>1968.36</ele>
        <time>2026-05-04T00:50:39.2440000+00:00</time>
      </trkpt>
      <trkpt lat="46.64189" lon="7.6392">
        <ele>1963.25</ele>
        <time>2026-05-04T00:51:52.9030000+00:00</time>
      </trkpt>
      <trkpt lat="46.64197" lon="7.63919">
        <ele>1965.24</ele>
        <time>2026-05-04T00:52:04.6900000+00:00</time>
      </trkpt>
      <trkpt lat="46.64194" lon="7.63912">
        <ele>1961.76</ele>
        <time>2026-05-04T00:52:13.0060000+00:00</time>
      </trkpt>
      <trkpt lat="46.64179" lon="7.63906">
        <ele>1955.1</ele>
        <time>2026-05-04T00:52:35.8390000+00:00</time>
      </trkpt>
      <trkpt lat="46.64183" lon="7.63901">
        <ele>1954.41</ele>
        <time>2026-05-04T00:52:43.5770000+00:00</time>
      </trkpt>
      <trkpt lat="46.64181" lon="7.63895">
        <ele>1951.53</ele>
        <time>2026-05-04T00:52:50.2990000+00:00</time>
      </trkpt>
      <trkpt lat="46.64169" lon="7.63897">
        <ele>1948.57</ele>
        <time>2026-05-04T00:53:08.0280000+00:00</time>
      </trkpt>
      <trkpt lat="46.64165" lon="7.63893">
        <ele>1945.75</ele>
        <time>2026-05-04T00:53:15.1490000+00:00</time>
      </trkpt>
      <trkpt lat="46.64177" lon="7.63874">
        <ele>1942.25</ele>
        <time>2026-05-04T00:53:41.1660000+00:00</time>
      </trkpt>
      <trkpt lat="46.64174" lon="7.6387">
        <ele>1939.69</ele>
        <time>2026-05-04T00:53:47.1360000+00:00</time>
      </trkpt>
      <trkpt lat="46.64119" lon="7.6386">
        <ele>1916.69</ele>
        <time>2026-05-04T00:55:08.4940000+00:00</time>
      </trkpt>
      <trkpt lat="46.6411" lon="7.63861">
        <ele>1914.02</ele>
        <time>2026-05-04T00:55:21.7430000+00:00</time>
      </trkpt>
      <trkpt lat="46.64077" lon="7.63884">
        <ele>1913.31</ele>
        <time>2026-05-04T00:56:15.4420000+00:00</time>
      </trkpt>
      <trkpt lat="46.64065" lon="7.63884">
        <ele>1909.31</ele>
        <time>2026-05-04T00:56:33.0570000+00:00</time>
      </trkpt>
      <trkpt lat="46.64052" lon="7.63895">
        <ele>1909.71</ele>
        <time>2026-05-04T00:56:55.1250000+00:00</time>
      </trkpt>
      <trkpt lat="46.64048" lon="7.63881">
        <ele>1902.36</ele>
        <time>2026-05-04T00:57:10.4070000+00:00</time>
      </trkpt>
      <trkpt lat="46.64054" lon="7.63848">
        <ele>1891.65</ele>
        <time>2026-05-04T00:57:44.8110000+00:00</time>
      </trkpt>
      <trkpt lat="46.64067" lon="7.63828">
        <ele>1888.8</ele>
        <time>2026-05-04T00:58:12.5670000+00:00</time>
      </trkpt>
      <trkpt lat="46.64071" lon="7.63792">
        <ele>1877.46</ele>
        <time>2026-05-04T00:58:49.3190000+00:00</time>
      </trkpt>
      <trkpt lat="46.64087" lon="7.63774">
        <ele>1875.28</ele>
        <time>2026-05-04T00:59:18.9940000+00:00</time>
      </trkpt>
      <trkpt lat="46.64096" lon="7.63756">
        <ele>1871.46</ele>
        <time>2026-05-04T00:59:41.4350000+00:00</time>
      </trkpt>
      <trkpt lat="46.64115" lon="7.63684">
        <ele>1852.45</ele>
        <time>2026-05-04T01:00:59.1700000+00:00</time>
      </trkpt>
      <trkpt lat="46.64138" lon="7.63651">
        <ele>1850.03</ele>
        <time>2026-05-04T01:01:46.5600000+00:00</time>
      </trkpt>
      <trkpt lat="46.64138" lon="7.63646">
        <ele>1848.41</ele>
        <time>2026-05-04T01:01:51.6010000+00:00</time>
      </trkpt>
      <trkpt lat="46.64134" lon="7.63644">
        <ele>1846.32</ele>
        <time>2026-05-04T01:01:57.8090000+00:00</time>
      </trkpt>
      <trkpt lat="46.64097" lon="7.63636">
        <ele>1832.53</ele>
        <time>2026-05-04T01:02:52.7150000+00:00</time>
      </trkpt>
      <trkpt lat="46.64083" lon="7.63635">
        <ele>1829.01</ele>
        <time>2026-05-04T01:03:13.2890000+00:00</time>
      </trkpt>
      <trkpt lat="46.64069" lon="7.63644">
        <ele>1828.5</ele>
        <time>2026-05-04T01:03:35.7520000+00:00</time>
      </trkpt>
      <trkpt lat="46.64069" lon="7.63627">
        <ele>1823.42</ele>
        <time>2026-05-04T01:03:52.8840000+00:00</time>
      </trkpt>
      <trkpt lat="46.64086" lon="7.63558">
        <ele>1806.39</ele>
        <time>2026-05-04T01:05:06.7630000+00:00</time>
      </trkpt>
      <trkpt lat="46.64089" lon="7.63533">
        <ele>1799.42</ele>
        <time>2026-05-04T01:05:32.3400000+00:00</time>
      </trkpt>
      <trkpt lat="46.64092" lon="7.63526">
        <ele>1797.84</ele>
        <time>2026-05-04T01:05:40.6560000+00:00</time>
      </trkpt>
      <trkpt lat="46.64122" lon="7.63498">
        <ele>1795.92</ele>
        <time>2026-05-04T01:06:32.9570000+00:00</time>
      </trkpt>
      <trkpt lat="46.64131" lon="7.63495">
        <ele>1798.08</ele>
        <time>2026-05-04T01:06:46.5090000+00:00</time>
      </trkpt>
      <trkpt lat="46.64136" lon="7.63468">
        <ele>1791.1</ele>
        <time>2026-05-04T01:07:14.6910000+00:00</time>
      </trkpt>
      <trkpt lat="46.64146" lon="7.63453">
        <ele>1789.54</ele>
        <time>2026-05-04T01:07:35.7620000+00:00</time>
      </trkpt>
      <trkpt lat="46.64157" lon="7.63418">
        <ele>1782.06</ele>
        <time>2026-05-04T01:08:14.5540000+00:00</time>
      </trkpt>
      <trkpt lat="46.64174" lon="7.63386">
        <ele>1776.94</ele>
        <time>2026-05-04T01:08:55.3290000+00:00</time>
      </trkpt>
      <trkpt lat="46.64195" lon="7.6332">
        <ele>1760.36</ele>
        <time>2026-05-04T01:10:08.6370000+00:00</time>
      </trkpt>
      <trkpt lat="46.6422" lon="7.63273">
        <ele>1752.54</ele>
        <time>2026-05-04T01:11:08.5540000+00:00</time>
      </trkpt>
      <trkpt lat="46.64237" lon="7.63218">
        <ele>1738.25</ele>
        <time>2026-05-04T01:12:09.3390000+00:00</time>
      </trkpt>
      <trkpt lat="46.64246" lon="7.63204">
        <ele>1735.57</ele>
        <time>2026-05-04T01:12:28.6670000+00:00</time>
      </trkpt>
      <trkpt lat="46.64247" lon="7.63182">
        <ele>1727.96</ele>
        <time>2026-05-04T01:12:50.8860000+00:00</time>
      </trkpt>
      <trkpt lat="46.64236" lon="7.63192">
        <ele>1728.62</ele>
        <time>2026-05-04T01:13:09.9190000+00:00</time>
      </trkpt>
      <trkpt lat="46.64188" lon="7.63215">
        <ele>1723.91</ele>
        <time>2026-05-04T01:14:24.0900000+00:00</time>
      </trkpt>
      <trkpt lat="46.64173" lon="7.63235">
        <ele>1727.26</ele>
        <time>2026-05-04T01:14:53.9410000+00:00</time>
      </trkpt>
      <trkpt lat="46.64157" lon="7.63218">
        <ele>1718.28</ele>
        <time>2026-05-04T01:15:23.0110000+00:00</time>
      </trkpt>
      <trkpt lat="46.64148" lon="7.63215">
        <ele>1715.37</ele>
        <time>2026-05-04T01:15:36.5640000+00:00</time>
      </trkpt>
      <trkpt lat="46.64035" lon="7.63302">
        <ele>1725.6</ele>
        <time>2026-05-04T01:18:44.1780000+00:00</time>
      </trkpt>
      <trkpt lat="46.64006" lon="7.63342">
        <ele>1723.45</ele>
        <time>2026-05-04T01:19:42.8050000+00:00</time>
      </trkpt>
      <trkpt lat="46.63994" lon="7.63365">
        <ele>1723.26</ele>
        <time>2026-05-04T01:20:11.9170000+00:00</time>
      </trkpt>
      <trkpt lat="46.63967" lon="7.63437">
        <ele>1726.65</ele>
        <time>2026-05-04T01:21:34.5970000+00:00</time>
      </trkpt>
      <trkpt lat="46.63934" lon="7.63505">
        <ele>1729.86</ele>
        <time>2026-05-04T01:22:58.5180000+00:00</time>
      </trkpt>
      <trkpt lat="46.63916" lon="7.63538">
        <ele>1731.4</ele>
        <time>2026-05-04T01:23:40.9930000+00:00</time>
      </trkpt>
      <trkpt lat="46.63907" lon="7.63543">
        <ele>1728.74</ele>
        <time>2026-05-04T01:23:55.1320000+00:00</time>
      </trkpt>
      <trkpt lat="46.63888" lon="7.63526">
        <ele>1713.76</ele>
        <time>2026-05-04T01:24:27.8630000+00:00</time>
      </trkpt>
      <trkpt lat="46.63882" lon="7.63493">
        <ele>1700.81</ele>
        <time>2026-05-04T01:25:02.2670000+00:00</time>
      </trkpt>
      <trkpt lat="46.63863" lon="7.63414">
        <ele>1670.2</ele>
        <time>2026-05-04T01:26:26.6290000+00:00</time>
      </trkpt>
      <trkpt lat="46.6386" lon="7.63383">
        <ele>1663.92</ele>
        <time>2026-05-04T01:26:58.1800000+00:00</time>
      </trkpt>
      <trkpt lat="46.63838" lon="7.63257">
        <ele>1650.93</ele>
        <time>2026-05-04T01:29:09.2080000+00:00</time>
      </trkpt>
      <trkpt lat="46.63839" lon="7.6324">
        <ele>1647.84</ele>
        <time>2026-05-04T01:29:26.4040000+00:00</time>
      </trkpt>
      <trkpt lat="46.63831" lon="7.63162">
        <ele>1640.96</ele>
        <time>2026-05-04T01:30:45.8870000+00:00</time>
      </trkpt>
      <trkpt lat="46.63826" lon="7.63136">
        <ele>1640.19</ele>
        <time>2026-05-04T01:31:13.0980000+00:00</time>
      </trkpt>
      <trkpt lat="46.63829" lon="7.63128">
        <ele>1637.7</ele>
        <time>2026-05-04T01:31:22.2850000+00:00</time>
      </trkpt>
      <trkpt lat="46.63826" lon="7.63112">
        <ele>1637.22</ele>
        <time>2026-05-04T01:31:39.0010000+00:00</time>
      </trkpt>
      <trkpt lat="46.63822" lon="7.63056">
        <ele>1633.47</ele>
        <time>2026-05-04T01:32:35.7440000+00:00</time>
      </trkpt>
      <trkpt lat="46.63824" lon="7.63025">
        <ele>1629.51</ele>
        <time>2026-05-04T01:33:07.1250000+00:00</time>
      </trkpt>
      <trkpt lat="46.6383" lon="7.62998">
        <ele>1624.82</ele>
        <time>2026-05-04T01:33:35.7260000+00:00</time>
      </trkpt>
      <trkpt lat="46.63829" lon="7.6293">
        <ele>1623.37</ele>
        <time>2026-05-04T01:34:44.2740000+00:00</time>
      </trkpt>
      <trkpt lat="46.63833" lon="7.62918">
        <ele>1621.39</ele>
        <time>2026-05-04T01:34:57.7180000+00:00</time>
      </trkpt>
      <trkpt lat="46.63835" lon="7.62838">
        <ele>1621.74</ele>
        <time>2026-05-04T01:36:18.3980000+00:00</time>
      </trkpt>
      <trkpt lat="46.63829" lon="7.62826">
        <ele>1625.27</ele>
        <time>2026-05-04T01:36:33.3590000+00:00</time>
      </trkpt>
      <trkpt lat="46.63833" lon="7.62809">
        <ele>1622.92</ele>
        <time>2026-05-04T01:36:51.4700000+00:00</time>
      </trkpt>
      <trkpt lat="46.63831" lon="7.62798">
        <ele>1624.09</ele>
        <time>2026-05-04T01:37:02.9380000+00:00</time>
      </trkpt>
      <trkpt lat="46.63834" lon="7.62783">
        <ele>1622.33</ele>
        <time>2026-05-04T01:37:18.6830000+00:00</time>
      </trkpt>
      <trkpt lat="46.6383" lon="7.6276">
        <ele>1625.14</ele>
        <time>2026-05-04T01:37:42.5960000+00:00</time>
      </trkpt>
      <trkpt lat="46.63838" lon="7.6271">
        <ele>1621.35</ele>
        <time>2026-05-04T01:38:34.3370000+00:00</time>
      </trkpt>
      <trkpt lat="46.63839" lon="7.62671">
        <ele>1624.53</ele>
        <time>2026-05-04T01:39:13.6700000+00:00</time>
      </trkpt>
      <trkpt lat="46.6385" lon="7.62645">
        <ele>1620.65</ele>
        <time>2026-05-04T01:39:44.4490000+00:00</time>
      </trkpt>
      <trkpt lat="46.6385" lon="7.62601">
        <ele>1626.34</ele>
        <time>2026-05-04T01:40:28.7930000+00:00</time>
      </trkpt>
      <trkpt lat="46.63863" lon="7.62578">
        <ele>1620.57</ele>
        <time>2026-05-04T01:40:58.8170000+00:00</time>
      </trkpt>
      <trkpt lat="46.63878" lon="7.62521">
        <ele>1617.33</ele>
        <time>2026-05-04T01:42:00.3380000+00:00</time>
      </trkpt>
      <trkpt lat="46.63896" lon="7.62488">
        <ele>1608.53</ele>
        <time>2026-05-04T01:42:42.8130000+00:00</time>
      </trkpt>
      <trkpt lat="46.639" lon="7.6246">
        <ele>1609.98</ele>
        <time>2026-05-04T01:43:11.6370000+00:00</time>
      </trkpt>
      <trkpt lat="46.63899" lon="7.62433">
        <ele>1616.9</ele>
        <time>2026-05-04T01:43:38.8870000+00:00</time>
      </trkpt>
      <trkpt lat="46.63902" lon="7.62421">
        <ele>1617.45</ele>
        <time>2026-05-04T01:43:51.7570000+00:00</time>
      </trkpt>
      <trkpt lat="46.63919" lon="7.62388">
        <ele>1612.25</ele>
        <time>2026-05-04T01:44:33.3350000+00:00</time>
      </trkpt>
      <trkpt lat="46.6395" lon="7.62296">
        <ele>1623.64</ele>
        <time>2026-05-04T01:46:16.6180000+00:00</time>
      </trkpt>
      <trkpt lat="46.63963" lon="7.6227">
        <ele>1624.39</ele>
        <time>2026-05-04T01:46:49.0330000+00:00</time>
      </trkpt>
      <trkpt lat="46.63967" lon="7.62224">
        <ele>1635.55</ele>
        <time>2026-05-04T01:47:35.7620000+00:00</time>
      </trkpt>
      <trkpt lat="46.63986" lon="7.62183">
        <ele>1637.38</ele>
        <time>2026-05-04T01:48:25.6130000+00:00</time>
      </trkpt>
      <trkpt lat="46.6399" lon="7.62165">
        <ele>1640.37</ele>
        <time>2026-05-04T01:48:44.6800000+00:00</time>
      </trkpt>
      <trkpt lat="46.64017" lon="7.62136">
        <ele>1636.6</ele>
        <time>2026-05-04T01:49:33.9230000+00:00</time>
      </trkpt>
      <trkpt lat="46.64056" lon="7.62074">
        <ele>1640.37</ele>
        <time>2026-05-04T01:50:58.6650000+00:00</time>
      </trkpt>
      <trkpt lat="46.64103" lon="7.62029">
        <ele>1634.89</ele>
        <time>2026-05-04T01:52:21.2250000+00:00</time>
      </trkpt>
      <trkpt lat="46.64119" lon="7.62007">
        <ele>1635.22</ele>
        <time>2026-05-04T01:52:53.5220000+00:00</time>
      </trkpt>
      <trkpt lat="46.64145" lon="7.61993">
        <ele>1618.68</ele>
        <time>2026-05-04T01:53:34.2110000+00:00</time>
      </trkpt>
      <trkpt lat="46.64193" lon="7.61893">
        <ele>1637.09</ele>
        <time>2026-05-04T01:55:37.1750000+00:00</time>
      </trkpt>
      <trkpt lat="46.64209" lon="7.61868">
        <ele>1641.06</ele>
        <time>2026-05-04T01:56:11.6180000+00:00</time>
      </trkpt>
      <trkpt lat="46.6422" lon="7.6183">
        <ele>1653.93</ele>
        <time>2026-05-04T01:56:53.1780000+00:00</time>
      </trkpt>
      <trkpt lat="46.64286" lon="7.61784">
        <ele>1637.99</ele>
        <time>2026-05-04T01:58:40.5760000+00:00</time>
      </trkpt>
      <trkpt lat="46.64281" lon="7.61768">
        <ele>1647.59</ele>
        <time>2026-05-04T01:58:58.2910000+00:00</time>
      </trkpt>
      <trkpt lat="46.64255" lon="7.61759">
        <ele>1663.82</ele>
        <time>2026-05-04T01:59:37.5180000+00:00</time>
      </trkpt>
      <trkpt lat="46.64214" lon="7.61719">
        <ele>1687.19</ele>
        <time>2026-05-04T02:00:49.9530000+00:00</time>
      </trkpt>
      <trkpt lat="46.64178" lon="7.61671">
        <ele>1691.21</ele>
        <time>2026-05-04T02:02:01.5930000+00:00</time>
      </trkpt>
      <trkpt lat="46.64122" lon="7.61676">
        <ele>1716.1</ele>
        <time>2026-05-04T02:03:23.9470000+00:00</time>
      </trkpt>
      <trkpt lat="46.64108" lon="7.61655">
        <ele>1710.8</ele>
        <time>2026-05-04T02:03:53.4450000+00:00</time>
      </trkpt>
      <trkpt lat="46.64089" lon="7.6165">
        <ele>1710.98</ele>
        <time>2026-05-04T02:04:21.7860000+00:00</time>
      </trkpt>
      <trkpt lat="46.64036" lon="7.61665">
        <ele>1725.06</ele>
        <time>2026-05-04T02:05:41.0370000+00:00</time>
      </trkpt>
      <trkpt lat="46.63981" lon="7.6164">
        <ele>1712.96</ele>
        <time>2026-05-04T02:07:05.6090000+00:00</time>
      </trkpt>
      <trkpt lat="46.63962" lon="7.61625">
        <ele>1704.68</ele>
        <time>2026-05-04T02:07:37.3320000+00:00</time>
      </trkpt>
      <trkpt lat="46.63955" lon="7.61615">
        <ele>1699.16</ele>
        <time>2026-05-04T02:07:51.7240000+00:00</time>
      </trkpt>
      <trkpt lat="46.6394" lon="7.61612">
        <ele>1698.1</ele>
        <time>2026-05-04T02:08:13.9490000+00:00</time>
      </trkpt>
      <trkpt lat="46.63929" lon="7.61612">
        <ele>1698.99</ele>
        <time>2026-05-04T02:08:30.0960000+00:00</time>
      </trkpt>
      <trkpt lat="46.63917" lon="7.61619">
        <ele>1703.44</ele>
        <time>2026-05-04T02:08:49.0700000+00:00</time>
      </trkpt>
      <trkpt lat="46.63896" lon="7.61624">
        <ele>1707.76</ele>
        <time>2026-05-04T02:09:20.3040000+00:00</time>
      </trkpt>
      <trkpt lat="46.63867" lon="7.61625">
        <ele>1710.6</ele>
        <time>2026-05-04T02:10:02.8840000+00:00</time>
      </trkpt>
      <trkpt lat="46.63841" lon="7.61638">
        <ele>1714.74</ele>
        <time>2026-05-04T02:10:43.2340000+00:00</time>
      </trkpt>
      <trkpt lat="46.63728" lon="7.61645">
        <ele>1701.71</ele>
        <time>2026-05-04T02:13:29.2510000+00:00</time>
      </trkpt>
      <trkpt lat="46.63724" lon="7.61631">
        <ele>1694.5</ele>
        <time>2026-05-04T02:13:44.5340000+00:00</time>
      </trkpt>
      <trkpt lat="46.63692" lon="7.61619">
        <ele>1684.67</ele>
        <time>2026-05-04T02:14:33.0380000+00:00</time>
      </trkpt>
      <trkpt lat="46.63685" lon="7.61612">
        <ele>1681.98</ele>
        <time>2026-05-04T02:14:45.5010000+00:00</time>
      </trkpt>
      <trkpt lat="46.63676" lon="7.61611">
        <ele>1681.76</ele>
        <time>2026-05-04T02:14:58.7490000+00:00</time>
      </trkpt>
      <trkpt lat="46.63666" lon="7.61599">
        <ele>1677.85</ele>
        <time>2026-05-04T02:15:17.7690000+00:00</time>
      </trkpt>
      <trkpt lat="46.63671" lon="7.61596">
        <ele>1676.71</ele>
        <time>2026-05-04T02:15:25.7060000+00:00</time>
      </trkpt>
      <trkpt lat="46.63651" lon="7.6157">
        <ele>1668.72</ele>
        <time>2026-05-04T02:16:05.0570000+00:00</time>
      </trkpt>
      <trkpt lat="46.63627" lon="7.61526">
        <ele>1656.19</ele>
        <time>2026-05-04T02:17:01.6930000+00:00</time>
      </trkpt>
      <trkpt lat="46.6362" lon="7.61521">
        <ele>1655.34</ele>
        <time>2026-05-04T02:17:13.1370000+00:00</time>
      </trkpt>
      <trkpt lat="46.6362" lon="7.61509">
        <ele>1651.86</ele>
        <time>2026-05-04T02:17:25.2320000+00:00</time>
      </trkpt>
      <trkpt lat="46.63616" lon="7.61506">
        <ele>1651.5</ele>
        <time>2026-05-04T02:17:31.8370000+00:00</time>
      </trkpt>
      <trkpt lat="46.636" lon="7.61465">
        <ele>1645.24</ele>
        <time>2026-05-04T02:18:19.3680000+00:00</time>
      </trkpt>
      <trkpt lat="46.63566" lon="7.61406">
        <ele>1645.32</ele>
        <time>2026-05-04T02:19:37.0000000+00:00</time>
      </trkpt>
      <trkpt lat="46.63572" lon="7.61354">
        <ele>1634.68</ele>
        <time>2026-05-04T02:20:30.1450000+00:00</time>
      </trkpt>
      <trkpt lat="46.63578" lon="7.61339">
        <ele>1630.85</ele>
        <time>2026-05-04T02:20:47.6400000+00:00</time>
      </trkpt>
      <trkpt lat="46.63577" lon="7.61345">
        <ele>1631.81</ele>
        <time>2026-05-04T02:20:53.8640000+00:00</time>
      </trkpt>
      <trkpt lat="46.63583" lon="7.61369">
        <ele>1631.81</ele>
        <time>2026-05-04T02:21:19.6060000+00:00</time>
      </trkpt>
      <trkpt lat="46.63594" lon="7.61385">
        <ele>1630.6</ele>
        <time>2026-05-04T02:21:42.4260000+00:00</time>
      </trkpt>
      <trkpt lat="46.63606" lon="7.61388">
        <ele>1626.55</ele>
        <time>2026-05-04T02:22:00.2980000+00:00</time>
      </trkpt>
      <trkpt lat="46.6362" lon="7.614">
        <ele>1624.13</ele>
        <time>2026-05-04T02:22:24.1430000+00:00</time>
      </trkpt>
      <trkpt lat="46.63638" lon="7.614">
        <ele>1618.7</ele>
        <time>2026-05-04T02:22:50.5640000+00:00</time>
      </trkpt>
      <trkpt lat="46.63648" lon="7.61428">
        <ele>1622.37</ele>
        <time>2026-05-04T02:23:22.3740000+00:00</time>
      </trkpt>
      <trkpt lat="46.63661" lon="7.61446">
        <ele>1623.36</ele>
        <time>2026-05-04T02:23:48.7030000+00:00</time>
      </trkpt>
      <trkpt lat="46.63671" lon="7.6145">
        <ele>1622.02</ele>
        <time>2026-05-04T02:24:03.9260000+00:00</time>
      </trkpt>
      <trkpt lat="46.63676" lon="7.6146">
        <ele>1624.88</ele>
        <time>2026-05-04T02:24:16.3940000+00:00</time>
      </trkpt>
      <trkpt lat="46.63702" lon="7.61459">
        <ele>1619.47</ele>
        <time>2026-05-04T02:24:54.5710000+00:00</time>
      </trkpt>
      <trkpt lat="46.63716" lon="7.61468">
        <ele>1623.27</ele>
        <time>2026-05-04T02:25:17.0330000+00:00</time>
      </trkpt>
      <trkpt lat="46.63732" lon="7.61467">
        <ele>1622.36</ele>
        <time>2026-05-04T02:25:40.5400000+00:00</time>
      </trkpt>
      <trkpt lat="46.63768" lon="7.61479">
        <ele>1627.85</ele>
        <time>2026-05-04T02:26:34.7490000+00:00</time>
      </trkpt>
      <trkpt lat="46.63847" lon="7.61458">
        <ele>1621.53</ele>
        <time>2026-05-04T02:28:32.6250000+00:00</time>
      </trkpt>
      <trkpt lat="46.63881" lon="7.61442">
        <ele>1617.99</ele>
        <time>2026-05-04T02:29:25.0720000+00:00</time>
      </trkpt>
      <trkpt lat="46.63928" lon="7.61437">
        <ele>1623.78</ele>
        <time>2026-05-04T02:30:34.2450000+00:00</time>
      </trkpt>
      <trkpt lat="46.6395" lon="7.61412">
        <ele>1618.17</ele>
        <time>2026-05-04T02:31:15.2040000+00:00</time>
      </trkpt>
      <trkpt lat="46.63966" lon="7.61403">
        <ele>1614.92</ele>
        <time>2026-05-04T02:31:40.3800000+00:00</time>
      </trkpt>
      <trkpt lat="46.64015" lon="7.61395">
        <ele>1611.73</ele>
        <time>2026-05-04T02:32:52.7550000+00:00</time>
      </trkpt>
      <trkpt lat="46.64032" lon="7.61374">
        <ele>1603.78</ele>
        <time>2026-05-04T02:33:25.4750000+00:00</time>
      </trkpt>
      <trkpt lat="46.64033" lon="7.61368">
        <ele>1601.46</ele>
        <time>2026-05-04T02:33:31.6960000+00:00</time>
      </trkpt>
      <trkpt lat="46.6403" lon="7.6136">
        <ele>1599.14</ele>
        <time>2026-05-04T02:33:40.8830000+00:00</time>
      </trkpt>
      <trkpt lat="46.64035" lon="7.61356">
        <ele>1597.02</ele>
        <time>2026-05-04T02:33:49.2570000+00:00</time>
      </trkpt>
      <trkpt lat="46.64034" lon="7.61349">
        <ele>1594.78</ele>
        <time>2026-05-04T02:33:56.4630000+00:00</time>
      </trkpt>
      <trkpt lat="46.64039" lon="7.61347">
        <ele>1593.28</ele>
        <time>2026-05-04T02:34:04.0760000+00:00</time>
      </trkpt>
      <trkpt lat="46.64038" lon="7.61341">
        <ele>1591.37</ele>
        <time>2026-05-04T02:34:10.2960000+00:00</time>
      </trkpt>
      <trkpt lat="46.6408" lon="7.61328">
        <ele>1579</ele>
        <time>2026-05-04T02:35:13.3230000+00:00</time>
      </trkpt>
      <trkpt lat="46.6409" lon="7.6133">
        <ele>1577.94</ele>
        <time>2026-05-04T02:35:28.1390000+00:00</time>
      </trkpt>
      <trkpt lat="46.64094" lon="7.61318">
        <ele>1572.28</ele>
        <time>2026-05-04T02:35:41.5830000+00:00</time>
      </trkpt>
      <trkpt lat="46.64103" lon="7.6131">
        <ele>1567.12</ele>
        <time>2026-05-04T02:35:57.0590000+00:00</time>
      </trkpt>
      <trkpt lat="46.64106" lon="7.61302">
        <ele>1563.11</ele>
        <time>2026-05-04T02:36:06.2450000+00:00</time>
      </trkpt>
      <trkpt lat="46.64123" lon="7.61288">
        <ele>1553.3</ele>
        <time>2026-05-04T02:36:34.9110000+00:00</time>
      </trkpt>
      <trkpt lat="46.6413" lon="7.61269">
        <ele>1544.81</ele>
        <time>2026-05-04T02:36:56.6420000+00:00</time>
      </trkpt>
      <trkpt lat="46.64128" lon="7.61254">
        <ele>1540.35</ele>
        <time>2026-05-04T02:37:12.0410000+00:00</time>
      </trkpt>
      <trkpt lat="46.6414" lon="7.61258">
        <ele>1538.84</ele>
        <time>2026-05-04T02:37:30.1100000+00:00</time>
      </trkpt>
      <trkpt lat="46.64133" lon="7.61238">
        <ele>1533.88</ele>
        <time>2026-05-04T02:37:52.7340000+00:00</time>
      </trkpt>
      <trkpt lat="46.64155" lon="7.61239">
        <ele>1528.92</ele>
        <time>2026-05-04T02:38:25.0420000+00:00</time>
      </trkpt>
      <trkpt lat="46.64157" lon="7.61233">
        <ele>1526.42</ele>
        <time>2026-05-04T02:38:31.7650000+00:00</time>
      </trkpt>
      <trkpt lat="46.64154" lon="7.61221">
        <ele>1523.11</ele>
        <time>2026-05-04T02:38:44.6350000+00:00</time>
      </trkpt>
      <trkpt lat="46.64164" lon="7.61229">
        <ele>1523.36</ele>
        <time>2026-05-04T02:39:01.3810000+00:00</time>
      </trkpt>
      <trkpt lat="46.64202" lon="7.61241">
        <ele>1518.54</ele>
        <time>2026-05-04T02:39:58.4550000+00:00</time>
      </trkpt>
      <trkpt lat="46.64234" lon="7.61226">
        <ele>1506.74</ele>
        <time>2026-05-04T02:40:47.7990000+00:00</time>
      </trkpt>
      <trkpt lat="46.64242" lon="7.61215">
        <ele>1501.05</ele>
        <time>2026-05-04T02:41:03.9480000+00:00</time>
      </trkpt>
      <trkpt lat="46.64261" lon="7.61211">
        <ele>1495.57</ele>
        <time>2026-05-04T02:41:32.1270000+00:00</time>
      </trkpt>
      <trkpt lat="46.64286" lon="7.61193">
        <ele>1484.74</ele>
        <time>2026-05-04T02:42:13.0620000+00:00</time>
      </trkpt>
      <trkpt lat="46.64292" lon="7.61179">
        <ele>1480.49</ele>
        <time>2026-05-04T02:42:29.6940000+00:00</time>
      </trkpt>
      <trkpt lat="46.64292" lon="7.6117">
        <ele>1478.35</ele>
        <time>2026-05-04T02:42:38.7640000+00:00</time>
      </trkpt>
      <trkpt lat="46.64286" lon="7.61158">
        <ele>1476.8</ele>
        <time>2026-05-04T02:42:53.7240000+00:00</time>
      </trkpt>
      <trkpt lat="46.64249" lon="7.61113">
        <ele>1477.02</ele>
        <time>2026-05-04T02:44:04.4780000+00:00</time>
      </trkpt>
      <trkpt lat="46.64164" lon="7.61078">
        <ele>1480.07</ele>
        <time>2026-05-04T02:46:14.1350000+00:00</time>
      </trkpt>
      <trkpt lat="46.64157" lon="7.61067">
        <ele>1476.3</ele>
        <time>2026-05-04T02:46:29.2490000+00:00</time>
      </trkpt>
      <trkpt lat="46.64149" lon="7.61036">
        <ele>1464.93</ele>
        <time>2026-05-04T02:47:02.6240000+00:00</time>
      </trkpt>
      <trkpt lat="46.64149" lon="7.61016">
        <ele>1459.94</ele>
        <time>2026-05-04T02:47:22.7790000+00:00</time>
      </trkpt>
      <trkpt lat="46.64154" lon="7.61005">
        <ele>1456.57</ele>
        <time>2026-05-04T02:47:36.0730000+00:00</time>
      </trkpt>
      <trkpt lat="46.64165" lon="7.61011">
        <ele>1456.12</ele>
        <time>2026-05-04T02:47:53.3140000+00:00</time>
      </trkpt>
      <trkpt lat="46.64196" lon="7.60982">
        <ele>1439.74</ele>
        <time>2026-05-04T02:48:47.3950000+00:00</time>
      </trkpt>
      <trkpt lat="46.64215" lon="7.60982">
        <ele>1436.62</ele>
        <time>2026-05-04T02:49:15.2840000+00:00</time>
      </trkpt>
      <trkpt lat="46.64236" lon="7.60972">
        <ele>1429.16</ele>
        <time>2026-05-04T02:49:47.7140000+00:00</time>
      </trkpt>
      <trkpt lat="46.64338" lon="7.60897">
        <ele>1385.29</ele>
        <time>2026-05-04T02:52:35.4310000+00:00</time>
      </trkpt>
      <trkpt lat="46.6442" lon="7.60879">
        <ele>1358.59</ele>
        <time>2026-05-04T02:54:37.1540000+00:00</time>
      </trkpt>
      <trkpt lat="46.64459" lon="7.60858">
        <ele>1343.95</ele>
        <time>2026-05-04T02:55:38.1860000+00:00</time>
      </trkpt>
      <trkpt lat="46.64524" lon="7.60798">
        <ele>1321.82</ele>
        <time>2026-05-04T02:57:31.1410000+00:00</time>
      </trkpt>
      <trkpt lat="46.64539" lon="7.60788">
        <ele>1318.04</ele>
        <time>2026-05-04T02:57:55.3560000+00:00</time>
      </trkpt>
      <trkpt lat="46.64581" lon="7.60767">
        <ele>1311.14</ele>
        <time>2026-05-04T02:59:00.5360000+00:00</time>
      </trkpt>
      <trkpt lat="46.64613" lon="7.60764">
        <ele>1305.75</ele>
        <time>2026-05-04T02:59:47.6050000+00:00</time>
      </trkpt>
      <trkpt lat="46.64653" lon="7.60733">
        <ele>1300.38</ele>
        <time>2026-05-04T03:00:54.1120000+00:00</time>
      </trkpt>
      <trkpt lat="46.64672" lon="7.60705">
        <ele>1299.1</ele>
        <time>2026-05-04T03:01:33.7840000+00:00</time>
      </trkpt>
      <trkpt lat="46.6468" lon="7.60712">
        <ele>1297.97</ele>
        <time>2026-05-04T03:01:47.4820000+00:00</time>
      </trkpt>
      <trkpt lat="46.6468" lon="7.60704">
        <ele>1298.33</ele>
        <time>2026-05-04T03:01:55.5440000+00:00</time>
      </trkpt>
      <trkpt lat="46.6473" lon="7.60682">
        <ele>1288.49</ele>
        <time>2026-05-04T03:03:12.2110000+00:00</time>
      </trkpt>
      <trkpt lat="46.64753" lon="7.60648">
        <ele>1277.78</ele>
        <time>2026-05-04T03:04:00.3110000+00:00</time>
      </trkpt>
      <trkpt lat="46.64784" lon="7.6059">
        <ele>1254.69</ele>
        <time>2026-05-04T03:05:14.3800000+00:00</time>
      </trkpt>
      <trkpt lat="46.64773" lon="7.60569">
        <ele>1253.95</ele>
        <time>2026-05-04T03:05:40.9980000+00:00</time>
      </trkpt>
      <trkpt lat="46.64778" lon="7.60557">
        <ele>1248.35</ele>
        <time>2026-05-04T03:05:55.1420000+00:00</time>
      </trkpt>
      <trkpt lat="46.64797" lon="7.6055">
        <ele>1236.08</ele>
        <time>2026-05-04T03:06:23.9100000+00:00</time>
      </trkpt>
      <trkpt lat="46.64826" lon="7.60557">
        <ele>1222.97</ele>
        <time>2026-05-04T03:07:07.0580000+00:00</time>
      </trkpt>
      <trkpt lat="46.64846" lon="7.6055">
        <ele>1209.3</ele>
        <time>2026-05-04T03:07:37.2500000+00:00</time>
      </trkpt>
      <trkpt lat="46.64847" lon="7.60545">
        <ele>1206.54</ele>
        <time>2026-05-04T03:07:42.4980000+00:00</time>
      </trkpt>
      <trkpt lat="46.64811" lon="7.60466">
        <ele>1210.32</ele>
        <time>2026-05-04T03:09:18.0450000+00:00</time>
      </trkpt>
      <trkpt lat="46.64799" lon="7.60422">
        <ele>1202.46</ele>
        <time>2026-05-04T03:10:05.7520000+00:00</time>
      </trkpt>
      <trkpt lat="46.6482" lon="7.60441">
        <ele>1198.55</ele>
        <time>2026-05-04T03:10:42.0380000+00:00</time>
      </trkpt>
      <trkpt lat="46.6488" lon="7.60458">
        <ele>1165.63</ele>
        <time>2026-05-04T03:12:11.7600000+00:00</time>
      </trkpt>
      <trkpt lat="46.64905" lon="7.60474">
        <ele>1152.24</ele>
        <time>2026-05-04T03:12:51.8410000+00:00</time>
      </trkpt>
      <trkpt lat="46.6487" lon="7.6036">
        <ele>1140.79</ele>
        <time>2026-05-04T03:14:57.6770000+00:00</time>
      </trkpt>
      <trkpt lat="46.6488" lon="7.60342">
        <ele>1130.03</ele>
        <time>2026-05-04T03:15:21.0100000+00:00</time>
      </trkpt>
      <trkpt lat="46.64896" lon="7.60335">
        <ele>1119.12</ele>
        <time>2026-05-04T03:15:45.5320000+00:00</time>
      </trkpt>
      <trkpt lat="46.64896" lon="7.60314">
        <ele>1113.88</ele>
        <time>2026-05-04T03:16:06.6920000+00:00</time>
      </trkpt>
      <trkpt lat="46.64906" lon="7.60306">
        <ele>1106.57</ele>
        <time>2026-05-04T03:16:23.4380000+00:00</time>
      </trkpt>
      <trkpt lat="46.64903" lon="7.60279">
        <ele>1101.74</ele>
        <time>2026-05-04T03:16:50.9980000+00:00</time>
      </trkpt>
      <trkpt lat="46.64916" lon="7.60273">
        <ele>1094.06</ele>
        <time>2026-05-04T03:17:11.0150000+00:00</time>
      </trkpt>
      <trkpt lat="46.64918" lon="7.60258">
        <ele>1090.13</ele>
        <time>2026-05-04T03:17:26.4120000+00:00</time>
      </trkpt>
      <trkpt lat="46.64933" lon="7.60251">
        <ele>1081.89</ele>
        <time>2026-05-04T03:17:49.5320000+00:00</time>
      </trkpt>
      <trkpt lat="46.64934" lon="7.60239">
        <ele>1079.35</ele>
        <time>2026-05-04T03:18:01.7120000+00:00</time>
      </trkpt>
      <trkpt lat="46.6495" lon="7.60229">
        <ele>1071.01</ele>
        <time>2026-05-04T03:18:27.2680000+00:00</time>
      </trkpt>
      <trkpt lat="46.64944" lon="7.60207">
        <ele>1069.86</ele>
        <time>2026-05-04T03:18:51.1210000+00:00</time>
      </trkpt>
      <trkpt lat="46.64951" lon="7.60207">
        <ele>1067.35</ele>
        <time>2026-05-04T03:19:01.3950000+00:00</time>
      </trkpt>
      <trkpt lat="46.64953" lon="7.60196">
        <ele>1064.84</ele>
        <time>2026-05-04T03:19:12.8620000+00:00</time>
      </trkpt>
      <trkpt lat="46.64963" lon="7.602">
        <ele>1062.26</ele>
        <time>2026-05-04T03:19:28.0830000+00:00</time>
      </trkpt>
      <trkpt lat="46.64962" lon="7.60192">
        <ele>1061.05</ele>
        <time>2026-05-04T03:19:36.2760000+00:00</time>
      </trkpt>
      <trkpt lat="46.64967" lon="7.60191">
        <ele>1059.2</ele>
        <time>2026-05-04T03:19:43.6840000+00:00</time>
      </trkpt>
      <trkpt lat="46.64963" lon="7.6018">
        <ele>1058.39</ele>
        <time>2026-05-04T03:19:56.2270000+00:00</time>
      </trkpt>
      <trkpt lat="46.64965" lon="7.60157">
        <ele>1053.3</ele>
        <time>2026-05-04T03:20:19.5870000+00:00</time>
      </trkpt>
      <trkpt lat="46.64976" lon="7.6016">
        <ele>1050.43</ele>
        <time>2026-05-04T03:20:36.0140000+00:00</time>
      </trkpt>
      <trkpt lat="46.64992" lon="7.60137">
        <ele>1041.33</ele>
        <time>2026-05-04T03:21:09.0090000+00:00</time>
      </trkpt>
      <trkpt lat="46.65003" lon="7.60113">
        <ele>1034.2</ele>
        <time>2026-05-04T03:21:38.0870000+00:00</time>
      </trkpt>
      <trkpt lat="46.65044" lon="7.60074">
        <ele>1019.02</ele>
        <time>2026-05-04T03:22:49.9620000+00:00</time>
      </trkpt>
      <trkpt lat="46.6511" lon="7.60022">
        <ele>991.48</ele>
        <time>2026-05-04T03:24:40.1010000+00:00</time>
      </trkpt>
      <trkpt lat="46.6514" lon="7.60056">
        <ele>983.52</ele>
        <time>2026-05-04T03:25:35.8930000+00:00</time>
      </trkpt>
      <trkpt lat="46.65151" lon="7.60057">
        <ele>979.27</ele>
        <time>2026-05-04T03:25:52.0710000+00:00</time>
      </trkpt>
      <trkpt lat="46.6516" lon="7.60051">
        <ele>975.05</ele>
        <time>2026-05-04T03:26:06.5990000+00:00</time>
      </trkpt>
      <trkpt lat="46.65162" lon="7.6004">
        <ele>973.07</ele>
        <time>2026-05-04T03:26:18.0650000+00:00</time>
      </trkpt>
      <trkpt lat="46.65154" lon="7.60004">
        <ele>971.82</ele>
        <time>2026-05-04T03:26:56.1910000+00:00</time>
      </trkpt>
      <trkpt lat="46.65162" lon="7.59974">
        <ele>964.8</ele>
        <time>2026-05-04T03:27:28.6200000+00:00</time>
      </trkpt>
      <trkpt lat="46.65153" lon="7.5992">
        <ele>959.81</ele>
        <time>2026-05-04T03:28:24.6100000+00:00</time>
      </trkpt>
      <trkpt lat="46.65161" lon="7.59882">
        <ele>949.83</ele>
        <time>2026-05-04T03:29:04.6580000+00:00</time>
      </trkpt>
      <trkpt lat="46.65147" lon="7.59842">
        <ele>948.65</ele>
        <time>2026-05-04T03:29:49.8980000+00:00</time>
      </trkpt>
      <trkpt lat="46.65148" lon="7.59825">
        <ele>946.08</ele>
        <time>2026-05-04T03:30:07.0890000+00:00</time>
      </trkpt>
      <trkpt lat="46.65151" lon="7.5982">
        <ele>944.52</ele>
        <time>2026-05-04T03:30:13.7810000+00:00</time>
      </trkpt>
      <trkpt lat="46.65172" lon="7.59815">
        <ele>937.65</ele>
        <time>2026-05-04T03:30:45.0150000+00:00</time>
      </trkpt>
      <trkpt lat="46.65182" lon="7.5982">
        <ele>935.18</ele>
        <time>2026-05-04T03:31:00.5330000+00:00</time>
      </trkpt>
      <trkpt lat="46.65181" lon="7.59784">
        <ele>931.92</ele>
        <time>2026-05-04T03:31:36.8360000+00:00</time>
      </trkpt>
      <trkpt lat="46.65204" lon="7.59719">
        <ele>921.6</ele>
        <time>2026-05-04T03:32:50.5180000+00:00</time>
      </trkpt>
      <trkpt lat="46.6522" lon="7.59658">
        <ele>911.43</ele>
        <time>2026-05-04T03:33:56.3140000+00:00</time>
      </trkpt>
      <trkpt lat="46.65224" lon="7.59626">
        <ele>906.33</ele>
        <time>2026-05-04T03:34:29.0860000+00:00</time>
      </trkpt>
      <trkpt lat="46.65214" lon="7.59592">
        <ele>904.47</ele>
        <time>2026-05-04T03:35:06.3560000+00:00</time>
      </trkpt>
      <trkpt lat="46.65217" lon="7.59574">
        <ele>901.18</ele>
        <time>2026-05-04T03:35:25.0200000+00:00</time>
      </trkpt>
      <trkpt lat="46.6524" lon="7.5955">
        <ele>891.96</ele>
        <time>2026-05-04T03:36:06.5470000+00:00</time>
      </trkpt>
      <trkpt lat="46.65267" lon="7.59484">
        <ele>880.79</ele>
        <time>2026-05-04T03:37:23.9610000+00:00</time>
      </trkpt>
      <trkpt lat="46.65318" lon="7.59409">
        <ele>871.05</ele>
        <time>2026-05-04T03:39:10.3300000+00:00</time>
      </trkpt>
      <trkpt lat="46.65372" lon="7.59367">
        <ele>863.93</ele>
        <time>2026-05-04T03:40:40.1830000+00:00</time>
      </trkpt>
      <trkpt lat="46.654" lon="7.59336">
        <ele>859.76</ele>
        <time>2026-05-04T03:41:31.8040000+00:00</time>
      </trkpt>
      <trkpt lat="46.65408" lon="7.59324">
        <ele>858.54</ele>
        <time>2026-05-04T03:41:48.6580000+00:00</time>
      </trkpt>
      <trkpt lat="46.65421" lon="7.59282">
        <ele>856.01</ele>
        <time>2026-05-04T03:42:35.0780000+00:00</time>
      </trkpt>
      <trkpt lat="46.65443" lon="7.59114">
        <ele>850.86</ele>
        <time>2026-05-04T03:45:27.3960000+00:00</time>
      </trkpt>
      <trkpt lat="46.65452" lon="7.59088">
        <ele>848.89</ele>
        <time>2026-05-04T03:45:56.7340000+00:00</time>
      </trkpt>
      <trkpt lat="46.65455" lon="7.5905">
        <ele>846.33</ele>
        <time>2026-05-04T03:46:35.2720000+00:00</time>
      </trkpt>
      <trkpt lat="46.6546" lon="7.59046">
        <ele>845.32</ele>
        <time>2026-05-04T03:46:43.6450000+00:00</time>
      </trkpt>
      <trkpt lat="46.65458" lon="7.58977">
        <ele>834.19</ele>
        <time>2026-05-04T03:47:53.2260000+00:00</time>
      </trkpt>
      <trkpt lat="46.65448" lon="7.58921">
        <ele>826.41</ele>
        <time>2026-05-04T03:48:51.5260000+00:00</time>
      </trkpt>
      <trkpt lat="46.65425" lon="7.58821">
        <ele>819.28</ele>
        <time>2026-05-04T03:50:37.7850000+00:00</time>
      </trkpt>
      <trkpt lat="46.65416" lon="7.5871">
        <ele>811.54</ele>
        <time>2026-05-04T03:52:30.3980000+00:00</time>
      </trkpt>
      <trkpt lat="46.65412" lon="7.58691">
        <ele>810.35</ele>
        <time>2026-05-04T03:52:50.4220000+00:00</time>
      </trkpt>
      <trkpt lat="46.65411" lon="7.58626">
        <ele>802.26</ele>
        <time>2026-05-04T03:53:55.9280000+00:00</time>
      </trkpt>
      <trkpt lat="46.65385" lon="7.58566">
        <ele>797.52</ele>
        <time>2026-05-04T03:55:07.4190000+00:00</time>
      </trkpt>
      <trkpt lat="46.65399" lon="7.58564">
        <ele>794.89</ele>
        <time>2026-05-04T03:55:28.0680000+00:00</time>
      </trkpt>
      <trkpt lat="46.65474" lon="7.58521">
        <ele>772.94</ele>
        <time>2026-05-04T03:57:26.3750000+00:00</time>
      </trkpt>
      <trkpt lat="46.65508" lon="7.58534">
        <ele>764.92</ele>
        <time>2026-05-04T03:58:17.9720000+00:00</time>
      </trkpt>
      <trkpt lat="46.65534" lon="7.58566">
        <ele>759.01</ele>
        <time>2026-05-04T03:59:07.9310000+00:00</time>
      </trkpt>
      <trkpt lat="46.65586" lon="7.5858">
        <ele>751.77</ele>
        <time>2026-05-04T04:00:25.5520000+00:00</time>
      </trkpt>
      <trkpt lat="46.65588" lon="7.58569">
        <ele>751.41</ele>
        <time>2026-05-04T04:00:37.0170000+00:00</time>
      </trkpt>
      <trkpt lat="46.65635" lon="7.58552">
        <ele>741.54</ele>
        <time>2026-05-04T04:01:48.1000000+00:00</time>
      </trkpt>
      <trkpt lat="46.65656" lon="7.5853">
        <ele>735.38</ele>
        <time>2026-05-04T04:02:26.0660000+00:00</time>
      </trkpt>
      <trkpt lat="46.65662" lon="7.58516">
        <ele>733.9</ele>
        <time>2026-05-04T04:02:42.6950000+00:00</time>
      </trkpt>
      <trkpt lat="46.65674" lon="7.58458">
        <ele>731.95</ele>
        <time>2026-05-04T04:03:43.7260000+00:00</time>
      </trkpt>
      <trkpt lat="46.65692" lon="7.58452">
        <ele>727.76</ele>
        <time>2026-05-04T04:04:10.8300000+00:00</time>
      </trkpt>
      <trkpt lat="46.65709" lon="7.5847">
        <ele>724.25</ele>
        <time>2026-05-04T04:04:41.6770000+00:00</time>
      </trkpt>
      <trkpt lat="46.65725" lon="7.58474">
        <ele>721.73</ele>
        <time>2026-05-04T04:05:05.5060000+00:00</time>
      </trkpt>
      <trkpt lat="46.65731" lon="7.58455">
        <ele>721.32</ele>
        <time>2026-05-04T04:05:26.5770000+00:00</time>
      </trkpt>
      <trkpt lat="46.6574" lon="7.58445">
        <ele>720.12</ele>
        <time>2026-05-04T04:05:43.1910000+00:00</time>
      </trkpt>
      <trkpt lat="46.65802" lon="7.58408">
        <ele>711.7</ele>
        <time>2026-05-04T04:07:21.5360000+00:00</time>
      </trkpt>
      <trkpt lat="46.65819" lon="7.5839">
        <ele>709.87</ele>
        <time>2026-05-04T04:07:52.3830000+00:00</time>
      </trkpt>
      <trkpt lat="46.65907" lon="7.5834">
        <ele>699.26</ele>
        <time>2026-05-04T04:10:11.0280000+00:00</time>
      </trkpt>
      <trkpt lat="46.65944" lon="7.58291">
        <ele>693.35</ele>
        <time>2026-05-04T04:11:24.4210000+00:00</time>
      </trkpt>
      <trkpt lat="46.65948" lon="7.58272">
        <ele>691.61</ele>
        <time>2026-05-04T04:11:44.4420000+00:00</time>
      </trkpt>
      <trkpt lat="46.6595" lon="7.58229">
        <ele>689.05</ele>
        <time>2026-05-04T04:12:27.8610000+00:00</time>
      </trkpt>
      <trkpt lat="46.65956" lon="7.58189">
        <ele>685.57</ele>
        <time>2026-05-04T04:13:09.1100000+00:00</time>
      </trkpt>
      <trkpt lat="46.65962" lon="7.58177">
        <ele>683.49</ele>
        <time>2026-05-04T04:13:24.0670000+00:00</time>
      </trkpt>
      <trkpt lat="46.65998" lon="7.58154">
        <ele>674.24</ele>
        <time>2026-05-04T04:14:21.7660000+00:00</time>
      </trkpt>
      <trkpt lat="46.65991" lon="7.58128">
        <ele>674.95</ele>
        <time>2026-05-04T04:14:49.9030000+00:00</time>
      </trkpt>
      <trkpt lat="46.65988" lon="7.58029">
        <ele>672.22</ele>
        <time>2026-05-04T04:16:29.7350000+00:00</time>
      </trkpt>
      <trkpt lat="46.65984" lon="7.58001">
        <ele>672.23</ele>
        <time>2026-05-04T04:16:58.5480000+00:00</time>
      </trkpt>
      <trkpt lat="46.65964" lon="7.57923">
        <ele>672.58</ele>
        <time>2026-05-04T04:18:22.4320000+00:00</time>
      </trkpt>
      <trkpt lat="46.65952" lon="7.57908">
        <ele>673.2</ele>
        <time>2026-05-04T04:18:45.6400000+00:00</time>
      </trkpt>
      <trkpt lat="46.65915" lon="7.57885">
        <ele>677.05</ele>
        <time>2026-05-04T04:19:44.6870000+00:00</time>
      </trkpt>
      <trkpt lat="46.65903" lon="7.57875">
        <ele>678.03</ele>
        <time>2026-05-04T04:20:04.9790000+00:00</time>
      </trkpt>
      <trkpt lat="46.65892" lon="7.57855">
        <ele>678.17</ele>
        <time>2026-05-04T04:20:30.7990000+00:00</time>
      </trkpt>
      <trkpt lat="46.65892" lon="7.57799">
        <ele>674.68</ele>
        <time>2026-05-04T04:21:27.2160000+00:00</time>
      </trkpt>
      <trkpt lat="46.65881" lon="7.57748">
        <ele>673.14</ele>
        <time>2026-05-04T04:22:21.0730000+00:00</time>
      </trkpt>
      <trkpt lat="46.65891" lon="7.57678">
        <ele>670.66</ele>
        <time>2026-05-04T04:23:33.1060000+00:00</time>
      </trkpt>
      <trkpt lat="46.65988" lon="7.57734">
        <ele>666.92</ele>
        <time>2026-05-04T04:26:06.2570000+00:00</time>
      </trkpt>
      <trkpt lat="46.65985" lon="7.57758">
        <ele>667.11</ele>
        <time>2026-05-04T04:26:30.8330000+00:00</time>
      </trkpt>
      <trkpt lat="46.65987" lon="7.57826">
        <ele>667.71</ele>
        <time>2026-05-04T04:27:39.4010000+00:00</time>
      </trkpt>
      <trkpt lat="46.66" lon="7.57874">
        <ele>667.51</ele>
        <time>2026-05-04T04:28:31.3860000+00:00</time>
      </trkpt>
      <trkpt lat="46.66001" lon="7.57899">
        <ele>668.02</ele>
        <time>2026-05-04T04:28:56.6150000+00:00</time>
      </trkpt>
      <trkpt lat="46.66016" lon="7.57958">
        <ele>667.57</ele>
        <time>2026-05-04T04:30:00.0000000+00:00</time>
      </trkpt>
    </trkseg>
  </trk>
</gpx>