<?xml version="1.0" encoding="utf-8"?>
<gpx xmlns:xsd="http://www.w3.org/2001/XMLSchema" xmlns:xsi="http://www.w3.org/2001/XMLSchema-instance" creator="eT4 META" version="1.1" xsi:schemaLocation="http://www.topografix.com/GPX/1/1 http://www.topografix.com/GPX/1/1/gpx.xsd" xmlns="http://www.topografix.com/GPX/1/1">
  <trk>
    <name>Niederhorn - Rischerental</name>
    <trkseg>
      <trkpt lat="46.71041" lon="7.77477">
        <ele>1929</ele>
        <time>2026-05-04T00:00:00.0000000+00:00</time>
      </trkpt>
      <trkpt lat="46.71064" lon="7.77486">
        <ele>1922.13</ele>
        <time>2026-05-04T00:00:37.5940000+00:00</time>
      </trkpt>
      <trkpt lat="46.71081" lon="7.77532">
        <ele>1930.65</ele>
        <time>2026-05-04T00:01:34.1600000+00:00</time>
      </trkpt>
      <trkpt lat="46.71108" lon="7.77572">
        <ele>1937.64</ele>
        <time>2026-05-04T00:02:34.9180000+00:00</time>
      </trkpt>
      <trkpt lat="46.71113" lon="7.77608">
        <ele>1938.71</ele>
        <time>2026-05-04T00:03:14.6780000+00:00</time>
      </trkpt>
      <trkpt lat="46.7112" lon="7.7768">
        <ele>1921.96</ele>
        <time>2026-05-04T00:04:33.3950000+00:00</time>
      </trkpt>
      <trkpt lat="46.7113" lon="7.77739">
        <ele>1924.35</ele>
        <time>2026-05-04T00:05:39.1830000+00:00</time>
      </trkpt>
      <trkpt lat="46.71161" lon="7.77814">
        <ele>1932.7</ele>
        <time>2026-05-04T00:07:13.9770000+00:00</time>
      </trkpt>
      <trkpt lat="46.71196" lon="7.7787">
        <ele>1941.99</ele>
        <time>2026-05-04T00:08:35.9980000+00:00</time>
      </trkpt>
      <trkpt lat="46.71242" lon="7.77975">
        <ele>1911.59</ele>
        <time>2026-05-04T00:10:50.8730000+00:00</time>
      </trkpt>
      <trkpt lat="46.71307" lon="7.78168">
        <ele>1937.32</ele>
        <time>2026-05-04T00:14:43.6240000+00:00</time>
      </trkpt>
      <trkpt lat="46.71338" lon="7.78201">
        <ele>1932.36</ele>
        <time>2026-05-04T00:15:44.2120000+00:00</time>
      </trkpt>
      <trkpt lat="46.71379" lon="7.7827">
        <ele>1919.48</ele>
        <time>2026-05-04T00:17:23.0430000+00:00</time>
      </trkpt>
      <trkpt lat="46.71403" lon="7.78316">
        <ele>1910.31</ele>
        <time>2026-05-04T00:18:25.6100000+00:00</time>
      </trkpt>
      <trkpt lat="46.7145" lon="7.78421">
        <ele>1906.35</ele>
        <time>2026-05-04T00:20:41.3380000+00:00</time>
      </trkpt>
      <trkpt lat="46.71464" lon="7.78474">
        <ele>1901.01</ele>
        <time>2026-05-04T00:21:42.8160000+00:00</time>
      </trkpt>
      <trkpt lat="46.71492" lon="7.78526">
        <ele>1890.68</ele>
        <time>2026-05-04T00:22:54.3820000+00:00</time>
      </trkpt>
      <trkpt lat="46.71504" lon="7.78565">
        <ele>1894.59</ele>
        <time>2026-05-04T00:23:40.6520000+00:00</time>
      </trkpt>
      <trkpt lat="46.71548" lon="7.78677">
        <ele>1920.09</ele>
        <time>2026-05-04T00:26:00.3690000+00:00</time>
      </trkpt>
      <trkpt lat="46.71564" lon="7.78706">
        <ele>1922.01</ele>
        <time>2026-05-04T00:26:40.6580000+00:00</time>
      </trkpt>
      <trkpt lat="46.7158" lon="7.78765">
        <ele>1917.82</ele>
        <time>2026-05-04T00:27:49.3320000+00:00</time>
      </trkpt>
      <trkpt lat="46.71615" lon="7.78837">
        <ele>1914.53</ele>
        <time>2026-05-04T00:29:24.8630000+00:00</time>
      </trkpt>
      <trkpt lat="46.7166" lon="7.78935">
        <ele>1916.2</ele>
        <time>2026-05-04T00:31:32.5260000+00:00</time>
      </trkpt>
      <trkpt lat="46.71687" lon="7.79014">
        <ele>1902.61</ele>
        <time>2026-05-04T00:33:08.0670000+00:00</time>
      </trkpt>
      <trkpt lat="46.71732" lon="7.79086">
        <ele>1906.59</ele>
        <time>2026-05-04T00:34:53.5170000+00:00</time>
      </trkpt>
      <trkpt lat="46.7176" lon="7.79126">
        <ele>1915.14</ele>
        <time>2026-05-04T00:35:55.3900000+00:00</time>
      </trkpt>
      <trkpt lat="46.71767" lon="7.79171">
        <ele>1909.58</ele>
        <time>2026-05-04T00:36:45.3330000+00:00</time>
      </trkpt>
      <trkpt lat="46.71809" lon="7.79289">
        <ele>1912.84</ele>
        <time>2026-05-04T00:39:09.2340000+00:00</time>
      </trkpt>
      <trkpt lat="46.71809" lon="7.79328">
        <ele>1908.16</ele>
        <time>2026-05-04T00:39:51.4440000+00:00</time>
      </trkpt>
      <trkpt lat="46.71804" lon="7.79398">
        <ele>1900.03</ele>
        <time>2026-05-04T00:41:07.6170000+00:00</time>
      </trkpt>
      <trkpt lat="46.7179" lon="7.79525">
        <ele>1887.94</ele>
        <time>2026-05-04T00:43:26.8380000+00:00</time>
      </trkpt>
      <trkpt lat="46.7179" lon="7.79629">
        <ele>1885.36</ele>
        <time>2026-05-04T00:45:19.4010000+00:00</time>
      </trkpt>
      <trkpt lat="46.71797" lon="7.79686">
        <ele>1886.18</ele>
        <time>2026-05-04T00:46:22.0750000+00:00</time>
      </trkpt>
      <trkpt lat="46.71826" lon="7.79819">
        <ele>1886.08</ele>
        <time>2026-05-04T00:48:53.1290000+00:00</time>
      </trkpt>
      <trkpt lat="46.71837" lon="7.79869">
        <ele>1881.79</ele>
        <time>2026-05-04T00:49:49.9630000+00:00</time>
      </trkpt>
      <trkpt lat="46.71897" lon="7.79935">
        <ele>1875.17</ele>
        <time>2026-05-04T00:51:48.6000000+00:00</time>
      </trkpt>
      <trkpt lat="46.7196" lon="7.79994">
        <ele>1854.07</ele>
        <time>2026-05-04T00:53:46.7910000+00:00</time>
      </trkpt>
      <trkpt lat="46.71987" lon="7.79988">
        <ele>1855.69</ele>
        <time>2026-05-04T00:54:29.9080000+00:00</time>
      </trkpt>
      <trkpt lat="46.72008" lon="7.79958">
        <ele>1865.63</ele>
        <time>2026-05-04T00:55:16.3110000+00:00</time>
      </trkpt>
      <trkpt lat="46.72021" lon="7.79951">
        <ele>1867.23</ele>
        <time>2026-05-04T00:55:38.1870000+00:00</time>
      </trkpt>
      <trkpt lat="46.72036" lon="7.79958">
        <ele>1866.04</ele>
        <time>2026-05-04T00:56:03.0500000+00:00</time>
      </trkpt>
      <trkpt lat="46.72054" lon="7.79962">
        <ele>1866.89</ele>
        <time>2026-05-04T00:56:31.7940000+00:00</time>
      </trkpt>
      <trkpt lat="46.72081" lon="7.79988">
        <ele>1865.35</ele>
        <time>2026-05-04T00:57:22.8690000+00:00</time>
      </trkpt>
      <trkpt lat="46.72117" lon="7.79975">
        <ele>1874.32</ele>
        <time>2026-05-04T00:58:21.4170000+00:00</time>
      </trkpt>
      <trkpt lat="46.72152" lon="7.79985">
        <ele>1881.71</ele>
        <time>2026-05-04T00:59:17.7200000+00:00</time>
      </trkpt>
      <trkpt lat="46.72169" lon="7.80011">
        <ele>1879.62</ele>
        <time>2026-05-04T00:59:56.6050000+00:00</time>
      </trkpt>
      <trkpt lat="46.72171" lon="7.80031">
        <ele>1875.22</ele>
        <time>2026-05-04T01:00:18.4800000+00:00</time>
      </trkpt>
      <trkpt lat="46.72166" lon="7.80057">
        <ele>1868.36</ele>
        <time>2026-05-04T01:00:47.7050000+00:00</time>
      </trkpt>
      <trkpt lat="46.72192" lon="7.80116">
        <ele>1857.83</ele>
        <time>2026-05-04T01:02:03.6120000+00:00</time>
      </trkpt>
      <trkpt lat="46.7221" lon="7.8012">
        <ele>1856.31</ele>
        <time>2026-05-04T01:02:32.3560000+00:00</time>
      </trkpt>
      <trkpt lat="46.72234" lon="7.8012">
        <ele>1855.31</ele>
        <time>2026-05-04T01:03:10.2450000+00:00</time>
      </trkpt>
      <trkpt lat="46.72245" lon="7.8014">
        <ele>1850.06</ele>
        <time>2026-05-04T01:03:37.9950000+00:00</time>
      </trkpt>
      <trkpt lat="46.72272" lon="7.80166">
        <ele>1841.63</ele>
        <time>2026-05-04T01:04:29.0690000+00:00</time>
      </trkpt>
      <trkpt lat="46.72283" lon="7.80179">
        <ele>1839.29</ele>
        <time>2026-05-04T01:04:51.4190000+00:00</time>
      </trkpt>
      <trkpt lat="46.72344" lon="7.80163">
        <ele>1850.85</ele>
        <time>2026-05-04T01:06:29.2630000+00:00</time>
      </trkpt>
      <trkpt lat="46.72371" lon="7.80169">
        <ele>1853.76</ele>
        <time>2026-05-04T01:07:12.3790000+00:00</time>
      </trkpt>
      <trkpt lat="46.72382" lon="7.80186">
        <ele>1851.78</ele>
        <time>2026-05-04T01:07:37.6780000+00:00</time>
      </trkpt>
      <trkpt lat="46.72391" lon="7.80219">
        <ele>1848.3</ele>
        <time>2026-05-04T01:08:16.1140000+00:00</time>
      </trkpt>
      <trkpt lat="46.72438" lon="7.80272">
        <ele>1849.02</ele>
        <time>2026-05-04T01:09:49.8960000+00:00</time>
      </trkpt>
      <trkpt lat="46.72463" lon="7.8030099999999996">
        <ele>1854.86</ele>
        <time>2026-05-04T01:10:40.3200000+00:00</time>
      </trkpt>
      <trkpt lat="46.72462" lon="7.80344">
        <ele>1848.34</ele>
        <time>2026-05-04T01:11:26.8810000+00:00</time>
      </trkpt>
      <trkpt lat="46.72476" lon="7.8036">
        <ele>1851.27</ele>
        <time>2026-05-04T01:11:54.9580000+00:00</time>
      </trkpt>
      <trkpt lat="46.72494" lon="7.80386">
        <ele>1854.53</ele>
        <time>2026-05-04T01:12:34.9480000+00:00</time>
      </trkpt>
      <trkpt lat="46.72498" lon="7.80412">
        <ele>1853.04</ele>
        <time>2026-05-04T01:13:03.7840000+00:00</time>
      </trkpt>
      <trkpt lat="46.72498" lon="7.80465">
        <ele>1848.36</ele>
        <time>2026-05-04T01:14:01.1400000+00:00</time>
      </trkpt>
      <trkpt lat="46.72507" lon="7.80508">
        <ele>1847.45</ele>
        <time>2026-05-04T01:14:49.7950000+00:00</time>
      </trkpt>
      <trkpt lat="46.72507" lon="7.80563">
        <ele>1842.17</ele>
        <time>2026-05-04T01:15:49.3150000+00:00</time>
      </trkpt>
      <trkpt lat="46.72527" lon="7.80619">
        <ele>1841.05</ele>
        <time>2026-05-04T01:16:57.6490000+00:00</time>
      </trkpt>
      <trkpt lat="46.72536" lon="7.80678">
        <ele>1836.86</ele>
        <time>2026-05-04T01:18:03.0600000+00:00</time>
      </trkpt>
      <trkpt lat="46.7255" lon="7.80707">
        <ele>1836.86</ele>
        <time>2026-05-04T01:18:41.4440000+00:00</time>
      </trkpt>
      <trkpt lat="46.72572" lon="7.80737">
        <ele>1837.28</ele>
        <time>2026-05-04T01:19:28.9860000+00:00</time>
      </trkpt>
      <trkpt lat="46.72585" lon="7.80803">
        <ele>1833.06</ele>
        <time>2026-05-04T01:20:43.2990000+00:00</time>
      </trkpt>
      <trkpt lat="46.726" lon="7.80862">
        <ele>1829.33</ele>
        <time>2026-05-04T01:21:51.3970000+00:00</time>
      </trkpt>
      <trkpt lat="46.7264" lon="7.80927">
        <ele>1824.94</ele>
        <time>2026-05-04T01:23:25.9240000+00:00</time>
      </trkpt>
      <trkpt lat="46.72658" lon="7.80976">
        <ele>1819.01</ele>
        <time>2026-05-04T01:24:26.0840000+00:00</time>
      </trkpt>
      <trkpt lat="46.72685" lon="7.80993">
        <ele>1815.72</ele>
        <time>2026-05-04T01:25:12.5080000+00:00</time>
      </trkpt>
      <trkpt lat="46.72744" lon="7.81003">
        <ele>1823.56</ele>
        <time>2026-05-04T01:26:46.2770000+00:00</time>
      </trkpt>
      <trkpt lat="46.72771" lon="7.81007">
        <ele>1827.06</ele>
        <time>2026-05-04T01:27:29.1200000+00:00</time>
      </trkpt>
      <trkpt lat="46.72773" lon="7.81033">
        <ele>1821.16</ele>
        <time>2026-05-04T01:27:57.4320000+00:00</time>
      </trkpt>
      <trkpt lat="46.7278" lon="7.81053">
        <ele>1818.56</ele>
        <time>2026-05-04T01:28:21.7330000+00:00</time>
      </trkpt>
      <trkpt lat="46.72739" lon="7.81094">
        <ele>1804.96</ele>
        <time>2026-05-04T01:29:40.2050000+00:00</time>
      </trkpt>
      <trkpt lat="46.72714" lon="7.81163">
        <ele>1786.67</ele>
        <time>2026-05-04T01:31:04.6620000+00:00</time>
      </trkpt>
      <trkpt lat="46.72676" lon="7.81166">
        <ele>1784.57</ele>
        <time>2026-05-04T01:32:04.7400000+00:00</time>
      </trkpt>
      <trkpt lat="46.72631" lon="7.81152">
        <ele>1786.63</ele>
        <time>2026-05-04T01:33:17.3780000+00:00</time>
      </trkpt>
      <trkpt lat="46.72604" lon="7.81195">
        <ele>1776.52</ele>
        <time>2026-05-04T01:34:20.4820000+00:00</time>
      </trkpt>
      <trkpt lat="46.72548" lon="7.81201">
        <ele>1782.67</ele>
        <time>2026-05-04T01:35:49.1260000+00:00</time>
      </trkpt>
      <trkpt lat="46.72512" lon="7.81217">
        <ele>1785.01</ele>
        <time>2026-05-04T01:36:48.5380000+00:00</time>
      </trkpt>
      <trkpt lat="46.72476" lon="7.81256">
        <ele>1785.15</ele>
        <time>2026-05-04T01:37:59.3280000+00:00</time>
      </trkpt>
      <trkpt lat="46.72399" lon="7.81279">
        <ele>1771.28</ele>
        <time>2026-05-04T01:40:03.4080000+00:00</time>
      </trkpt>
      <trkpt lat="46.7236" lon="7.81331">
        <ele>1757.85</ele>
        <time>2026-05-04T01:41:26.8200000+00:00</time>
      </trkpt>
      <trkpt lat="46.72356" lon="7.81399">
        <ele>1758.6</ele>
        <time>2026-05-04T01:42:40.6810000+00:00</time>
      </trkpt>
      <trkpt lat="46.72313" lon="7.81536">
        <ele>1730.76</ele>
        <time>2026-05-04T01:45:23.7470000+00:00</time>
      </trkpt>
      <trkpt lat="46.72304" lon="7.81621">
        <ele>1720.74</ele>
        <time>2026-05-04T01:46:56.8260000+00:00</time>
      </trkpt>
      <trkpt lat="46.72281" lon="7.81614">
        <ele>1707.81</ele>
        <time>2026-05-04T01:47:33.9180000+00:00</time>
      </trkpt>
      <trkpt lat="46.7227" lon="7.81614">
        <ele>1702.48</ele>
        <time>2026-05-04T01:47:51.2840000+00:00</time>
      </trkpt>
      <trkpt lat="46.72254" lon="7.81601">
        <ele>1699.26</ele>
        <time>2026-05-04T01:48:20.1970000+00:00</time>
      </trkpt>
      <trkpt lat="46.72236" lon="7.8162">
        <ele>1693.38</ele>
        <time>2026-05-04T01:48:55.2720000+00:00</time>
      </trkpt>
      <trkpt lat="46.7222" lon="7.81666">
        <ele>1684.91</ele>
        <time>2026-05-04T01:49:51.0970000+00:00</time>
      </trkpt>
      <trkpt lat="46.72188" lon="7.81777">
        <ele>1663.49</ele>
        <time>2026-05-04T01:52:01.4160000+00:00</time>
      </trkpt>
      <trkpt lat="46.72192" lon="7.81816">
        <ele>1658.26</ele>
        <time>2026-05-04T01:52:44.0930000+00:00</time>
      </trkpt>
      <trkpt lat="46.72195" lon="7.81833">
        <ele>1656.59</ele>
        <time>2026-05-04T01:53:03.0910000+00:00</time>
      </trkpt>
      <trkpt lat="46.72201" lon="7.81849">
        <ele>1656.34</ele>
        <time>2026-05-04T01:53:22.8280000+00:00</time>
      </trkpt>
      <trkpt lat="46.72199" lon="7.81866">
        <ele>1652.96</ele>
        <time>2026-05-04T01:53:41.4950000+00:00</time>
      </trkpt>
      <trkpt lat="46.72224" lon="7.81902">
        <ele>1659.7</ele>
        <time>2026-05-04T01:54:36.9530000+00:00</time>
      </trkpt>
      <trkpt lat="46.72219" lon="7.81934">
        <ele>1653.65</ele>
        <time>2026-05-04T01:55:12.4730000+00:00</time>
      </trkpt>
      <trkpt lat="46.72222" lon="7.81977">
        <ele>1653.51</ele>
        <time>2026-05-04T01:55:59.2500000+00:00</time>
      </trkpt>
      <trkpt lat="46.72226" lon="7.82019">
        <ele>1655.49</ele>
        <time>2026-05-04T01:56:45.1410000+00:00</time>
      </trkpt>
      <trkpt lat="46.72226" lon="7.82056">
        <ele>1660.73</ele>
        <time>2026-05-04T01:57:25.1840000+00:00</time>
      </trkpt>
      <trkpt lat="46.72205" lon="7.82039">
        <ele>1643.56</ele>
        <time>2026-05-04T01:58:03.1000000+00:00</time>
      </trkpt>
      <trkpt lat="46.72192" lon="7.82043">
        <ele>1635.22</ele>
        <time>2026-05-04T01:58:24.0740000+00:00</time>
      </trkpt>
      <trkpt lat="46.72176" lon="7.82056">
        <ele>1628.71</ele>
        <time>2026-05-04T01:58:52.9870000+00:00</time>
      </trkpt>
      <trkpt lat="46.72169" lon="7.82049">
        <ele>1623.2</ele>
        <time>2026-05-04T01:59:06.3850000+00:00</time>
      </trkpt>
      <trkpt lat="46.72156" lon="7.82062">
        <ele>1619.16</ele>
        <time>2026-05-04T01:59:31.2680000+00:00</time>
      </trkpt>
      <trkpt lat="46.72145" lon="7.82051">
        <ele>1610.22</ele>
        <time>2026-05-04T01:59:52.3230000+00:00</time>
      </trkpt>
      <trkpt lat="46.72138" lon="7.82062">
        <ele>1609.36</ele>
        <time>2026-05-04T02:00:08.5660000+00:00</time>
      </trkpt>
      <trkpt lat="46.72131" lon="7.82038">
        <ele>1598.61</ele>
        <time>2026-05-04T02:00:36.7930000+00:00</time>
      </trkpt>
      <trkpt lat="46.72115" lon="7.82055">
        <ele>1594.65</ele>
        <time>2026-05-04T02:01:08.0420000+00:00</time>
      </trkpt>
      <trkpt lat="46.72111" lon="7.82032">
        <ele>1585.12</ele>
        <time>2026-05-04T02:01:33.7220000+00:00</time>
      </trkpt>
      <trkpt lat="46.72068" lon="7.82022">
        <ele>1565.38</ele>
        <time>2026-05-04T02:02:42.4630000+00:00</time>
      </trkpt>
      <trkpt lat="46.72052" lon="7.82012">
        <ele>1556.74</ele>
        <time>2026-05-04T02:03:09.9430000+00:00</time>
      </trkpt>
      <trkpt lat="46.71994" lon="7.81982">
        <ele>1537.49</ele>
        <time>2026-05-04T02:04:47.0930000+00:00</time>
      </trkpt>
      <trkpt lat="46.7197" lon="7.81965">
        <ele>1528.15</ele>
        <time>2026-05-04T02:05:29.2120000+00:00</time>
      </trkpt>
      <trkpt lat="46.71916" lon="7.81903">
        <ele>1511.86</ele>
        <time>2026-05-04T02:07:17.7020000+00:00</time>
      </trkpt>
      <trkpt lat="46.71886" lon="7.81864">
        <ele>1505.29</ele>
        <time>2026-05-04T02:08:21.1420000+00:00</time>
      </trkpt>
      <trkpt lat="46.71873" lon="7.8187">
        <ele>1498.04</ele>
        <time>2026-05-04T02:08:42.6680000+00:00</time>
      </trkpt>
      <trkpt lat="46.71862" lon="7.81853">
        <ele>1492.24</ele>
        <time>2026-05-04T02:09:07.9680000+00:00</time>
      </trkpt>
      <trkpt lat="46.71858" lon="7.8186">
        <ele>1490.09</ele>
        <time>2026-05-04T02:09:17.8300000+00:00</time>
      </trkpt>
      <trkpt lat="46.71849" lon="7.8185">
        <ele>1486.03</ele>
        <time>2026-05-04T02:09:35.6910000+00:00</time>
      </trkpt>
      <trkpt lat="46.7186" lon="7.8182">
        <ele>1499.69</ele>
        <time>2026-05-04T02:10:12.5120000+00:00</time>
      </trkpt>
      <trkpt lat="46.71826" lon="7.81807">
        <ele>1484.46</ele>
        <time>2026-05-04T02:11:08.0010000+00:00</time>
      </trkpt>
      <trkpt lat="46.71808" lon="7.81778">
        <ele>1477.93</ele>
        <time>2026-05-04T02:11:50.3410000+00:00</time>
      </trkpt>
      <trkpt lat="46.71801" lon="7.81752">
        <ele>1476.42</ele>
        <time>2026-05-04T02:12:20.5730000+00:00</time>
      </trkpt>
      <trkpt lat="46.71801" lon="7.81732">
        <ele>1479.37</ele>
        <time>2026-05-04T02:12:42.2200000+00:00</time>
      </trkpt>
      <trkpt lat="46.7181" lon="7.81709">
        <ele>1490.3</ele>
        <time>2026-05-04T02:13:10.8820000+00:00</time>
      </trkpt>
      <trkpt lat="46.71786" lon="7.81696">
        <ele>1471.65</ele>
        <time>2026-05-04T02:13:51.2990000+00:00</time>
      </trkpt>
      <trkpt lat="46.71761" lon="7.81676">
        <ele>1457.01</ele>
        <time>2026-05-04T02:14:36.3130000+00:00</time>
      </trkpt>
      <trkpt lat="46.71755" lon="7.81656">
        <ele>1459.32</ele>
        <time>2026-05-04T02:14:59.9410000+00:00</time>
      </trkpt>
      <trkpt lat="46.71737" lon="7.81654">
        <ele>1448.71</ele>
        <time>2026-05-04T02:15:28.4400000+00:00</time>
      </trkpt>
      <trkpt lat="46.71723" lon="7.81627">
        <ele>1445.16</ele>
        <time>2026-05-04T02:16:05.0790000+00:00</time>
      </trkpt>
      <trkpt lat="46.71705" lon="7.81647">
        <ele>1429.81</ele>
        <time>2026-05-04T02:16:40.8010000+00:00</time>
      </trkpt>
      <trkpt lat="46.71698" lon="7.81627">
        <ele>1427.69</ele>
        <time>2026-05-04T02:17:05.1060000+00:00</time>
      </trkpt>
      <trkpt lat="46.71689" lon="7.8163">
        <ele>1421.49</ele>
        <time>2026-05-04T02:17:19.6800000+00:00</time>
      </trkpt>
      <trkpt lat="46.71685" lon="7.8161">
        <ele>1421.3</ele>
        <time>2026-05-04T02:17:42.2290000+00:00</time>
      </trkpt>
      <trkpt lat="46.71665" lon="7.81616">
        <ele>1411.53</ele>
        <time>2026-05-04T02:18:14.4630000+00:00</time>
      </trkpt>
      <trkpt lat="46.71667" lon="7.8159">
        <ele>1413.36</ele>
        <time>2026-05-04T02:18:42.7810000+00:00</time>
      </trkpt>
      <trkpt lat="46.71647" lon="7.81581">
        <ele>1403.31</ele>
        <time>2026-05-04T02:19:15.8230000+00:00</time>
      </trkpt>
      <trkpt lat="46.71631" lon="7.81577">
        <ele>1394.72</ele>
        <time>2026-05-04T02:19:41.4500000+00:00</time>
      </trkpt>
      <trkpt lat="46.71611" lon="7.81561">
        <ele>1384.94</ele>
        <time>2026-05-04T02:20:17.4610000+00:00</time>
      </trkpt>
      <trkpt lat="46.71593" lon="7.81541">
        <ele>1379.99</ele>
        <time>2026-05-04T02:20:53.1840000+00:00</time>
      </trkpt>
      <trkpt lat="46.71539" lon="7.81504">
        <ele>1360.63</ele>
        <time>2026-05-04T02:22:27.3710000+00:00</time>
      </trkpt>
      <trkpt lat="46.7149" lon="7.81488">
        <ele>1347.69</ele>
        <time>2026-05-04T02:23:46.6410000+00:00</time>
      </trkpt>
      <trkpt lat="46.7146" lon="7.81508">
        <ele>1337.59</ele>
        <time>2026-05-04T02:24:38.7140000+00:00</time>
      </trkpt>
      <trkpt lat="46.71456" lon="7.81484">
        <ele>1337.53</ele>
        <time>2026-05-04T02:25:05.4480000+00:00</time>
      </trkpt>
      <trkpt lat="46.71406" lon="7.81455">
        <ele>1323.93</ele>
        <time>2026-05-04T02:26:30.3940000+00:00</time>
      </trkpt>
      <trkpt lat="46.71382" lon="7.81444">
        <ele>1316.69</ele>
        <time>2026-05-04T02:27:10.1090000+00:00</time>
      </trkpt>
      <trkpt lat="46.71348" lon="7.81398">
        <ele>1312.7</ele>
        <time>2026-05-04T02:28:23.3230000+00:00</time>
      </trkpt>
      <trkpt lat="46.71276" lon="7.81336">
        <ele>1297.67</ele>
        <time>2026-05-04T02:30:35.3210000+00:00</time>
      </trkpt>
      <trkpt lat="46.7114" lon="7.81303">
        <ele>1277.28</ele>
        <time>2026-05-04T02:34:12.9730000+00:00</time>
      </trkpt>
      <trkpt lat="46.71119" lon="7.81318">
        <ele>1276.1</ele>
        <time>2026-05-04T02:34:49.8880000+00:00</time>
      </trkpt>
      <trkpt lat="46.71092" lon="7.81318">
        <ele>1273.99</ele>
        <time>2026-05-04T02:35:32.5120000+00:00</time>
      </trkpt>
      <trkpt lat="46.71054" lon="7.81331">
        <ele>1272.53</ele>
        <time>2026-05-04T02:36:34.1300000+00:00</time>
      </trkpt>
      <trkpt lat="46.7102" lon="7.81331">
        <ele>1270.67</ele>
        <time>2026-05-04T02:37:27.8050000+00:00</time>
      </trkpt>
      <trkpt lat="46.70969" lon="7.81337">
        <ele>1271.9</ele>
        <time>2026-05-04T02:38:48.5790000+00:00</time>
      </trkpt>
      <trkpt lat="46.70937" lon="7.81314">
        <ele>1268.72</ele>
        <time>2026-05-04T02:39:44.8990000+00:00</time>
      </trkpt>
      <trkpt lat="46.70883" lon="7.81291">
        <ele>1266.24</ele>
        <time>2026-05-04T02:41:13.7090000+00:00</time>
      </trkpt>
      <trkpt lat="46.70778" lon="7.81198">
        <ele>1253.04</ele>
        <time>2026-05-04T02:44:27.6480000+00:00</time>
      </trkpt>
      <trkpt lat="46.70717" lon="7.81182">
        <ele>1254.07</ele>
        <time>2026-05-04T02:46:05.4930000+00:00</time>
      </trkpt>
      <trkpt lat="46.70659" lon="7.81182">
        <ele>1254.4</ele>
        <time>2026-05-04T02:47:37.0560000+00:00</time>
      </trkpt>
      <trkpt lat="46.70625" lon="7.8121">
        <ele>1257.74</ele>
        <time>2026-05-04T02:48:38.6990000+00:00</time>
      </trkpt>
      <trkpt lat="46.70555" lon="7.81214">
        <ele>1255.49</ele>
        <time>2026-05-04T02:50:29.2910000+00:00</time>
      </trkpt>
      <trkpt lat="46.70503" lon="7.81174">
        <ele>1246.08</ele>
        <time>2026-05-04T02:52:02.1040000+00:00</time>
      </trkpt>
      <trkpt lat="46.70506" lon="7.81135">
        <ele>1239.42</ele>
        <time>2026-05-04T02:52:44.5890000+00:00</time>
      </trkpt>
      <trkpt lat="46.70439" lon="7.81095">
        <ele>1230.34</ele>
        <time>2026-05-04T02:54:38.8820000+00:00</time>
      </trkpt>
      <trkpt lat="46.70407" lon="7.81075">
        <ele>1227.24</ele>
        <time>2026-05-04T02:55:33.8450000+00:00</time>
      </trkpt>
      <trkpt lat="46.70364" lon="7.81075">
        <ele>1227.61</ele>
        <time>2026-05-04T02:56:41.7280000+00:00</time>
      </trkpt>
      <trkpt lat="46.7039" lon="7.8103">
        <ele>1219.49</ele>
        <time>2026-05-04T02:57:45.4320000+00:00</time>
      </trkpt>
      <trkpt lat="46.70396" lon="7.80977">
        <ele>1209.75</ele>
        <time>2026-05-04T02:58:43.5860000+00:00</time>
      </trkpt>
      <trkpt lat="46.70351" lon="7.80951">
        <ele>1208.31</ele>
        <time>2026-05-04T03:00:00.0000000+00:00</time>
      </trkpt>
    </trkseg>
  </trk>
</gpx>