<kml xmlns="http://www.opengis.net/kml/2.2" xmlns:gx="http://www.google.com/kml/ext/2.2" xmlns:xsi="http://www.w3.org/2001/XMLSchema-instance" xsi:schemaLocation="http://www.opengis.net/kml/2.2 https://developers.google.com/kml/schema/kml22gx.xsd"><Document><name>Dessin</name><Placemark id="drawing_feature_1777969811342"><name></name><description><![CDATA[Vers la plateforme panoramique Bällehöchst
]]></description><Style><LineStyle><color>ff0000ff</color><width>3</width></LineStyle></Style><ExtendedData><Data name="type"><value>linepolygon</value></Data></ExtendedData><LineString><coordinates>7.833044914173715,46.63607805202874 7.831828607313907,46.63637057994405 7.831500026148099,46.63638787186282 7.831146515031154,46.63637548009536 7.831174013013672,46.635963133792615 7.831064256878837,46.63567596049668 7.830950231086142,46.63545861683323 7.8309230017316125,46.635166138173794 7.830869913949637,46.63500216835503 7.830544632312161,46.634607872891486 7.8305119940663745,46.63439188687843 7.830496086897521,46.63407214210927 7.83036159771517,46.63387520724492 7.829895548466159,46.63345376788307 7.829697664363429,46.633176305463074 7.82951513798649,46.6328350832563 7.829444529855332,46.63263956357499 7.8293645432737975,46.63234300243419 7.829292637136899,46.63192041935175 7.829314333634569,46.6316736913049 7.829322733177895,46.63146783416459 7.829184232723573,46.63116169886178 7.829116679309607,46.63087530130342 7.829021180225065,46.630311726372874 7.828965502491557,46.63015095729803 7.828972894494798,46.62997657323738 7.829014973826427,46.6298148283856 7.829003936428686,46.629654966417306 7.828868038376929,46.62931436860418 7.8287502398415,46.62898442591282 7.8285777538340025,46.62866906224901 7.8282981484071845,46.62827452091068 7.828175321087146,46.628016964392664 7.827990207766947,46.62770375046845 7.8278458213707305,46.627501324497715 7.827808041027627,46.62740194128711 7.8277719736688445,46.62719708642551 7.827590586801314,46.626917691181085 7.827286477265147,46.62654959730048 7.827030068225901,46.626173659394745 7.8269540554530606,46.62611776438029 7.826679116116278,46.62602599207321 7.826508424718051,46.62582669787494 7.826348714428941,46.62560792242895 7.826286873669877,46.625426119000174 7.826245857328092,46.62516745870297 7.826223880115769,46.624858790715265 7.82618113695904,46.62466653367177 7.8262520913189455,46.62422316603163 7.826335505399551,46.623771735693865 7.826318814256879,46.62331639483703 7.826265006388879,46.622971872554764 7.826272551618171,46.62264524310628 7.826220232789813,46.6225850331608 7.826119769138587,46.62261314809582 7.8257537700210165,46.62305152775213 7.82568007637252,46.6231005941929 7.825584749850302,46.62308093875604 7.825562112586762,46.622999501908275 7.825715447978556,46.62236525295349 7.825787779141273,46.62209120353525 7.825867237746543,46.621839999691026 7.825807286130678,46.621572486789624 7.825851573681363,46.62127273779332 7.825664810084764,46.62063614526059 7.8256800585369986,46.62053966318896 7.82576343736168,46.62034998083276 7.825870698495476,46.62025371832985 7.826186476037867,46.62009920836526 7.826366346008144,46.61993077486979 7.826419017481721,46.61982990246022 7.82639176056448,46.619751678024414 7.826289481126495,46.619732845951454 7.826177275848837,46.61978677055457 7.826034005646214,46.61987915989247 7.826032425163274,46.619811141219174 7.8258561862554945,46.619838111749715 7.825800363691678,46.61982311732533 7.825643852212491,46.619686993198755 7.825736211639933,46.61961715339598 7.825623012199608,46.61953202809774 7.825575149418316,46.61949383108277 7.825457661872676,46.619458267692885 7.825452813511271,46.61942951455103 7.825529259738911,46.61940687903513 7.8255603930463264,46.61937800389999 7.825540495635826,46.61935489594593 7.825431304461419,46.61934327893145 7.825367100821636,46.61929235077766 7.825375014618884,46.61926275526588 7.825448859477614,46.619200970054145 7.825433570689233,46.61917305152184 7.825301257422559,46.619174299281504 7.825236155812433,46.6191601351879 7.825216269950721,46.61913862543945 7.825341969543249,46.61902392032853 7.825315005451427,46.618986451555706 7.825067955196246,46.619012062551576 7.824797349143827,46.61898980356458 7.824698587981896,46.6189757531142 7.824650834579078,46.61895273928488 7.824672705250403,46.61892709236838 7.824876285440839,46.61882810723038 7.824984318003956,46.61867750050505 7.824953980655899,46.61865522698837 7.824836808635478,46.61866361531172 7.824734822378686,46.61868553772594 7.82455959914343,46.61869172479916 7.824391163314287,46.618673114871825 7.824296943029735,46.618644663953376 7.824303582776407,46.61859908975867 7.824417949327498,46.61852278340291 7.824531155081049,46.618446480857905 7.8245805231133705,46.618370394165815 7.824583595024159,46.61831284473935 7.824552028997001,46.61828098538456 7.824418784901397,46.61831420143416 7.824332376999844,46.61824177067804 7.82428792994814,46.618193971713225 7.824141212935423,46.61812813793874 7.824128292440289,46.61794357718423 7.824135455653305,46.61780849600821 7.824204281867524,46.6176939843861 7.8242143180515225,46.617473384047905 7.824173454290086,46.617219938334124 7.824127193438035,46.61708024278815 7.824041772200469,46.616983034672 7.823975399314894,46.61695289114833 7.824075107614512,46.61661131562721 7.8241938738112635,46.616338402830934 7.824565455150677,46.61587363699878 7.824723705155481,46.61544155836586 7.824729091438444,46.615202851238784 7.82471209660536,46.615098219607496 7.824741605819874,46.61500461871921 7.824814193929185,46.61493005169337 7.824816011820241,46.614696692612576 7.8248460106564055,46.61467181727754 7.824916561986411,46.61463721470532 7.825034914242119,46.61463281802301 7.825199878856413,46.614654635356494 7.825269697110018,46.614679971606726 7.825472915753292,46.61469526562607 7.825700290054606,46.614680109439256 7.825919431542128,46.61464979686018 7.8261707891377075,46.61458021580595 7.826321483399225,46.614554130716854 7.826397613467159,46.61448834131991 7.826465944299949,46.614305901896365 7.826626779517169,46.61423742679354 7.826708020573929,46.61423715039142 7.826873391240464,46.614315703767545 7.827087527260402,46.61455871662494 7.827203704565623,46.61473653226836 7.827249713635597,46.614840265524506 7.827402279021742,46.6150959558847 7.82761586358412,46.61526145169413 7.827661649691207,46.61533401852247 7.827705627316653,46.61555701063294 7.827751390986738,46.61562638092536 7.82784766994772,46.615780289120494 7.827908539773356,46.6159654851002 7.82801267429234,46.616243235200386 7.8280695997865966,46.61633146817229 7.828128660162964,46.61647431505017 7.828212036799336,46.61660908730735 7.828316224968412,46.61673260022768 7.828342427199798,46.6168147610686 7.828380027894616,46.61687856487473 7.828436975564135,46.61705018840559 7.828472019302978,46.61708123565353 7.828552399162773,46.61728314682022 7.828618585127275,46.617372827595204 7.828707169026997,46.61742446969794 7.828787876138799,46.61751050229882 7.828856660159699,46.617552622121025 7.828925159196329,46.61771621429525 7.829188567423036,46.61802858097031 7.829337062020815,46.61817911246969 7.829367192574046,46.61826481980621 7.829410402733058,46.618301432846415 7.829452734921089,46.61837720740523 7.829464878102838,46.618451487108985 7.829571572806148,46.618599764080734 7.829577912691046,46.61867406371055 7.829607229790503,46.61871551922687 7.829708809595436,46.61879828294321 7.8297520089486845,46.61883329759002 7.829792961955518,46.61887870891189 7.829844257304933,46.61890969997762 7.829957496583375,46.61899961592169 7.829830149797079,46.61904560453231 7.82965637506754,46.61909175215983 7.829694908785483,46.6191235861992 7.8296604863962775,46.6191788458282 7.829763793772505,46.619179290769864 7.829840538205438,46.61919820727708 7.829961267631364,46.619200190557926 7.830133391107215,46.619246749981365 7.830200348431764,46.619304771863106 7.830276839793335,46.61944915608541 7.830289977388562,46.619500256789436 7.8304182152499315,46.61957733433574 7.830587031793951,46.619647878986996 7.8307435208960845,46.619779201502034 7.831024055957718,46.61988931916943 7.831224642340509,46.620018891041894 7.8312891710761106,46.620113768235285 7.831303914418751,46.62021605968329 7.831254612031702,46.620300140563096 7.831347607017766,46.62047883085317 7.831398545322353,46.620460274939376 7.83142503903303,46.620432213320036 7.831496887777757,46.62041598280379 7.83153157016167,46.620396683613436 7.831633684567464,46.62039233607005 7.831678006435777,46.62042175206701 7.831644629844446,46.620461025613835 7.8316191925966665,46.62047469886193 7.831594172725459,46.62054590975606 7.8316002548064185,46.6205842481221 7.831699409361993,46.62065183461802 7.831718346442519,46.6207021160494 7.831674098986224,46.620842919598566 7.83173229764475,46.621024926074426 7.831685281922346,46.621104204322904 7.831700736834771,46.62115449776889 7.831749551608744,46.62116312021276 7.8318376978884965,46.62115322656233 7.831895908807906,46.62117700048533 7.831928328198078,46.62116570055479 7.831945925037337,46.621191212799275 7.831986498534704,46.62118388050246 7.8320667343979675,46.62120358261458 7.832087488460181,46.62118433135332 7.832149007453509,46.62118411913078 7.83222890065991,46.621156672236694 7.832311760392689,46.62121792112727 7.832316937928889,46.62129142547183 7.832343826601868,46.62131770474918 7.832399032200862,46.62140701939968 7.832500395637505,46.62149858694008 7.8326180726677785,46.621558916240986 7.8326430181093425,46.62163714717981 7.832812815589496,46.62184114389647 7.832839751479696,46.62187381613457 7.8330679049490275,46.62196173349935 7.833139636559352,46.622088550854244 7.833264355738957,46.62215924413591 7.833212540947586,46.62221696247022 7.833186332697878,46.62228418200493 7.833230721184098,46.622322387884076 7.833418174703117,46.6224000563005 7.833850147354518,46.62258076748156 7.833930952037775,46.622677984225895 7.83402065800195,46.62272242594639 7.8342533491057385,46.62279514127182 7.834506404775391,46.62295409406598 7.8345787760378816,46.623008984438336 7.834885495557369,46.62304547956113 7.834904401431281,46.623090965670066 7.834780812214061,46.62317530609531 7.834792753152864,46.62322081639733 7.834775645585402,46.62326243181736 7.834884718029151,46.62325645888156 7.834912840010044,46.623292323115095 7.834871361664725,46.62333482235806 7.8348845103201885,46.623386721702374 7.834981951894086,46.62337759244725 7.8350341929936,46.62337821008969 7.8351320674107825,46.623428216607266 7.835171604239284,46.623437669005455 7.835229971275937,46.62348221867899 7.835303100924124,46.623481964390635 7.835359821144258,46.62346018997534 7.835412109176611,46.623467200501416 7.835428834550276,46.62353187376911 7.835488836483162,46.62358345352132 7.835698100504897,46.62362667877716 7.835697502751339,46.62354516714598 7.835721633153668,46.62351151870123 7.835756339540532,46.62349541480397 7.83583408864075,46.62349194743345 7.835959330348321,46.623474729051296 7.8360835520990495,46.62347669370509 7.836254984462182,46.62342654871874 7.836314254946121,46.62343593195646 7.8363268591371975,46.62341351167841 7.836304657473835,46.62339361022977 7.8363335832354295,46.62338072285719 7.836477860857565,46.62342657075031 7.836741858388383,46.62349357769745 7.836896525036681,46.62353139715561 7.836991874187675,46.623553440534025 7.8373710852777485,46.62366000133418 7.837672777945088,46.62380119570061 7.83778851534128,46.62391187315258 7.837796882380395,46.62394460915586 7.837762547441033,46.62401105910212 7.837778168063816,46.62408292828341 7.837828593786058,46.62415211444749 7.837921481302652,46.62415498593495 7.838039164199789,46.624214510487704 7.838051161329797,46.624267212629654 7.838134014586928,46.62432605986244 7.83835272355304,46.62439002513633 7.838520705749642,46.62450131789276 7.838589854551537,46.62459058071078 7.838819053224148,46.62477650928349 7.838894260917674,46.62490011425907 7.839000717640801,46.625012014408505 7.839074144704512,46.625051714342256 7.83911988364931,46.6251146869306 7.83915260530353,46.62514414071999 7.839262000377329,46.625181316795334 7.8393225346268816,46.62520427964144 7.839500451045919,46.62533978027456 7.839613648856122,46.62542009694928 7.839652329094531,46.625470307675926 7.839753664409548,46.62551630236523 7.839802739025435,46.62555928409615 7.839876262180427,46.62561176964683 7.839909049779463,46.625650013703 7.840010557456071,46.62571918294174 7.84003259156114,46.62577271521996 7.840122574276524,46.62585311308222 7.8401634939107465,46.62589212757972 7.840151086227176,46.625940919652415 7.840030999367012,46.62618428506828 7.839998233406472,46.626307499098985 7.839937816275329,46.6264571534278 7.839948986508786,46.62655461091787 7.8399667192156475,46.62659770284036 7.839925562400721,46.626683357105684 7.839931597697197,46.62671450289363 7.839963076939665,46.62673277266924 7.840009440030179,46.62672301970368 7.840237180020361,46.62659435344235 7.840359838990498,46.62654117742205 7.840565078116712,46.62650928743482 7.840726466029594,46.626512714437546 7.840874838875692,46.62658774645652 7.84106037071037,46.626715755825174 7.841218066564865,46.62684705978312 7.8413790734751245,46.62695517634768 7.8413921698150535,46.62699908357174 7.841489086146269,46.627074660959735 7.841564690872738,46.62709437277846 7.84169621344223,46.62714025905864 7.841794079216145,46.62722578653935 7.841873750195173,46.62732380087287 7.842018614739432,46.627446358372154 7.842165271554497,46.627497784656484 7.842369224837236,46.62768583626104 7.842403301451846,46.62774085726488 7.842518961515715,46.62783874374799 7.842623227913284,46.627965440008836 7.842701293236649,46.6280035228747 7.842796730207151,46.62803595011018 7.842859728152143,46.62807728287633 7.842873638014506,46.62813489226953 7.842817225994999,46.62819822533494 7.842789901587791,46.62827024599079 7.842883393244736,46.628353026725065 7.84306216145033,46.62850662976565 7.8431244232206545,46.628604704936286 7.843238907591696,46.628700197456745 7.843366335504739,46.628818819342435 7.8435177245870085,46.628881415245885 7.843594660896349,46.628923497306126 7.843653447354159,46.62902238366402 7.843664577071624,46.62911344770514 7.843765096751269,46.62920419430863 7.843792347794445,46.62927761968545 7.84378213891142,46.62930962212395 7.843877877937332,46.62938200505504 7.843955036536351,46.629453654776334 7.8439728152748005,46.629502339986054 7.844032416838069,46.62955487232279 7.844073372105424,46.62959788110601 7.844135481258585,46.629675178267 7.8442119526334,46.629809963420975 7.84432994831121,46.629908638901654 7.844402045295896,46.62992436556959 7.844484980131435,46.62999199860546 7.844538874035332,46.630057337474675 7.844685772770214,46.62998596809994 7.844723783527471,46.629945875096176 7.8447387196539,46.62992504389101 7.844818541604198,46.62988719949178 7.844861165879219,46.62984309424535 7.8449316882170645,46.62980368452578 7.845024279962106,46.62976579446989 7.845101965571805,46.62975273121433 7.845327142116585,46.62974633452199 7.845619767187366,46.62960064406958 7.845693615197367,46.629540444001094 7.845806290909961,46.62939459581256 7.845777129874123,46.62937631939771 7.845724137936633,46.62927661423932 7.845757233368286,46.62920057650685 7.84574338167168,46.629056778214704 7.845713301606518,46.6289162344795 7.845713055234031,46.62888347003006 7.845731173025617,46.6288226696756 7.84569762827296,46.62868453568364 7.845763371905417,46.628511683801335 7.845955853112352,46.62845345524975 7.846109090798524,46.62860714469068 7.84623277148261,46.62868981485444 7.846302112747765,46.62880224776974 7.846457999609707,46.62899908165208 7.8465699219355285,46.629061814617764 7.8467329847487015,46.6291323560831 7.846887657652302,46.62926752526581 7.8470818310188974,46.62930678787842 7.847160803057246,46.62931050084748 7.8472959330753,46.629371551683406 7.847481730943766,46.629531515871726 7.847540531375693,46.6296311993597 7.847528757244393,46.629763101984125 7.847580344842699,46.62983004601639 7.847672208487442,46.62984969549209 7.84784726608277,46.62981710146662 7.84799437657257,46.629773419310645 7.848191612300491,46.62975672825228 7.848363652144688,46.62978567913281 7.848406497338322,46.629771140454494 7.848500410825748,46.62975481997558 7.848726790148705,46.6297540063465 7.848926631675746,46.629774864885356 7.8489870662247325,46.629783438185484 7.849202684939463,46.62989454391129 7.849384364796485,46.62996980951999 7.849411387451443,46.63001206735977 7.849540547356857,46.63005076075465 7.849603316208558,46.63006092362244 7.849671841189694,46.630064672491365 7.849930058592498,46.630128473228766 7.849988129263553,46.630131460464206 7.850059097597572,46.63015118337434 7.8501321935232244,46.63014532563181 7.850252620116662,46.63010413428546 7.850309687904786,46.63012790298868 7.850511591903455,46.63011438766928 7.850571838410345,46.630098187039486 7.8508462736935964,46.63015713220622 7.850969471811721,46.63017506748657 7.851091918058893,46.63030785735105 7.851153011255491,46.63040553725249 7.851297442217219,46.63046734887363 7.851344619999919,46.63041203655229 7.851395494173414,46.630384681224356 7.851442854604015,46.6303533428333 7.851460752979277,46.63026457191578 7.851540841749476,46.63011004528065 7.851543318722602,46.6299781758502 7.8514762349508995,46.629706706135494 7.8514162359133,46.62960303322214 7.85139319731147,46.62947445271019 7.851323667833567,46.629338848065686 7.851317616866657,46.62915426530988 7.851272543345914,46.62887632261143 7.851250011267135,46.628814070097654 7.851259259404663,46.62865660323038 7.851267772866204,46.62855507979636 7.851183214148357,46.62842752096314 7.851138546107402,46.62835495943504 7.851062790006706,46.62831607482001 7.851014333926339,46.62818003406886 7.851006169440079,46.628022630180915 7.850951743348601,46.627930857302005 7.850944315451426,46.627870148415816 7.850943232081021,46.62772790281371 7.85098528981123,46.62761027515791 7.850975363748532,46.62752639981735 7.850993359348016,46.62745041510624 7.850933595096219,46.62737710889163 7.850971988929842,46.62738815830683 7.851095144481948,46.62740129866397 7.851275718755814,46.6274845567519 7.8513488718639985,46.6274866895683 7.851429306955939,46.62753035199463 7.851441220388529,46.62757026661419 7.851482198253288,46.62761567008494 7.851565915380284,46.62763294844394 7.851669513551333,46.6276693344408 7.851805317543806,46.62766644513341 7.852008043364292,46.62760976980311 7.852158357518965,46.62768274717512 7.852509953268316,46.627935369024755 7.852813921170435,46.6280621303963 7.852957070640059,46.62810876061373 7.853229255981451,46.62817809723975 7.853534449108429,46.6283128437981 7.853750593479609,46.628431609637694 7.85395103909456,46.628531573458844 7.854062963340513,46.62859349990007 7.854364813034005,46.62874583786288 7.8544772905259395,46.62887968581811 7.854601749452678,46.62898140407586 7.855000363810377,46.62918613159326 7.855194579438668,46.62923017515009 7.855576606645279,46.629391007740125 7.855782746391152,46.62952827473479 7.855854504506247,46.62965028293332 7.8559484621385645,46.62979059036926 7.855928378669958,46.62989615228116 7.855884996653316,46.62999141037821 7.8558789950841605,46.63011650617004 7.856053805720213,46.630202974463025 7.856108461870958,46.63021476173873 7.856200545026613,46.630262373966026 7.85674614452443,46.63040582149227 7.856948671675511,46.63047300707281 7.857033481589896,46.63048068756165 7.857265286248571,46.630580530543156 7.857422569169838,46.63065187708868 7.857522275421097,46.6307841706559 7.857618202481216,46.63087811857977 7.857688229825261,46.63092626088097 7.857890682190444,46.63099550398341 7.857968215826527,46.631021833756584 7.858005653830955,46.63104831086329 7.857645239623957,46.630922475927306 7.857364955879214,46.630603142061574 7.85704196033504,46.63050082541967 7.856960238679661,46.630488310613345 7.856188177548722,46.630276249786895 7.856098749180328,46.630192789863266 7.85589904447614,46.630107761879195 7.855918084751945,46.6297912720952 7.855759692314296,46.62949218874783 7.855460518421163,46.6293207791793 7.855178984648525,46.629208448401954 7.855014060993778,46.62917652144142 7.8545368989761535,46.62894957232425 7.8543532566832495,46.62871760893606 7.853998480775644,46.628576955928395 7.853712386130122,46.62842915175095 7.853334340626514,46.628241266258655 7.853039778857193,46.62810926287456 7.852482930285043,46.62794568165851 7.852016251709856,46.62758856736609 7.85208842047955,46.62747593231258 7.852100637528599,46.62738815781142 7.852144499209637,46.62731899753658 7.852149436286991,46.627215477796646 7.852140347959375,46.62715045238571 7.852154638033897,46.626959168483246 7.852118125711314,46.62686565629134 7.8521560108848645,46.62676398852623 7.852150932277026,46.626661490753236 7.852128731704265,46.626566940888836 7.852148205639091,46.62649195462469 7.8521902129450725,46.626367600038805 7.852206604725233,46.626264038687864 7.852250171749333,46.62615643587656 7.852236863269056,46.626101283092574 7.852278168910508,46.626072547069526 7.852244919810992,46.6260312669033 7.85226737769234,46.62597204150385 7.852344117982398,46.62589586173304 7.852332671805244,46.625522310613434 7.852319001660201,46.625419844066876 7.852371075824736,46.625301367276506 7.852544464059887,46.625131192131974 7.852599589632161,46.625037347513505 7.8526434111740055,46.62496325852624 7.852707376129449,46.624901910902814 7.852886645309399,46.624781411040665 7.853073034307601,46.624715203243476 7.8534980231084,46.62457940022251 7.8535928662077845,46.62453430253017 7.853696548469326,46.624430834255875 7.8538366564582445,46.6243847725141 7.8542095975564035,46.624117807557816 7.854309838454443,46.624019945425495 7.854450461135957,46.62388996977803 7.8548536978472345,46.62364395758769 7.855020095346742,46.623545054081724 7.855215216673269,46.623407686101636 7.855571937498783,46.62330249242245 7.855902513434823,46.6232693173314 7.856000025010728,46.623269759686906 7.8560891400771045,46.623235069898215 7.856135620506169,46.62324129300247 7.856231100275199,46.62327930287511 7.856347209017054,46.623282873446364 7.856437527866081,46.62325377303884 7.856599370796535,46.623166871265454 7.856634929217858,46.623111599244005 7.856702217099125,46.623106557699955 7.856777827994339,46.62312705851945 7.856878667415212,46.62310750906619 7.857100282488453,46.622944467691994 7.857195601616443,46.62296169931205 7.857299774524778,46.622922957498886 7.857486923083373,46.6228063928618 7.857578469189763,46.622786077735014 7.857927749271912,46.62277040937968 7.858037818003326,46.62274363254017 7.85809314474253,46.62269308224216 7.858239085484548,46.62265178855848 7.85847601812421,46.6226684979986 7.858645421198812,46.62269803374366 7.858882744811029,46.62276508767261 7.85897794646255,46.62276713431633 7.859083781382256,46.622793116298716 7.8591532038990595,46.62291353278093 7.859300832874046,46.622940159618615 7.8594271706434995,46.622915718922684 7.859547592669882,46.62287691508478 7.85966139174291,46.62288208912801 7.859760336971017,46.622917685797646 7.859799622284321,46.62297222941813 7.859806178412741,46.62306890298575 7.859848096873219,46.62308553042679 7.860004789075063,46.62308335330748 7.860068799621724,46.62310469398307 7.860116826943115,46.62316045737145 7.860138200006515,46.62322191330322 7.860418458050966,46.62328640792765 7.860524194800705,46.62329960246997 7.86064007346592,46.623273600773565 7.860800848429815,46.6231994834826 7.860952218336683,46.623110216829296 7.861097871161782,46.623032159321895 7.8612115022920745,46.62301575524676 7.86130524418769,46.62297944588307 7.861423824017224,46.6230021818236 7.861538154070729,46.623075280237046 7.861682627114828,46.623143471787415 7.861772406807083,46.62319428464529 7.861922971797021,46.623299214423035 7.862044336565593,46.6233810769168 7.862166768742013,46.62345094798652 7.8622366345359325,46.62347865894795 7.862455531265342,46.62356335531636 7.86252985909669,46.62356787401249 7.86260205930762,46.62359717437167 7.86277950302555,46.62357653571491 7.862911613416825,46.623548073894035 7.862997223331962,46.6235109942095 7.863288122481996,46.623451573088374 7.863483868315111,46.62339650146031 7.863670302366193,46.62333826764336 7.86387874063379,46.623273558200935 7.863990859077174,46.62321240429345 7.864213757815529,46.62311666855705 7.864319526586456,46.623098044573524 7.864482735750864,46.623088320658304 7.8645878828621525,46.622990705380474 7.864675283013229,46.62291836568008 7.8647515354017274,46.62287252893193 7.86469695755699,46.62272249158408 7.864715860422438,46.6226169324585 7.864687505178751,46.622553905117336 7.8647288901179735,46.62250260456803 7.864767431294065,46.62238498468799 7.864840631628988,46.62224645725134 7.8649765058363945,46.62210689628769 7.865032174356209,46.62195325030926 7.865020233238359,46.621910939736296 7.865028232532938,46.621894926723485 7.864973016542558,46.62181122181521 7.86492998713139,46.62180099365838 7.864913745857531,46.62165480888463 7.864894632000674,46.621611262618366 7.864915210758556,46.621571227936364 7.864838359586409,46.621393303505826 7.864821102847451,46.621324226196734 7.864756230729344,46.62119340710546 7.86475999933791,46.621082310384246 7.864739012483542,46.62092301053589 7.864747832909968,46.62086384009911 7.864708645071302,46.62076915602299 7.864600112875754,46.620695239996515 7.8645249464375135,46.6205836389527 7.864517560953015,46.62053012310087 7.8644638283849275,46.62048716936348 7.864533789927411,46.620379821223345 7.864498465598771,46.62031602069018 7.864556155441343,46.62027185171429 7.864554379401381,46.62015401334696 7.864524877625112,46.62009258856006 7.864338986191226,46.61992306247984 7.864318745260796,46.61985840637648 7.864345007928366,46.61980316667547 7.864397542034248,46.61972297303411 7.864405038423195,46.61964302948537 7.864369714728354,46.619579228908734 7.864438684166362,46.619493461777346 7.8643570645789245,46.61944661628176 7.864327795819255,46.61941475932902 7.864334609243925,46.61939555417763 7.864435407459778,46.619372002349415 7.8644291703095455,46.61931688391557 7.864466054905357,46.619283980795636 7.86452732014964,46.61925178577893 7.864551128834907,46.619179772848355 7.8646065465091874,46.61914200554578 7.864593213071202,46.61907013133875 7.864665896259842,46.61901391894831 7.864829867838275,46.6187777719354 7.8648901304219105,46.61854547484449 7.864982310494002,46.61842400504363 7.865042328177192,46.61834845908542 7.8649582523669315,46.61818489814274 7.8648935552473125,46.61804162182139 7.864885498606649,46.61795716965156 7.8649303081249595,46.61782773406513 7.864898783135646,46.61776678032623 7.864660625287716,46.61758606478304 7.864566772312439,46.61749480805042 7.86451278533748,46.61739729524882 7.864508387785749,46.6172140970218 7.864399328675749,46.61706895044545 7.864401156653758,46.61692542550849 7.864383759144315,46.61678095440891 7.864394408687599,46.61663128945441 7.864537333011163,46.61638341598537 7.864556021993967,46.616316167469535 7.86454019864214,46.61618390487385 7.8645751641104535,46.616118631331396 7.864585119518047,46.616068719065545 7.864659933573725,46.61599515369227 7.864908723656077,46.61586292007863 7.864985088439574,46.61579290097277 7.865010480146923,46.61575989018413 7.864979912623687,46.61572789145118 7.864959484658057,46.615650896560226 7.864991903638741,46.61562187362852 7.8650654212494855,46.61562962697548 7.865105215115805,46.61564874594995 7.86517398047763,46.61564527748449 7.865227215466882,46.615594500327205 7.865215132223862,46.6155407561988 7.865246245784237,46.61549407592553 7.8653229195519145,46.61545846465832 7.865481240639906,46.61542656195984 7.865584844636386,46.61540530059276 7.865745586117309,46.61537909358424 7.8659474185984,46.61536395260563 7.8660286612190955,46.61536364812672 7.866123988907679,46.61538326969205 7.866294863582374,46.61541619352135 7.866398012609898,46.61539742599 7.866844476690963,46.61549564478026 7.867092180250511,46.61555704858753 7.867147254069671,46.61562317158102 7.867267588041928,46.61572261381674 7.8674908314286,46.615772920410954 7.867672115816713,46.61580100809612 7.867856318205182,46.61575795957564 7.868007407697514,46.615783762922625 7.868181785608689,46.61581906822143 7.868222622795826,46.61584608571976 7.86832467482179,46.61583531218842 7.868449133853728,46.615869206814835 7.8685249991460635,46.61592246429884 7.86867383173699,46.615956266816276 7.86893615106467,46.61595767465105 7.8692122327314245,46.61593825190682 7.869323525164902,46.61592184846023 7.869483837156257,46.615939623444476 7.8697096846138175,46.61602507873001 7.869932638851293,46.61603862043075 7.870263989723283,46.61610929070462 7.8706001434234905,46.61619992078804 7.870780780477558,46.616291938468486 7.871004151645755,46.61650286810558 7.871128862860144,46.61656792597905 7.871585358859607,46.61675719195423 7.871632519352642,46.61684891585303 7.871722425633408,46.61691570353133 7.872116667519495,46.617157149019704 7.872314918581628,46.617273871149926 7.8727423762422095,46.61745924714074 7.872842314049808,46.61747405062774 7.872999406354474,46.61752379916298 7.873184091436422,46.61754067696932 7.873251531372655,46.61755560393819 7.873311128975701,46.61760572361356 7.873369225978259,46.61761349369389 7.873512500221488,46.617676879877244 7.873531269834742,46.61770158212543 7.873605827924271,46.61773566144195 7.87365710252651,46.617761038853395 7.873691954370633,46.61776490166788 7.873732243463774,46.61772319181267 7.873768223868913,46.61772305451765 7.8737905847344,46.6177613287065 7.873856999245943,46.617793041476546 7.873931075931347,46.617767185733456 7.874052215173118,46.6178202666898 7.874162236419831,46.617934125931264 7.874241348007936,46.61795699926881 7.874388665839109,46.618045368678736 7.8745379966340465,46.61813989751967 7.874703423022728,46.61821518486811 7.874886812217102,46.61836607223138 7.874933935956289,46.618308352682526 7.874951017458014,46.618267530370396 7.8749296423831385,46.618207675387225 7.875079343034868,46.61820390592455 7.875105677648818,46.61815905232311 7.875212252804786,46.618133071401765 7.875506134018142,46.618160715455794 7.875565573063312,46.618190855651214 7.875679608942696,46.61822638067346 7.875813421502216,46.61826742383457 7.875849318366541,46.6182568971825 7.8758619050199625,46.61823447254629 7.875893152738569,46.61822316452586 7.876041892813899,46.61824417128842 7.876450849131921,46.61829214952497 7.876492866116281,46.618320757822545 7.876557941197021,46.61833009779054 7.876589634861558,46.61830049184493 7.876685873631338,46.618288134820595 7.877056930031996,46.61838580418718 7.877227924372132,46.6184314976874 7.877249925413033,46.618425019814026 7.877325757641344,46.618472677475864 7.877359982187291,46.61839902341187 7.877420816568342,46.618457926912996 7.877518215899116,46.61844556475358 7.877639405548285,46.618504235815 7.877620003775726,46.61868811650496 7.877566256464427,46.618930731231394 7.877532498407992,46.61906192281756 7.8776385208787465,46.6191569437883 7.877781466922469,46.61932181874991 7.877867001349257,46.61942058469384 7.877993848054541,46.61946085300368 7.878094971276474,46.61947804478764 7.8781939224146775,46.619513625437484 7.878268285006773,46.61952292860429 7.8783262809365,46.61951791007132 7.878446480470976,46.61945431316325 7.878581996029079,46.61941862754242 7.878716500331119,46.619401326218224 7.878752254374563,46.61937321777311 7.8788553872938865,46.61935204156846 7.878988444523035,46.61929958264727 7.879125152493463,46.61926788753872 7.879307524156476,46.61928476435727 7.879484684805389,46.619374384242704 7.879769647429959,46.619446005444075 7.880042951519827,46.61951127780993 7.880105067955363,46.61958455973522 7.880176195977751,46.619766492031694 7.880278878887935,46.61983242435334 7.880501238576179,46.61991307691025 7.880615747167612,46.61994414607833 7.881017416862714,46.61995058005748 7.88122305115488,46.61997295761314 7.881818893733561,46.6203030925237 7.881993825310584,46.62040310625311 7.8820182266275935,46.6204062080177 7.882063269642795,46.62038726785809 7.882293089831218,46.62052782467454 7.8825120113492915,46.62068097264153 7.882572729242718,46.620724689884234 7.8826786762269805,46.62076343604314 7.882787843296613,46.620770203295336 7.882961250102828,46.62082546870741 7.883076417722889,46.620856186991524 7.8831347558499765,46.62089272080878 7.883191815166087,46.62091487475219 7.883202116685646,46.62074815168869 7.883254118510113,46.62057852774344 7.883306390266918,46.62058311881038 7.883354262077911,46.620617295916496 7.883563671180831,46.62067481742955 7.883716997996029,46.620687804760315 7.883746532943839,46.62060937211757 7.883926064270046,46.62028021773835 7.883909202966615,46.620205961988965 7.883957393719305,46.62011853909348 7.883949423626405,46.61999629923981 7.883962583064917,46.61990274650943 7.8839534889290945,46.61977443483036 7.8840699734227435,46.619824326732996 7.884209961539062,46.619909289549476 7.884266109336948,46.619961814496754 7.884316269792723,46.6199919864186 7.8843054247577165,46.61995777659309 7.884346029691524,46.61995522042307 7.88444185254807,46.62003316319697 7.884600070893602,46.62007649811782 7.884635352966726,46.62013230110337 7.8847446704726964,46.620157446462834 7.884810758449392,46.62014839719814 7.884767267154429,46.61994158574013 7.884756275535727,46.61982241396589 7.88470609044702,46.61964839406976 7.884702995823606,46.619354600641465 7.884704970161931,46.61917158597713 7.884631861829634,46.6190328186751 7.884793565912112,46.61907693885264 7.885101397775274,46.61924675351383 7.885407332049782,46.61946772083185 7.885544722874568,46.61951912762017 7.885861421754662,46.61965934398844 7.885946780153491,46.61973492907059 7.885972168777359,46.61957659641101 7.886024248269391,46.619558011492565 7.886257733370926,46.619579471548384 7.886374146867099,46.6196205706312 7.886450772748503,46.619622667212305 7.886476123148818,46.61960019126034 7.88645830936577,46.61955151264598 7.886399864839706,46.61950219440647 7.886384240424996,46.619437524078585 7.886422791755227,46.61932708901866 7.88641488238126,46.619212840664105 7.88639661009649,46.61896837039805 7.886401964064671,46.618914006730655 7.886430802678745,46.6188923162422 7.8868338478864235,46.619065748079365 7.887092864316794,46.61922695856065 7.887154063041526,46.6191883583254 7.887276659073047,46.61913513164615 7.887433730827794,46.61904021300734 7.887828304593002,46.618891614390236 7.887959661895151,46.618853666751754 7.887973285061015,46.618816851846425 7.888022000392515,46.618812664063604 7.888121685809432,46.61865643550757 7.888212164929876,46.61850983302169 7.888199297229814,46.618358043915684 7.8882679817697126,46.61824269449455 7.8883458517324465,46.6181153213816 7.888368944361907,46.61796099299056 7.8884249735754,46.61785927898906 7.888557479942288,46.61774207923913 7.888690659508423,46.617426685714705 7.889045202178926,46.61776972249819 7.889145710464237,46.61785243777852 7.889500328237793,46.61806441108251 7.8896827834819145,46.61823071329015 7.889722219580259,46.61822736066472 7.8897518376152025,46.618160114293055 7.889774045333267,46.61803935368633 7.889821439594824,46.61801599059527 7.889846527911218,46.61796234778293 7.889811749789996,46.61782822698543 7.8898297675368205,46.61776182564589 7.889880629969379,46.61773685050306 7.890028506559177,46.61779300533713 7.890086452888976,46.61778238686005 7.890332559628077,46.61764795285968 7.890442141579315,46.617566004659125 7.8905214928294045,46.61747778289202 7.89075060125558,46.617392963151715 7.890817551828908,46.61734874397973 7.890827637214762,46.61730554951561 7.890902765487921,46.61726769109389 7.891090256073201,46.617203014675965 7.891232859631543,46.61738598900008 7.891277572292191,46.61745853481682 7.891314608640084,46.6176911597002 7.891319846069381,46.617762263909164 7.891280891427775,46.617823154517694 7.891254390005973,46.6178464352915 7.891281385890408,46.617882290201834 7.8918883485266695,46.618288248384005 7.892182291207048,46.61847792846731 7.892264435697164,46.618584688781944 7.892271277076535,46.618708530945995 7.892407893692723,46.61880548445791 7.892435103424676,46.61900516551116 7.892489714350635,46.61915039478347 7.89255431953072,46.6192416476407 7.892765490405424,46.6193702702587 7.892804222411727,46.61942126205261 7.8927486354931675,46.61957492166677 7.892799597338411,46.61983844057219 7.892818626614695,46.619918991051584 7.892860525967057,46.61993240982459 7.892961319369934,46.61990963182943 7.893104723461623,46.61984672610863 7.8931936681260835,46.6197952254973 7.8933207411134205,46.61972279468563 7.89340749161687,46.61968648664044 7.893496757885595,46.619673344048614 7.893805939322046,46.61972620917615 7.893893267333809,46.61975862599687 7.894062998819563,46.61978991446308 7.894278374358554,46.61986577312119 7.894590643684149,46.61986931973594 7.8946054995546495,46.61994390203827 7.8945515521096565,46.6200160419211 7.894386607190362,46.62013977159861 7.894296865390735,46.62032175218516 7.894368371767247,46.62054283297779 7.894409201996818,46.62078144098993 7.894512752120068,46.620948050919374 7.894561929700493,46.62086074612321 7.894609223234819,46.62082539412648 7.895062676981772,46.62063977370925 7.8952199215045535,46.62056642084636 7.8953389562939575,46.620504409002265 7.895666519252747,46.62032701601684 7.895614158691365,46.62044949701564 7.895540425483072,46.62065277846739 7.89559155154638,46.620705966035985 7.895595870173131,46.62080504419427 7.895458883871946,46.62094065072446 7.895340387647731,46.62106659309442 7.895332328875059,46.62108302402302 7.895279907241871,46.62118990556218</coordinates></LineString></Placemark></Document></kml>