<gpx xmlns="http://www.topografix.com/GPX/1/1" xmlns:xsi="http://www.w3.org/2001/XMLSchema-instance" xsi:schemaLocation="http://www.topografix.com/GPX/1/1 http://www.topografix.com/GPX/1/1/gpx.xsd" version="1.1" creator="OpenLayers"><rte><name></name><desc><![CDATA[Vers la plateforme panoramique Bällehöchst
]]></desc><type>linepolygon</type><rtept lat="46.63607805202874" lon="7.833044914173715"/><rtept lat="46.63637057994405" lon="7.831828607313907"/><rtept lat="46.63638787186282" lon="7.831500026148099"/><rtept lat="46.63637548009536" lon="7.831146515031154"/><rtept lat="46.635963133792615" lon="7.831174013013672"/><rtept lat="46.63567596049668" lon="7.831064256878837"/><rtept lat="46.63545861683323" lon="7.830950231086142"/><rtept lat="46.635166138173794" lon="7.8309230017316125"/><rtept lat="46.63500216835503" lon="7.830869913949637"/><rtept lat="46.634607872891486" lon="7.830544632312161"/><rtept lat="46.63439188687843" lon="7.8305119940663745"/><rtept lat="46.63407214210927" lon="7.830496086897521"/><rtept lat="46.63387520724492" lon="7.83036159771517"/><rtept lat="46.63345376788307" lon="7.829895548466159"/><rtept lat="46.633176305463074" lon="7.829697664363429"/><rtept lat="46.6328350832563" lon="7.82951513798649"/><rtept lat="46.63263956357499" lon="7.829444529855332"/><rtept lat="46.63234300243419" lon="7.8293645432737975"/><rtept lat="46.63192041935175" lon="7.829292637136899"/><rtept lat="46.6316736913049" lon="7.829314333634569"/><rtept lat="46.63146783416459" lon="7.829322733177895"/><rtept lat="46.63116169886178" lon="7.829184232723573"/><rtept lat="46.63087530130342" lon="7.829116679309607"/><rtept lat="46.630311726372874" lon="7.829021180225065"/><rtept lat="46.63015095729803" lon="7.828965502491557"/><rtept lat="46.62997657323738" lon="7.828972894494798"/><rtept lat="46.6298148283856" lon="7.829014973826427"/><rtept lat="46.629654966417306" lon="7.829003936428686"/><rtept lat="46.62931436860418" lon="7.828868038376929"/><rtept lat="46.62898442591282" lon="7.8287502398415"/><rtept lat="46.62866906224901" lon="7.8285777538340025"/><rtept lat="46.62827452091068" lon="7.8282981484071845"/><rtept lat="46.628016964392664" lon="7.828175321087146"/><rtept lat="46.62770375046845" lon="7.827990207766947"/><rtept lat="46.627501324497715" lon="7.8278458213707305"/><rtept lat="46.62740194128711" lon="7.827808041027627"/><rtept lat="46.62719708642551" lon="7.8277719736688445"/><rtept lat="46.626917691181085" lon="7.827590586801314"/><rtept lat="46.62654959730048" lon="7.827286477265147"/><rtept lat="46.626173659394745" lon="7.827030068225901"/><rtept lat="46.62611776438029" lon="7.8269540554530606"/><rtept lat="46.62602599207321" lon="7.826679116116278"/><rtept lat="46.62582669787494" lon="7.826508424718051"/><rtept lat="46.62560792242895" lon="7.826348714428941"/><rtept lat="46.625426119000174" lon="7.826286873669877"/><rtept lat="46.62516745870297" lon="7.826245857328092"/><rtept lat="46.624858790715265" lon="7.826223880115769"/><rtept lat="46.62466653367177" lon="7.82618113695904"/><rtept lat="46.62422316603163" lon="7.8262520913189455"/><rtept lat="46.623771735693865" lon="7.826335505399551"/><rtept lat="46.62331639483703" lon="7.826318814256879"/><rtept lat="46.622971872554764" lon="7.826265006388879"/><rtept lat="46.62264524310628" lon="7.826272551618171"/><rtept lat="46.6225850331608" lon="7.826220232789813"/><rtept lat="46.62261314809582" lon="7.826119769138587"/><rtept lat="46.62305152775213" lon="7.8257537700210165"/><rtept lat="46.6231005941929" lon="7.82568007637252"/><rtept lat="46.62308093875604" lon="7.825584749850302"/><rtept lat="46.622999501908275" lon="7.825562112586762"/><rtept lat="46.62236525295349" lon="7.825715447978556"/><rtept lat="46.62209120353525" lon="7.825787779141273"/><rtept lat="46.621839999691026" lon="7.825867237746543"/><rtept lat="46.621572486789624" lon="7.825807286130678"/><rtept lat="46.62127273779332" lon="7.825851573681363"/><rtept lat="46.62063614526059" lon="7.825664810084764"/><rtept lat="46.62053966318896" lon="7.8256800585369986"/><rtept lat="46.62034998083276" lon="7.82576343736168"/><rtept lat="46.62025371832985" lon="7.825870698495476"/><rtept lat="46.62009920836526" lon="7.826186476037867"/><rtept lat="46.61993077486979" lon="7.826366346008144"/><rtept lat="46.61982990246022" lon="7.826419017481721"/><rtept lat="46.619751678024414" lon="7.82639176056448"/><rtept lat="46.619732845951454" lon="7.826289481126495"/><rtept lat="46.61978677055457" lon="7.826177275848837"/><rtept lat="46.61987915989247" lon="7.826034005646214"/><rtept lat="46.619811141219174" lon="7.826032425163274"/><rtept lat="46.619838111749715" lon="7.8258561862554945"/><rtept lat="46.61982311732533" lon="7.825800363691678"/><rtept lat="46.619686993198755" lon="7.825643852212491"/><rtept lat="46.61961715339598" lon="7.825736211639933"/><rtept lat="46.61953202809774" lon="7.825623012199608"/><rtept lat="46.61949383108277" lon="7.825575149418316"/><rtept lat="46.619458267692885" lon="7.825457661872676"/><rtept lat="46.61942951455103" lon="7.825452813511271"/><rtept lat="46.61940687903513" lon="7.825529259738911"/><rtept lat="46.61937800389999" lon="7.8255603930463264"/><rtept lat="46.61935489594593" lon="7.825540495635826"/><rtept lat="46.61934327893145" lon="7.825431304461419"/><rtept lat="46.61929235077766" lon="7.825367100821636"/><rtept lat="46.61926275526588" lon="7.825375014618884"/><rtept lat="46.619200970054145" lon="7.825448859477614"/><rtept lat="46.61917305152184" lon="7.825433570689233"/><rtept lat="46.619174299281504" lon="7.825301257422559"/><rtept lat="46.6191601351879" lon="7.825236155812433"/><rtept lat="46.61913862543945" lon="7.825216269950721"/><rtept lat="46.61902392032853" lon="7.825341969543249"/><rtept lat="46.618986451555706" lon="7.825315005451427"/><rtept lat="46.619012062551576" lon="7.825067955196246"/><rtept lat="46.61898980356458" lon="7.824797349143827"/><rtept lat="46.6189757531142" lon="7.824698587981896"/><rtept lat="46.61895273928488" lon="7.824650834579078"/><rtept lat="46.61892709236838" lon="7.824672705250403"/><rtept lat="46.61882810723038" lon="7.824876285440839"/><rtept lat="46.61867750050505" lon="7.824984318003956"/><rtept lat="46.61865522698837" lon="7.824953980655899"/><rtept lat="46.61866361531172" lon="7.824836808635478"/><rtept lat="46.61868553772594" lon="7.824734822378686"/><rtept lat="46.61869172479916" lon="7.82455959914343"/><rtept lat="46.618673114871825" lon="7.824391163314287"/><rtept lat="46.618644663953376" lon="7.824296943029735"/><rtept lat="46.61859908975867" lon="7.824303582776407"/><rtept lat="46.61852278340291" lon="7.824417949327498"/><rtept lat="46.618446480857905" lon="7.824531155081049"/><rtept lat="46.618370394165815" lon="7.8245805231133705"/><rtept lat="46.61831284473935" lon="7.824583595024159"/><rtept lat="46.61828098538456" lon="7.824552028997001"/><rtept lat="46.61831420143416" lon="7.824418784901397"/><rtept lat="46.61824177067804" lon="7.824332376999844"/><rtept lat="46.618193971713225" lon="7.82428792994814"/><rtept lat="46.61812813793874" lon="7.824141212935423"/><rtept lat="46.61794357718423" lon="7.824128292440289"/><rtept lat="46.61780849600821" lon="7.824135455653305"/><rtept lat="46.6176939843861" lon="7.824204281867524"/><rtept lat="46.617473384047905" lon="7.8242143180515225"/><rtept lat="46.617219938334124" lon="7.824173454290086"/><rtept lat="46.61708024278815" lon="7.824127193438035"/><rtept lat="46.616983034672" lon="7.824041772200469"/><rtept lat="46.61695289114833" lon="7.823975399314894"/><rtept lat="46.61661131562721" lon="7.824075107614512"/><rtept lat="46.616338402830934" lon="7.8241938738112635"/><rtept lat="46.61587363699878" lon="7.824565455150677"/><rtept lat="46.61544155836586" lon="7.824723705155481"/><rtept lat="46.615202851238784" lon="7.824729091438444"/><rtept lat="46.615098219607496" lon="7.82471209660536"/><rtept lat="46.61500461871921" lon="7.824741605819874"/><rtept lat="46.61493005169337" lon="7.824814193929185"/><rtept lat="46.614696692612576" lon="7.824816011820241"/><rtept lat="46.61467181727754" lon="7.8248460106564055"/><rtept lat="46.61463721470532" lon="7.824916561986411"/><rtept lat="46.61463281802301" lon="7.825034914242119"/><rtept lat="46.614654635356494" lon="7.825199878856413"/><rtept lat="46.614679971606726" lon="7.825269697110018"/><rtept lat="46.61469526562607" lon="7.825472915753292"/><rtept lat="46.614680109439256" lon="7.825700290054606"/><rtept lat="46.61464979686018" lon="7.825919431542128"/><rtept lat="46.61458021580595" lon="7.8261707891377075"/><rtept lat="46.614554130716854" lon="7.826321483399225"/><rtept lat="46.61448834131991" lon="7.826397613467159"/><rtept lat="46.614305901896365" lon="7.826465944299949"/><rtept lat="46.61423742679354" lon="7.826626779517169"/><rtept lat="46.61423715039142" lon="7.826708020573929"/><rtept lat="46.614315703767545" lon="7.826873391240464"/><rtept lat="46.61455871662494" lon="7.827087527260402"/><rtept lat="46.61473653226836" lon="7.827203704565623"/><rtept lat="46.614840265524506" lon="7.827249713635597"/><rtept lat="46.6150959558847" lon="7.827402279021742"/><rtept lat="46.61526145169413" lon="7.82761586358412"/><rtept lat="46.61533401852247" lon="7.827661649691207"/><rtept lat="46.61555701063294" lon="7.827705627316653"/><rtept lat="46.61562638092536" lon="7.827751390986738"/><rtept lat="46.615780289120494" lon="7.82784766994772"/><rtept lat="46.6159654851002" lon="7.827908539773356"/><rtept lat="46.616243235200386" lon="7.82801267429234"/><rtept lat="46.61633146817229" lon="7.8280695997865966"/><rtept lat="46.61647431505017" lon="7.828128660162964"/><rtept lat="46.61660908730735" lon="7.828212036799336"/><rtept lat="46.61673260022768" lon="7.828316224968412"/><rtept lat="46.6168147610686" lon="7.828342427199798"/><rtept lat="46.61687856487473" lon="7.828380027894616"/><rtept lat="46.61705018840559" lon="7.828436975564135"/><rtept lat="46.61708123565353" lon="7.828472019302978"/><rtept lat="46.61728314682022" lon="7.828552399162773"/><rtept lat="46.617372827595204" lon="7.828618585127275"/><rtept lat="46.61742446969794" lon="7.828707169026997"/><rtept lat="46.61751050229882" lon="7.828787876138799"/><rtept lat="46.617552622121025" lon="7.828856660159699"/><rtept lat="46.61771621429525" lon="7.828925159196329"/><rtept lat="46.61802858097031" lon="7.829188567423036"/><rtept lat="46.61817911246969" lon="7.829337062020815"/><rtept lat="46.61826481980621" lon="7.829367192574046"/><rtept lat="46.618301432846415" lon="7.829410402733058"/><rtept lat="46.61837720740523" lon="7.829452734921089"/><rtept lat="46.618451487108985" lon="7.829464878102838"/><rtept lat="46.618599764080734" lon="7.829571572806148"/><rtept lat="46.61867406371055" lon="7.829577912691046"/><rtept lat="46.61871551922687" lon="7.829607229790503"/><rtept lat="46.61879828294321" lon="7.829708809595436"/><rtept lat="46.61883329759002" lon="7.8297520089486845"/><rtept lat="46.61887870891189" lon="7.829792961955518"/><rtept lat="46.61890969997762" lon="7.829844257304933"/><rtept lat="46.61899961592169" lon="7.829957496583375"/><rtept lat="46.61904560453231" lon="7.829830149797079"/><rtept lat="46.61909175215983" lon="7.82965637506754"/><rtept lat="46.6191235861992" lon="7.829694908785483"/><rtept lat="46.6191788458282" lon="7.8296604863962775"/><rtept lat="46.619179290769864" lon="7.829763793772505"/><rtept lat="46.61919820727708" lon="7.829840538205438"/><rtept lat="46.619200190557926" lon="7.829961267631364"/><rtept lat="46.619246749981365" lon="7.830133391107215"/><rtept lat="46.619304771863106" lon="7.830200348431764"/><rtept lat="46.61944915608541" lon="7.830276839793335"/><rtept lat="46.619500256789436" lon="7.830289977388562"/><rtept lat="46.61957733433574" lon="7.8304182152499315"/><rtept lat="46.619647878986996" lon="7.830587031793951"/><rtept lat="46.619779201502034" lon="7.8307435208960845"/><rtept lat="46.61988931916943" lon="7.831024055957718"/><rtept lat="46.620018891041894" lon="7.831224642340509"/><rtept lat="46.620113768235285" lon="7.8312891710761106"/><rtept lat="46.62021605968329" lon="7.831303914418751"/><rtept lat="46.620300140563096" lon="7.831254612031702"/><rtept lat="46.62047883085317" lon="7.831347607017766"/><rtept lat="46.620460274939376" lon="7.831398545322353"/><rtept lat="46.620432213320036" lon="7.83142503903303"/><rtept lat="46.62041598280379" lon="7.831496887777757"/><rtept lat="46.620396683613436" lon="7.83153157016167"/><rtept lat="46.62039233607005" lon="7.831633684567464"/><rtept lat="46.62042175206701" lon="7.831678006435777"/><rtept lat="46.620461025613835" lon="7.831644629844446"/><rtept lat="46.62047469886193" lon="7.8316191925966665"/><rtept lat="46.62054590975606" lon="7.831594172725459"/><rtept lat="46.6205842481221" lon="7.8316002548064185"/><rtept lat="46.62065183461802" lon="7.831699409361993"/><rtept lat="46.6207021160494" lon="7.831718346442519"/><rtept lat="46.620842919598566" lon="7.831674098986224"/><rtept lat="46.621024926074426" lon="7.83173229764475"/><rtept lat="46.621104204322904" lon="7.831685281922346"/><rtept lat="46.62115449776889" lon="7.831700736834771"/><rtept lat="46.62116312021276" lon="7.831749551608744"/><rtept lat="46.62115322656233" lon="7.8318376978884965"/><rtept lat="46.62117700048533" lon="7.831895908807906"/><rtept lat="46.62116570055479" lon="7.831928328198078"/><rtept lat="46.621191212799275" lon="7.831945925037337"/><rtept lat="46.62118388050246" lon="7.831986498534704"/><rtept lat="46.62120358261458" lon="7.8320667343979675"/><rtept lat="46.62118433135332" lon="7.832087488460181"/><rtept lat="46.62118411913078" lon="7.832149007453509"/><rtept lat="46.621156672236694" lon="7.83222890065991"/><rtept lat="46.62121792112727" lon="7.832311760392689"/><rtept lat="46.62129142547183" lon="7.832316937928889"/><rtept lat="46.62131770474918" lon="7.832343826601868"/><rtept lat="46.62140701939968" lon="7.832399032200862"/><rtept lat="46.62149858694008" lon="7.832500395637505"/><rtept lat="46.621558916240986" lon="7.8326180726677785"/><rtept lat="46.62163714717981" lon="7.8326430181093425"/><rtept lat="46.62184114389647" lon="7.832812815589496"/><rtept lat="46.62187381613457" lon="7.832839751479696"/><rtept lat="46.62196173349935" lon="7.8330679049490275"/><rtept lat="46.622088550854244" lon="7.833139636559352"/><rtept lat="46.62215924413591" lon="7.833264355738957"/><rtept lat="46.62221696247022" lon="7.833212540947586"/><rtept lat="46.62228418200493" lon="7.833186332697878"/><rtept lat="46.622322387884076" lon="7.833230721184098"/><rtept lat="46.6224000563005" lon="7.833418174703117"/><rtept lat="46.62258076748156" lon="7.833850147354518"/><rtept lat="46.622677984225895" lon="7.833930952037775"/><rtept lat="46.62272242594639" lon="7.83402065800195"/><rtept lat="46.62279514127182" lon="7.8342533491057385"/><rtept lat="46.62295409406598" lon="7.834506404775391"/><rtept lat="46.623008984438336" lon="7.8345787760378816"/><rtept lat="46.62304547956113" lon="7.834885495557369"/><rtept lat="46.623090965670066" lon="7.834904401431281"/><rtept lat="46.62317530609531" lon="7.834780812214061"/><rtept lat="46.62322081639733" lon="7.834792753152864"/><rtept lat="46.62326243181736" lon="7.834775645585402"/><rtept lat="46.62325645888156" lon="7.834884718029151"/><rtept lat="46.623292323115095" lon="7.834912840010044"/><rtept lat="46.62333482235806" lon="7.834871361664725"/><rtept lat="46.623386721702374" lon="7.8348845103201885"/><rtept lat="46.62337759244725" lon="7.834981951894086"/><rtept lat="46.62337821008969" lon="7.8350341929936"/><rtept lat="46.623428216607266" lon="7.8351320674107825"/><rtept lat="46.623437669005455" lon="7.835171604239284"/><rtept lat="46.62348221867899" lon="7.835229971275937"/><rtept lat="46.623481964390635" lon="7.835303100924124"/><rtept lat="46.62346018997534" lon="7.835359821144258"/><rtept lat="46.623467200501416" lon="7.835412109176611"/><rtept lat="46.62353187376911" lon="7.835428834550276"/><rtept lat="46.62358345352132" lon="7.835488836483162"/><rtept lat="46.62362667877716" lon="7.835698100504897"/><rtept lat="46.62354516714598" lon="7.835697502751339"/><rtept lat="46.62351151870123" lon="7.835721633153668"/><rtept lat="46.62349541480397" lon="7.835756339540532"/><rtept lat="46.62349194743345" lon="7.83583408864075"/><rtept lat="46.623474729051296" lon="7.835959330348321"/><rtept lat="46.62347669370509" lon="7.8360835520990495"/><rtept lat="46.62342654871874" lon="7.836254984462182"/><rtept lat="46.62343593195646" lon="7.836314254946121"/><rtept lat="46.62341351167841" lon="7.8363268591371975"/><rtept lat="46.62339361022977" lon="7.836304657473835"/><rtept lat="46.62338072285719" lon="7.8363335832354295"/><rtept lat="46.62342657075031" lon="7.836477860857565"/><rtept lat="46.62349357769745" lon="7.836741858388383"/><rtept lat="46.62353139715561" lon="7.836896525036681"/><rtept lat="46.623553440534025" lon="7.836991874187675"/><rtept lat="46.62366000133418" lon="7.8373710852777485"/><rtept lat="46.62380119570061" lon="7.837672777945088"/><rtept lat="46.62391187315258" lon="7.83778851534128"/><rtept lat="46.62394460915586" lon="7.837796882380395"/><rtept lat="46.62401105910212" lon="7.837762547441033"/><rtept lat="46.62408292828341" lon="7.837778168063816"/><rtept lat="46.62415211444749" lon="7.837828593786058"/><rtept lat="46.62415498593495" lon="7.837921481302652"/><rtept lat="46.624214510487704" lon="7.838039164199789"/><rtept lat="46.624267212629654" lon="7.838051161329797"/><rtept lat="46.62432605986244" lon="7.838134014586928"/><rtept lat="46.62439002513633" lon="7.83835272355304"/><rtept lat="46.62450131789276" lon="7.838520705749642"/><rtept lat="46.62459058071078" lon="7.838589854551537"/><rtept lat="46.62477650928349" lon="7.838819053224148"/><rtept lat="46.62490011425907" lon="7.838894260917674"/><rtept lat="46.625012014408505" lon="7.839000717640801"/><rtept lat="46.625051714342256" lon="7.839074144704512"/><rtept lat="46.6251146869306" lon="7.83911988364931"/><rtept lat="46.62514414071999" lon="7.83915260530353"/><rtept lat="46.625181316795334" lon="7.839262000377329"/><rtept lat="46.62520427964144" lon="7.8393225346268816"/><rtept lat="46.62533978027456" lon="7.839500451045919"/><rtept lat="46.62542009694928" lon="7.839613648856122"/><rtept lat="46.625470307675926" lon="7.839652329094531"/><rtept lat="46.62551630236523" lon="7.839753664409548"/><rtept lat="46.62555928409615" lon="7.839802739025435"/><rtept lat="46.62561176964683" lon="7.839876262180427"/><rtept lat="46.625650013703" lon="7.839909049779463"/><rtept lat="46.62571918294174" lon="7.840010557456071"/><rtept lat="46.62577271521996" lon="7.84003259156114"/><rtept lat="46.62585311308222" lon="7.840122574276524"/><rtept lat="46.62589212757972" lon="7.8401634939107465"/><rtept lat="46.625940919652415" lon="7.840151086227176"/><rtept lat="46.62618428506828" lon="7.840030999367012"/><rtept lat="46.626307499098985" lon="7.839998233406472"/><rtept lat="46.6264571534278" lon="7.839937816275329"/><rtept lat="46.62655461091787" lon="7.839948986508786"/><rtept lat="46.62659770284036" lon="7.8399667192156475"/><rtept lat="46.626683357105684" lon="7.839925562400721"/><rtept lat="46.62671450289363" lon="7.839931597697197"/><rtept lat="46.62673277266924" lon="7.839963076939665"/><rtept lat="46.62672301970368" lon="7.840009440030179"/><rtept lat="46.62659435344235" lon="7.840237180020361"/><rtept lat="46.62654117742205" lon="7.840359838990498"/><rtept lat="46.62650928743482" lon="7.840565078116712"/><rtept lat="46.626512714437546" lon="7.840726466029594"/><rtept lat="46.62658774645652" lon="7.840874838875692"/><rtept lat="46.626715755825174" lon="7.84106037071037"/><rtept lat="46.62684705978312" lon="7.841218066564865"/><rtept lat="46.62695517634768" lon="7.8413790734751245"/><rtept lat="46.62699908357174" lon="7.8413921698150535"/><rtept lat="46.627074660959735" lon="7.841489086146269"/><rtept lat="46.62709437277846" lon="7.841564690872738"/><rtept lat="46.62714025905864" lon="7.84169621344223"/><rtept lat="46.62722578653935" lon="7.841794079216145"/><rtept lat="46.62732380087287" lon="7.841873750195173"/><rtept lat="46.627446358372154" lon="7.842018614739432"/><rtept lat="46.627497784656484" lon="7.842165271554497"/><rtept lat="46.62768583626104" lon="7.842369224837236"/><rtept lat="46.62774085726488" lon="7.842403301451846"/><rtept lat="46.62783874374799" lon="7.842518961515715"/><rtept lat="46.627965440008836" lon="7.842623227913284"/><rtept lat="46.6280035228747" lon="7.842701293236649"/><rtept lat="46.62803595011018" lon="7.842796730207151"/><rtept lat="46.62807728287633" lon="7.842859728152143"/><rtept lat="46.62813489226953" lon="7.842873638014506"/><rtept lat="46.62819822533494" lon="7.842817225994999"/><rtept lat="46.62827024599079" lon="7.842789901587791"/><rtept lat="46.628353026725065" lon="7.842883393244736"/><rtept lat="46.62850662976565" lon="7.84306216145033"/><rtept lat="46.628604704936286" lon="7.8431244232206545"/><rtept lat="46.628700197456745" lon="7.843238907591696"/><rtept lat="46.628818819342435" lon="7.843366335504739"/><rtept lat="46.628881415245885" lon="7.8435177245870085"/><rtept lat="46.628923497306126" lon="7.843594660896349"/><rtept lat="46.62902238366402" lon="7.843653447354159"/><rtept lat="46.62911344770514" lon="7.843664577071624"/><rtept lat="46.62920419430863" lon="7.843765096751269"/><rtept lat="46.62927761968545" lon="7.843792347794445"/><rtept lat="46.62930962212395" lon="7.84378213891142"/><rtept lat="46.62938200505504" lon="7.843877877937332"/><rtept lat="46.629453654776334" lon="7.843955036536351"/><rtept lat="46.629502339986054" lon="7.8439728152748005"/><rtept lat="46.62955487232279" lon="7.844032416838069"/><rtept lat="46.62959788110601" lon="7.844073372105424"/><rtept lat="46.629675178267" lon="7.844135481258585"/><rtept lat="46.629809963420975" lon="7.8442119526334"/><rtept lat="46.629908638901654" lon="7.84432994831121"/><rtept lat="46.62992436556959" lon="7.844402045295896"/><rtept lat="46.62999199860546" lon="7.844484980131435"/><rtept lat="46.630057337474675" lon="7.844538874035332"/><rtept lat="46.62998596809994" lon="7.844685772770214"/><rtept lat="46.629945875096176" lon="7.844723783527471"/><rtept lat="46.62992504389101" lon="7.8447387196539"/><rtept lat="46.62988719949178" lon="7.844818541604198"/><rtept lat="46.62984309424535" lon="7.844861165879219"/><rtept lat="46.62980368452578" lon="7.8449316882170645"/><rtept lat="46.62976579446989" lon="7.845024279962106"/><rtept lat="46.62975273121433" lon="7.845101965571805"/><rtept lat="46.62974633452199" lon="7.845327142116585"/><rtept lat="46.62960064406958" lon="7.845619767187366"/><rtept lat="46.629540444001094" lon="7.845693615197367"/><rtept lat="46.62939459581256" lon="7.845806290909961"/><rtept lat="46.62937631939771" lon="7.845777129874123"/><rtept lat="46.62927661423932" lon="7.845724137936633"/><rtept lat="46.62920057650685" lon="7.845757233368286"/><rtept lat="46.629056778214704" lon="7.84574338167168"/><rtept lat="46.6289162344795" lon="7.845713301606518"/><rtept lat="46.62888347003006" lon="7.845713055234031"/><rtept lat="46.6288226696756" lon="7.845731173025617"/><rtept lat="46.62868453568364" lon="7.84569762827296"/><rtept lat="46.628511683801335" lon="7.845763371905417"/><rtept lat="46.62845345524975" lon="7.845955853112352"/><rtept lat="46.62860714469068" lon="7.846109090798524"/><rtept lat="46.62868981485444" lon="7.84623277148261"/><rtept lat="46.62880224776974" lon="7.846302112747765"/><rtept lat="46.62899908165208" lon="7.846457999609707"/><rtept lat="46.629061814617764" lon="7.8465699219355285"/><rtept lat="46.6291323560831" lon="7.8467329847487015"/><rtept lat="46.62926752526581" lon="7.846887657652302"/><rtept lat="46.62930678787842" lon="7.8470818310188974"/><rtept lat="46.62931050084748" lon="7.847160803057246"/><rtept lat="46.629371551683406" lon="7.8472959330753"/><rtept lat="46.629531515871726" lon="7.847481730943766"/><rtept lat="46.6296311993597" lon="7.847540531375693"/><rtept lat="46.629763101984125" lon="7.847528757244393"/><rtept lat="46.62983004601639" lon="7.847580344842699"/><rtept lat="46.62984969549209" lon="7.847672208487442"/><rtept lat="46.62981710146662" lon="7.84784726608277"/><rtept lat="46.629773419310645" lon="7.84799437657257"/><rtept lat="46.62975672825228" lon="7.848191612300491"/><rtept lat="46.62978567913281" lon="7.848363652144688"/><rtept lat="46.629771140454494" lon="7.848406497338322"/><rtept lat="46.62975481997558" lon="7.848500410825748"/><rtept lat="46.6297540063465" lon="7.848726790148705"/><rtept lat="46.629774864885356" lon="7.848926631675746"/><rtept lat="46.629783438185484" lon="7.8489870662247325"/><rtept lat="46.62989454391129" lon="7.849202684939463"/><rtept lat="46.62996980951999" lon="7.849384364796485"/><rtept lat="46.63001206735977" lon="7.849411387451443"/><rtept lat="46.63005076075465" lon="7.849540547356857"/><rtept lat="46.63006092362244" lon="7.849603316208558"/><rtept lat="46.630064672491365" lon="7.849671841189694"/><rtept lat="46.630128473228766" lon="7.849930058592498"/><rtept lat="46.630131460464206" lon="7.849988129263553"/><rtept lat="46.63015118337434" lon="7.850059097597572"/><rtept lat="46.63014532563181" lon="7.8501321935232244"/><rtept lat="46.63010413428546" lon="7.850252620116662"/><rtept lat="46.63012790298868" lon="7.850309687904786"/><rtept lat="46.63011438766928" lon="7.850511591903455"/><rtept lat="46.630098187039486" lon="7.850571838410345"/><rtept lat="46.63015713220622" lon="7.8508462736935964"/><rtept lat="46.63017506748657" lon="7.850969471811721"/><rtept lat="46.63030785735105" lon="7.851091918058893"/><rtept lat="46.63040553725249" lon="7.851153011255491"/><rtept lat="46.63046734887363" lon="7.851297442217219"/><rtept lat="46.63041203655229" lon="7.851344619999919"/><rtept lat="46.630384681224356" lon="7.851395494173414"/><rtept lat="46.6303533428333" lon="7.851442854604015"/><rtept lat="46.63026457191578" lon="7.851460752979277"/><rtept lat="46.63011004528065" lon="7.851540841749476"/><rtept lat="46.6299781758502" lon="7.851543318722602"/><rtept lat="46.629706706135494" lon="7.8514762349508995"/><rtept lat="46.62960303322214" lon="7.8514162359133"/><rtept lat="46.62947445271019" lon="7.85139319731147"/><rtept lat="46.629338848065686" lon="7.851323667833567"/><rtept lat="46.62915426530988" lon="7.851317616866657"/><rtept lat="46.62887632261143" lon="7.851272543345914"/><rtept lat="46.628814070097654" lon="7.851250011267135"/><rtept lat="46.62865660323038" lon="7.851259259404663"/><rtept lat="46.62855507979636" lon="7.851267772866204"/><rtept lat="46.62842752096314" lon="7.851183214148357"/><rtept lat="46.62835495943504" lon="7.851138546107402"/><rtept lat="46.62831607482001" lon="7.851062790006706"/><rtept lat="46.62818003406886" lon="7.851014333926339"/><rtept lat="46.628022630180915" lon="7.851006169440079"/><rtept lat="46.627930857302005" lon="7.850951743348601"/><rtept lat="46.627870148415816" lon="7.850944315451426"/><rtept lat="46.62772790281371" lon="7.850943232081021"/><rtept lat="46.62761027515791" lon="7.85098528981123"/><rtept lat="46.62752639981735" lon="7.850975363748532"/><rtept lat="46.62745041510624" lon="7.850993359348016"/><rtept lat="46.62737710889163" lon="7.850933595096219"/><rtept lat="46.62738815830683" lon="7.850971988929842"/><rtept lat="46.62740129866397" lon="7.851095144481948"/><rtept lat="46.6274845567519" lon="7.851275718755814"/><rtept lat="46.6274866895683" lon="7.8513488718639985"/><rtept lat="46.62753035199463" lon="7.851429306955939"/><rtept lat="46.62757026661419" lon="7.851441220388529"/><rtept lat="46.62761567008494" lon="7.851482198253288"/><rtept lat="46.62763294844394" lon="7.851565915380284"/><rtept lat="46.6276693344408" lon="7.851669513551333"/><rtept lat="46.62766644513341" lon="7.851805317543806"/><rtept lat="46.62760976980311" lon="7.852008043364292"/><rtept lat="46.62768274717512" lon="7.852158357518965"/><rtept lat="46.627935369024755" lon="7.852509953268316"/><rtept lat="46.6280621303963" lon="7.852813921170435"/><rtept lat="46.62810876061373" lon="7.852957070640059"/><rtept lat="46.62817809723975" lon="7.853229255981451"/><rtept lat="46.6283128437981" lon="7.853534449108429"/><rtept lat="46.628431609637694" lon="7.853750593479609"/><rtept lat="46.628531573458844" lon="7.85395103909456"/><rtept lat="46.62859349990007" lon="7.854062963340513"/><rtept lat="46.62874583786288" lon="7.854364813034005"/><rtept lat="46.62887968581811" lon="7.8544772905259395"/><rtept lat="46.62898140407586" lon="7.854601749452678"/><rtept lat="46.62918613159326" lon="7.855000363810377"/><rtept lat="46.62923017515009" lon="7.855194579438668"/><rtept lat="46.629391007740125" lon="7.855576606645279"/><rtept lat="46.62952827473479" lon="7.855782746391152"/><rtept lat="46.62965028293332" lon="7.855854504506247"/><rtept lat="46.62979059036926" lon="7.8559484621385645"/><rtept lat="46.62989615228116" lon="7.855928378669958"/><rtept lat="46.62999141037821" lon="7.855884996653316"/><rtept lat="46.63011650617004" lon="7.8558789950841605"/><rtept lat="46.630202974463025" lon="7.856053805720213"/><rtept lat="46.63021476173873" lon="7.856108461870958"/><rtept lat="46.630262373966026" lon="7.856200545026613"/><rtept lat="46.63040582149227" lon="7.85674614452443"/><rtept lat="46.63047300707281" lon="7.856948671675511"/><rtept lat="46.63048068756165" lon="7.857033481589896"/><rtept lat="46.630580530543156" lon="7.857265286248571"/><rtept lat="46.63065187708868" lon="7.857422569169838"/><rtept lat="46.6307841706559" lon="7.857522275421097"/><rtept lat="46.63087811857977" lon="7.857618202481216"/><rtept lat="46.63092626088097" lon="7.857688229825261"/><rtept lat="46.63099550398341" lon="7.857890682190444"/><rtept lat="46.631021833756584" lon="7.857968215826527"/><rtept lat="46.63104831086329" lon="7.858005653830955"/><rtept lat="46.630922475927306" lon="7.857645239623957"/><rtept lat="46.630603142061574" lon="7.857364955879214"/><rtept lat="46.63050082541967" lon="7.85704196033504"/><rtept lat="46.630488310613345" lon="7.856960238679661"/><rtept lat="46.630276249786895" lon="7.856188177548722"/><rtept lat="46.630192789863266" lon="7.856098749180328"/><rtept lat="46.630107761879195" lon="7.85589904447614"/><rtept lat="46.6297912720952" lon="7.855918084751945"/><rtept lat="46.62949218874783" lon="7.855759692314296"/><rtept lat="46.6293207791793" lon="7.855460518421163"/><rtept lat="46.629208448401954" lon="7.855178984648525"/><rtept lat="46.62917652144142" lon="7.855014060993778"/><rtept lat="46.62894957232425" lon="7.8545368989761535"/><rtept lat="46.62871760893606" lon="7.8543532566832495"/><rtept lat="46.628576955928395" lon="7.853998480775644"/><rtept lat="46.62842915175095" lon="7.853712386130122"/><rtept lat="46.628241266258655" lon="7.853334340626514"/><rtept lat="46.62810926287456" lon="7.853039778857193"/><rtept lat="46.62794568165851" lon="7.852482930285043"/><rtept lat="46.62758856736609" lon="7.852016251709856"/><rtept lat="46.62747593231258" lon="7.85208842047955"/><rtept lat="46.62738815781142" lon="7.852100637528599"/><rtept lat="46.62731899753658" lon="7.852144499209637"/><rtept lat="46.627215477796646" lon="7.852149436286991"/><rtept lat="46.62715045238571" lon="7.852140347959375"/><rtept lat="46.626959168483246" lon="7.852154638033897"/><rtept lat="46.62686565629134" lon="7.852118125711314"/><rtept lat="46.62676398852623" lon="7.8521560108848645"/><rtept lat="46.626661490753236" lon="7.852150932277026"/><rtept lat="46.626566940888836" lon="7.852128731704265"/><rtept lat="46.62649195462469" lon="7.852148205639091"/><rtept lat="46.626367600038805" lon="7.8521902129450725"/><rtept lat="46.626264038687864" lon="7.852206604725233"/><rtept lat="46.62615643587656" lon="7.852250171749333"/><rtept lat="46.626101283092574" lon="7.852236863269056"/><rtept lat="46.626072547069526" lon="7.852278168910508"/><rtept lat="46.6260312669033" lon="7.852244919810992"/><rtept lat="46.62597204150385" lon="7.85226737769234"/><rtept lat="46.62589586173304" lon="7.852344117982398"/><rtept lat="46.625522310613434" lon="7.852332671805244"/><rtept lat="46.625419844066876" lon="7.852319001660201"/><rtept lat="46.625301367276506" lon="7.852371075824736"/><rtept lat="46.625131192131974" lon="7.852544464059887"/><rtept lat="46.625037347513505" lon="7.852599589632161"/><rtept lat="46.62496325852624" lon="7.8526434111740055"/><rtept lat="46.624901910902814" lon="7.852707376129449"/><rtept lat="46.624781411040665" lon="7.852886645309399"/><rtept lat="46.624715203243476" lon="7.853073034307601"/><rtept lat="46.62457940022251" lon="7.8534980231084"/><rtept lat="46.62453430253017" lon="7.8535928662077845"/><rtept lat="46.624430834255875" lon="7.853696548469326"/><rtept lat="46.6243847725141" lon="7.8538366564582445"/><rtept lat="46.624117807557816" lon="7.8542095975564035"/><rtept lat="46.624019945425495" lon="7.854309838454443"/><rtept lat="46.62388996977803" lon="7.854450461135957"/><rtept lat="46.62364395758769" lon="7.8548536978472345"/><rtept lat="46.623545054081724" lon="7.855020095346742"/><rtept lat="46.623407686101636" lon="7.855215216673269"/><rtept lat="46.62330249242245" lon="7.855571937498783"/><rtept lat="46.6232693173314" lon="7.855902513434823"/><rtept lat="46.623269759686906" lon="7.856000025010728"/><rtept lat="46.623235069898215" lon="7.8560891400771045"/><rtept lat="46.62324129300247" lon="7.856135620506169"/><rtept lat="46.62327930287511" lon="7.856231100275199"/><rtept lat="46.623282873446364" lon="7.856347209017054"/><rtept lat="46.62325377303884" lon="7.856437527866081"/><rtept lat="46.623166871265454" lon="7.856599370796535"/><rtept lat="46.623111599244005" lon="7.856634929217858"/><rtept lat="46.623106557699955" lon="7.856702217099125"/><rtept lat="46.62312705851945" lon="7.856777827994339"/><rtept lat="46.62310750906619" lon="7.856878667415212"/><rtept lat="46.622944467691994" lon="7.857100282488453"/><rtept lat="46.62296169931205" lon="7.857195601616443"/><rtept lat="46.622922957498886" lon="7.857299774524778"/><rtept lat="46.6228063928618" lon="7.857486923083373"/><rtept lat="46.622786077735014" lon="7.857578469189763"/><rtept lat="46.62277040937968" lon="7.857927749271912"/><rtept lat="46.62274363254017" lon="7.858037818003326"/><rtept lat="46.62269308224216" lon="7.85809314474253"/><rtept lat="46.62265178855848" lon="7.858239085484548"/><rtept lat="46.6226684979986" lon="7.85847601812421"/><rtept lat="46.62269803374366" lon="7.858645421198812"/><rtept lat="46.62276508767261" lon="7.858882744811029"/><rtept lat="46.62276713431633" lon="7.85897794646255"/><rtept lat="46.622793116298716" lon="7.859083781382256"/><rtept lat="46.62291353278093" lon="7.8591532038990595"/><rtept lat="46.622940159618615" lon="7.859300832874046"/><rtept lat="46.622915718922684" lon="7.8594271706434995"/><rtept lat="46.62287691508478" lon="7.859547592669882"/><rtept lat="46.62288208912801" lon="7.85966139174291"/><rtept lat="46.622917685797646" lon="7.859760336971017"/><rtept lat="46.62297222941813" lon="7.859799622284321"/><rtept lat="46.62306890298575" lon="7.859806178412741"/><rtept lat="46.62308553042679" lon="7.859848096873219"/><rtept lat="46.62308335330748" lon="7.860004789075063"/><rtept lat="46.62310469398307" lon="7.860068799621724"/><rtept lat="46.62316045737145" lon="7.860116826943115"/><rtept lat="46.62322191330322" lon="7.860138200006515"/><rtept lat="46.62328640792765" lon="7.860418458050966"/><rtept lat="46.62329960246997" lon="7.860524194800705"/><rtept lat="46.623273600773565" lon="7.86064007346592"/><rtept lat="46.6231994834826" lon="7.860800848429815"/><rtept lat="46.623110216829296" lon="7.860952218336683"/><rtept lat="46.623032159321895" lon="7.861097871161782"/><rtept lat="46.62301575524676" lon="7.8612115022920745"/><rtept lat="46.62297944588307" lon="7.86130524418769"/><rtept lat="46.6230021818236" lon="7.861423824017224"/><rtept lat="46.623075280237046" lon="7.861538154070729"/><rtept lat="46.623143471787415" lon="7.861682627114828"/><rtept lat="46.62319428464529" lon="7.861772406807083"/><rtept lat="46.623299214423035" lon="7.861922971797021"/><rtept lat="46.6233810769168" lon="7.862044336565593"/><rtept lat="46.62345094798652" lon="7.862166768742013"/><rtept lat="46.62347865894795" lon="7.8622366345359325"/><rtept lat="46.62356335531636" lon="7.862455531265342"/><rtept lat="46.62356787401249" lon="7.86252985909669"/><rtept lat="46.62359717437167" lon="7.86260205930762"/><rtept lat="46.62357653571491" lon="7.86277950302555"/><rtept lat="46.623548073894035" lon="7.862911613416825"/><rtept lat="46.6235109942095" lon="7.862997223331962"/><rtept lat="46.623451573088374" lon="7.863288122481996"/><rtept lat="46.62339650146031" lon="7.863483868315111"/><rtept lat="46.62333826764336" lon="7.863670302366193"/><rtept lat="46.623273558200935" lon="7.86387874063379"/><rtept lat="46.62321240429345" lon="7.863990859077174"/><rtept lat="46.62311666855705" lon="7.864213757815529"/><rtept lat="46.623098044573524" lon="7.864319526586456"/><rtept lat="46.623088320658304" lon="7.864482735750864"/><rtept lat="46.622990705380474" lon="7.8645878828621525"/><rtept lat="46.62291836568008" lon="7.864675283013229"/><rtept lat="46.62287252893193" lon="7.8647515354017274"/><rtept lat="46.62272249158408" lon="7.86469695755699"/><rtept lat="46.6226169324585" lon="7.864715860422438"/><rtept lat="46.622553905117336" lon="7.864687505178751"/><rtept lat="46.62250260456803" lon="7.8647288901179735"/><rtept lat="46.62238498468799" lon="7.864767431294065"/><rtept lat="46.62224645725134" lon="7.864840631628988"/><rtept lat="46.62210689628769" lon="7.8649765058363945"/><rtept lat="46.62195325030926" lon="7.865032174356209"/><rtept lat="46.621910939736296" lon="7.865020233238359"/><rtept lat="46.621894926723485" lon="7.865028232532938"/><rtept lat="46.62181122181521" lon="7.864973016542558"/><rtept lat="46.62180099365838" lon="7.86492998713139"/><rtept lat="46.62165480888463" lon="7.864913745857531"/><rtept lat="46.621611262618366" lon="7.864894632000674"/><rtept lat="46.621571227936364" lon="7.864915210758556"/><rtept lat="46.621393303505826" lon="7.864838359586409"/><rtept lat="46.621324226196734" lon="7.864821102847451"/><rtept lat="46.62119340710546" lon="7.864756230729344"/><rtept lat="46.621082310384246" lon="7.86475999933791"/><rtept lat="46.62092301053589" lon="7.864739012483542"/><rtept lat="46.62086384009911" lon="7.864747832909968"/><rtept lat="46.62076915602299" lon="7.864708645071302"/><rtept lat="46.620695239996515" lon="7.864600112875754"/><rtept lat="46.6205836389527" lon="7.8645249464375135"/><rtept lat="46.62053012310087" lon="7.864517560953015"/><rtept lat="46.62048716936348" lon="7.8644638283849275"/><rtept lat="46.620379821223345" lon="7.864533789927411"/><rtept lat="46.62031602069018" lon="7.864498465598771"/><rtept lat="46.62027185171429" lon="7.864556155441343"/><rtept lat="46.62015401334696" lon="7.864554379401381"/><rtept lat="46.62009258856006" lon="7.864524877625112"/><rtept lat="46.61992306247984" lon="7.864338986191226"/><rtept lat="46.61985840637648" lon="7.864318745260796"/><rtept lat="46.61980316667547" lon="7.864345007928366"/><rtept lat="46.61972297303411" lon="7.864397542034248"/><rtept lat="46.61964302948537" lon="7.864405038423195"/><rtept lat="46.619579228908734" lon="7.864369714728354"/><rtept lat="46.619493461777346" lon="7.864438684166362"/><rtept lat="46.61944661628176" lon="7.8643570645789245"/><rtept lat="46.61941475932902" lon="7.864327795819255"/><rtept lat="46.61939555417763" lon="7.864334609243925"/><rtept lat="46.619372002349415" lon="7.864435407459778"/><rtept lat="46.61931688391557" lon="7.8644291703095455"/><rtept lat="46.619283980795636" lon="7.864466054905357"/><rtept lat="46.61925178577893" lon="7.86452732014964"/><rtept lat="46.619179772848355" lon="7.864551128834907"/><rtept lat="46.61914200554578" lon="7.8646065465091874"/><rtept lat="46.61907013133875" lon="7.864593213071202"/><rtept lat="46.61901391894831" lon="7.864665896259842"/><rtept lat="46.6187777719354" lon="7.864829867838275"/><rtept lat="46.61854547484449" lon="7.8648901304219105"/><rtept lat="46.61842400504363" lon="7.864982310494002"/><rtept lat="46.61834845908542" lon="7.865042328177192"/><rtept lat="46.61818489814274" lon="7.8649582523669315"/><rtept lat="46.61804162182139" lon="7.8648935552473125"/><rtept lat="46.61795716965156" lon="7.864885498606649"/><rtept lat="46.61782773406513" lon="7.8649303081249595"/><rtept lat="46.61776678032623" lon="7.864898783135646"/><rtept lat="46.61758606478304" lon="7.864660625287716"/><rtept lat="46.61749480805042" lon="7.864566772312439"/><rtept lat="46.61739729524882" lon="7.86451278533748"/><rtept lat="46.6172140970218" lon="7.864508387785749"/><rtept lat="46.61706895044545" lon="7.864399328675749"/><rtept lat="46.61692542550849" lon="7.864401156653758"/><rtept lat="46.61678095440891" lon="7.864383759144315"/><rtept lat="46.61663128945441" lon="7.864394408687599"/><rtept lat="46.61638341598537" lon="7.864537333011163"/><rtept lat="46.616316167469535" lon="7.864556021993967"/><rtept lat="46.61618390487385" lon="7.86454019864214"/><rtept lat="46.616118631331396" lon="7.8645751641104535"/><rtept lat="46.616068719065545" lon="7.864585119518047"/><rtept lat="46.61599515369227" lon="7.864659933573725"/><rtept lat="46.61586292007863" lon="7.864908723656077"/><rtept lat="46.61579290097277" lon="7.864985088439574"/><rtept lat="46.61575989018413" lon="7.865010480146923"/><rtept lat="46.61572789145118" lon="7.864979912623687"/><rtept lat="46.615650896560226" lon="7.864959484658057"/><rtept lat="46.61562187362852" lon="7.864991903638741"/><rtept lat="46.61562962697548" lon="7.8650654212494855"/><rtept lat="46.61564874594995" lon="7.865105215115805"/><rtept lat="46.61564527748449" lon="7.86517398047763"/><rtept lat="46.615594500327205" lon="7.865227215466882"/><rtept lat="46.6155407561988" lon="7.865215132223862"/><rtept lat="46.61549407592553" lon="7.865246245784237"/><rtept lat="46.61545846465832" lon="7.8653229195519145"/><rtept lat="46.61542656195984" lon="7.865481240639906"/><rtept lat="46.61540530059276" lon="7.865584844636386"/><rtept lat="46.61537909358424" lon="7.865745586117309"/><rtept lat="46.61536395260563" lon="7.8659474185984"/><rtept lat="46.61536364812672" lon="7.8660286612190955"/><rtept lat="46.61538326969205" lon="7.866123988907679"/><rtept lat="46.61541619352135" lon="7.866294863582374"/><rtept lat="46.61539742599" lon="7.866398012609898"/><rtept lat="46.61549564478026" lon="7.866844476690963"/><rtept lat="46.61555704858753" lon="7.867092180250511"/><rtept lat="46.61562317158102" lon="7.867147254069671"/><rtept lat="46.61572261381674" lon="7.867267588041928"/><rtept lat="46.615772920410954" lon="7.8674908314286"/><rtept lat="46.61580100809612" lon="7.867672115816713"/><rtept lat="46.61575795957564" lon="7.867856318205182"/><rtept lat="46.615783762922625" lon="7.868007407697514"/><rtept lat="46.61581906822143" lon="7.868181785608689"/><rtept lat="46.61584608571976" lon="7.868222622795826"/><rtept lat="46.61583531218842" lon="7.86832467482179"/><rtept lat="46.615869206814835" lon="7.868449133853728"/><rtept lat="46.61592246429884" lon="7.8685249991460635"/><rtept lat="46.615956266816276" lon="7.86867383173699"/><rtept lat="46.61595767465105" lon="7.86893615106467"/><rtept lat="46.61593825190682" lon="7.8692122327314245"/><rtept lat="46.61592184846023" lon="7.869323525164902"/><rtept lat="46.615939623444476" lon="7.869483837156257"/><rtept lat="46.61602507873001" lon="7.8697096846138175"/><rtept lat="46.61603862043075" lon="7.869932638851293"/><rtept lat="46.61610929070462" lon="7.870263989723283"/><rtept lat="46.61619992078804" lon="7.8706001434234905"/><rtept lat="46.616291938468486" lon="7.870780780477558"/><rtept lat="46.61650286810558" lon="7.871004151645755"/><rtept lat="46.61656792597905" lon="7.871128862860144"/><rtept lat="46.61675719195423" lon="7.871585358859607"/><rtept lat="46.61684891585303" lon="7.871632519352642"/><rtept lat="46.61691570353133" lon="7.871722425633408"/><rtept lat="46.617157149019704" lon="7.872116667519495"/><rtept lat="46.617273871149926" lon="7.872314918581628"/><rtept lat="46.61745924714074" lon="7.8727423762422095"/><rtept lat="46.61747405062774" lon="7.872842314049808"/><rtept lat="46.61752379916298" lon="7.872999406354474"/><rtept lat="46.61754067696932" lon="7.873184091436422"/><rtept lat="46.61755560393819" lon="7.873251531372655"/><rtept lat="46.61760572361356" lon="7.873311128975701"/><rtept lat="46.61761349369389" lon="7.873369225978259"/><rtept lat="46.617676879877244" lon="7.873512500221488"/><rtept lat="46.61770158212543" lon="7.873531269834742"/><rtept lat="46.61773566144195" lon="7.873605827924271"/><rtept lat="46.617761038853395" lon="7.87365710252651"/><rtept lat="46.61776490166788" lon="7.873691954370633"/><rtept lat="46.61772319181267" lon="7.873732243463774"/><rtept lat="46.61772305451765" lon="7.873768223868913"/><rtept lat="46.6177613287065" lon="7.8737905847344"/><rtept lat="46.617793041476546" lon="7.873856999245943"/><rtept lat="46.617767185733456" lon="7.873931075931347"/><rtept lat="46.6178202666898" lon="7.874052215173118"/><rtept lat="46.617934125931264" lon="7.874162236419831"/><rtept lat="46.61795699926881" lon="7.874241348007936"/><rtept lat="46.618045368678736" lon="7.874388665839109"/><rtept lat="46.61813989751967" lon="7.8745379966340465"/><rtept lat="46.61821518486811" lon="7.874703423022728"/><rtept lat="46.61836607223138" lon="7.874886812217102"/><rtept lat="46.618308352682526" lon="7.874933935956289"/><rtept lat="46.618267530370396" lon="7.874951017458014"/><rtept lat="46.618207675387225" lon="7.8749296423831385"/><rtept lat="46.61820390592455" lon="7.875079343034868"/><rtept lat="46.61815905232311" lon="7.875105677648818"/><rtept lat="46.618133071401765" lon="7.875212252804786"/><rtept lat="46.618160715455794" lon="7.875506134018142"/><rtept lat="46.618190855651214" lon="7.875565573063312"/><rtept lat="46.61822638067346" lon="7.875679608942696"/><rtept lat="46.61826742383457" lon="7.875813421502216"/><rtept lat="46.6182568971825" lon="7.875849318366541"/><rtept lat="46.61823447254629" lon="7.8758619050199625"/><rtept lat="46.61822316452586" lon="7.875893152738569"/><rtept lat="46.61824417128842" lon="7.876041892813899"/><rtept lat="46.61829214952497" lon="7.876450849131921"/><rtept lat="46.618320757822545" lon="7.876492866116281"/><rtept lat="46.61833009779054" lon="7.876557941197021"/><rtept lat="46.61830049184493" lon="7.876589634861558"/><rtept lat="46.618288134820595" lon="7.876685873631338"/><rtept lat="46.61838580418718" lon="7.877056930031996"/><rtept lat="46.6184314976874" lon="7.877227924372132"/><rtept lat="46.618425019814026" lon="7.877249925413033"/><rtept lat="46.618472677475864" lon="7.877325757641344"/><rtept lat="46.61839902341187" lon="7.877359982187291"/><rtept lat="46.618457926912996" lon="7.877420816568342"/><rtept lat="46.61844556475358" lon="7.877518215899116"/><rtept lat="46.618504235815" lon="7.877639405548285"/><rtept lat="46.61868811650496" lon="7.877620003775726"/><rtept lat="46.618930731231394" lon="7.877566256464427"/><rtept lat="46.61906192281756" lon="7.877532498407992"/><rtept lat="46.6191569437883" lon="7.8776385208787465"/><rtept lat="46.61932181874991" lon="7.877781466922469"/><rtept lat="46.61942058469384" lon="7.877867001349257"/><rtept lat="46.61946085300368" lon="7.877993848054541"/><rtept lat="46.61947804478764" lon="7.878094971276474"/><rtept lat="46.619513625437484" lon="7.8781939224146775"/><rtept lat="46.61952292860429" lon="7.878268285006773"/><rtept lat="46.61951791007132" lon="7.8783262809365"/><rtept lat="46.61945431316325" lon="7.878446480470976"/><rtept lat="46.61941862754242" lon="7.878581996029079"/><rtept lat="46.619401326218224" lon="7.878716500331119"/><rtept lat="46.61937321777311" lon="7.878752254374563"/><rtept lat="46.61935204156846" lon="7.8788553872938865"/><rtept lat="46.61929958264727" lon="7.878988444523035"/><rtept lat="46.61926788753872" lon="7.879125152493463"/><rtept lat="46.61928476435727" lon="7.879307524156476"/><rtept lat="46.619374384242704" lon="7.879484684805389"/><rtept lat="46.619446005444075" lon="7.879769647429959"/><rtept lat="46.61951127780993" lon="7.880042951519827"/><rtept lat="46.61958455973522" lon="7.880105067955363"/><rtept lat="46.619766492031694" lon="7.880176195977751"/><rtept lat="46.61983242435334" lon="7.880278878887935"/><rtept lat="46.61991307691025" lon="7.880501238576179"/><rtept lat="46.61994414607833" lon="7.880615747167612"/><rtept lat="46.61995058005748" lon="7.881017416862714"/><rtept lat="46.61997295761314" lon="7.88122305115488"/><rtept lat="46.6203030925237" lon="7.881818893733561"/><rtept lat="46.62040310625311" lon="7.881993825310584"/><rtept lat="46.6204062080177" lon="7.8820182266275935"/><rtept lat="46.62038726785809" lon="7.882063269642795"/><rtept lat="46.62052782467454" lon="7.882293089831218"/><rtept lat="46.62068097264153" lon="7.8825120113492915"/><rtept lat="46.620724689884234" lon="7.882572729242718"/><rtept lat="46.62076343604314" lon="7.8826786762269805"/><rtept lat="46.620770203295336" lon="7.882787843296613"/><rtept lat="46.62082546870741" lon="7.882961250102828"/><rtept lat="46.620856186991524" lon="7.883076417722889"/><rtept lat="46.62089272080878" lon="7.8831347558499765"/><rtept lat="46.62091487475219" lon="7.883191815166087"/><rtept lat="46.62074815168869" lon="7.883202116685646"/><rtept lat="46.62057852774344" lon="7.883254118510113"/><rtept lat="46.62058311881038" lon="7.883306390266918"/><rtept lat="46.620617295916496" lon="7.883354262077911"/><rtept lat="46.62067481742955" lon="7.883563671180831"/><rtept lat="46.620687804760315" lon="7.883716997996029"/><rtept lat="46.62060937211757" lon="7.883746532943839"/><rtept lat="46.62028021773835" lon="7.883926064270046"/><rtept lat="46.620205961988965" lon="7.883909202966615"/><rtept lat="46.62011853909348" lon="7.883957393719305"/><rtept lat="46.61999629923981" lon="7.883949423626405"/><rtept lat="46.61990274650943" lon="7.883962583064917"/><rtept lat="46.61977443483036" lon="7.8839534889290945"/><rtept lat="46.619824326732996" lon="7.8840699734227435"/><rtept lat="46.619909289549476" lon="7.884209961539062"/><rtept lat="46.619961814496754" lon="7.884266109336948"/><rtept lat="46.6199919864186" lon="7.884316269792723"/><rtept lat="46.61995777659309" lon="7.8843054247577165"/><rtept lat="46.61995522042307" lon="7.884346029691524"/><rtept lat="46.62003316319697" lon="7.88444185254807"/><rtept lat="46.62007649811782" lon="7.884600070893602"/><rtept lat="46.62013230110337" lon="7.884635352966726"/><rtept lat="46.620157446462834" lon="7.8847446704726964"/><rtept lat="46.62014839719814" lon="7.884810758449392"/><rtept lat="46.61994158574013" lon="7.884767267154429"/><rtept lat="46.61982241396589" lon="7.884756275535727"/><rtept lat="46.61964839406976" lon="7.88470609044702"/><rtept lat="46.619354600641465" lon="7.884702995823606"/><rtept lat="46.61917158597713" lon="7.884704970161931"/><rtept lat="46.6190328186751" lon="7.884631861829634"/><rtept lat="46.61907693885264" lon="7.884793565912112"/><rtept lat="46.61924675351383" lon="7.885101397775274"/><rtept lat="46.61946772083185" lon="7.885407332049782"/><rtept lat="46.61951912762017" lon="7.885544722874568"/><rtept lat="46.61965934398844" lon="7.885861421754662"/><rtept lat="46.61973492907059" lon="7.885946780153491"/><rtept lat="46.61957659641101" lon="7.885972168777359"/><rtept lat="46.619558011492565" lon="7.886024248269391"/><rtept lat="46.619579471548384" lon="7.886257733370926"/><rtept lat="46.6196205706312" lon="7.886374146867099"/><rtept lat="46.619622667212305" lon="7.886450772748503"/><rtept lat="46.61960019126034" lon="7.886476123148818"/><rtept lat="46.61955151264598" lon="7.88645830936577"/><rtept lat="46.61950219440647" lon="7.886399864839706"/><rtept lat="46.619437524078585" lon="7.886384240424996"/><rtept lat="46.61932708901866" lon="7.886422791755227"/><rtept lat="46.619212840664105" lon="7.88641488238126"/><rtept lat="46.61896837039805" lon="7.88639661009649"/><rtept lat="46.618914006730655" lon="7.886401964064671"/><rtept lat="46.6188923162422" lon="7.886430802678745"/><rtept lat="46.619065748079365" lon="7.8868338478864235"/><rtept lat="46.61922695856065" lon="7.887092864316794"/><rtept lat="46.6191883583254" lon="7.887154063041526"/><rtept lat="46.61913513164615" lon="7.887276659073047"/><rtept lat="46.61904021300734" lon="7.887433730827794"/><rtept lat="46.618891614390236" lon="7.887828304593002"/><rtept lat="46.618853666751754" lon="7.887959661895151"/><rtept lat="46.618816851846425" lon="7.887973285061015"/><rtept lat="46.618812664063604" lon="7.888022000392515"/><rtept lat="46.61865643550757" lon="7.888121685809432"/><rtept lat="46.61850983302169" lon="7.888212164929876"/><rtept lat="46.618358043915684" lon="7.888199297229814"/><rtept lat="46.61824269449455" lon="7.8882679817697126"/><rtept lat="46.6181153213816" lon="7.8883458517324465"/><rtept lat="46.61796099299056" lon="7.888368944361907"/><rtept lat="46.61785927898906" lon="7.8884249735754"/><rtept lat="46.61774207923913" lon="7.888557479942288"/><rtept lat="46.617426685714705" lon="7.888690659508423"/><rtept lat="46.61776972249819" lon="7.889045202178926"/><rtept lat="46.61785243777852" lon="7.889145710464237"/><rtept lat="46.61806441108251" lon="7.889500328237793"/><rtept lat="46.61823071329015" lon="7.8896827834819145"/><rtept lat="46.61822736066472" lon="7.889722219580259"/><rtept lat="46.618160114293055" lon="7.8897518376152025"/><rtept lat="46.61803935368633" lon="7.889774045333267"/><rtept lat="46.61801599059527" lon="7.889821439594824"/><rtept lat="46.61796234778293" lon="7.889846527911218"/><rtept lat="46.61782822698543" lon="7.889811749789996"/><rtept lat="46.61776182564589" lon="7.8898297675368205"/><rtept lat="46.61773685050306" lon="7.889880629969379"/><rtept lat="46.61779300533713" lon="7.890028506559177"/><rtept lat="46.61778238686005" lon="7.890086452888976"/><rtept lat="46.61764795285968" lon="7.890332559628077"/><rtept lat="46.617566004659125" lon="7.890442141579315"/><rtept lat="46.61747778289202" lon="7.8905214928294045"/><rtept lat="46.617392963151715" lon="7.89075060125558"/><rtept lat="46.61734874397973" lon="7.890817551828908"/><rtept lat="46.61730554951561" lon="7.890827637214762"/><rtept lat="46.61726769109389" lon="7.890902765487921"/><rtept lat="46.617203014675965" lon="7.891090256073201"/><rtept lat="46.61738598900008" lon="7.891232859631543"/><rtept lat="46.61745853481682" lon="7.891277572292191"/><rtept lat="46.6176911597002" lon="7.891314608640084"/><rtept lat="46.617762263909164" lon="7.891319846069381"/><rtept lat="46.617823154517694" lon="7.891280891427775"/><rtept lat="46.6178464352915" lon="7.891254390005973"/><rtept lat="46.617882290201834" lon="7.891281385890408"/><rtept lat="46.618288248384005" lon="7.8918883485266695"/><rtept lat="46.61847792846731" lon="7.892182291207048"/><rtept lat="46.618584688781944" lon="7.892264435697164"/><rtept lat="46.618708530945995" lon="7.892271277076535"/><rtept lat="46.61880548445791" lon="7.892407893692723"/><rtept lat="46.61900516551116" lon="7.892435103424676"/><rtept lat="46.61915039478347" lon="7.892489714350635"/><rtept lat="46.6192416476407" lon="7.89255431953072"/><rtept lat="46.6193702702587" lon="7.892765490405424"/><rtept lat="46.61942126205261" lon="7.892804222411727"/><rtept lat="46.61957492166677" lon="7.8927486354931675"/><rtept lat="46.61983844057219" lon="7.892799597338411"/><rtept lat="46.619918991051584" lon="7.892818626614695"/><rtept lat="46.61993240982459" lon="7.892860525967057"/><rtept lat="46.61990963182943" lon="7.892961319369934"/><rtept lat="46.61984672610863" lon="7.893104723461623"/><rtept lat="46.6197952254973" lon="7.8931936681260835"/><rtept lat="46.61972279468563" lon="7.8933207411134205"/><rtept lat="46.61968648664044" lon="7.89340749161687"/><rtept lat="46.619673344048614" lon="7.893496757885595"/><rtept lat="46.61972620917615" lon="7.893805939322046"/><rtept lat="46.61975862599687" lon="7.893893267333809"/><rtept lat="46.61978991446308" lon="7.894062998819563"/><rtept lat="46.61986577312119" lon="7.894278374358554"/><rtept lat="46.61986931973594" lon="7.894590643684149"/><rtept lat="46.61994390203827" lon="7.8946054995546495"/><rtept lat="46.6200160419211" lon="7.8945515521096565"/><rtept lat="46.62013977159861" lon="7.894386607190362"/><rtept lat="46.62032175218516" lon="7.894296865390735"/><rtept lat="46.62054283297779" lon="7.894368371767247"/><rtept lat="46.62078144098993" lon="7.894409201996818"/><rtept lat="46.620948050919374" lon="7.894512752120068"/><rtept lat="46.62086074612321" lon="7.894561929700493"/><rtept lat="46.62082539412648" lon="7.894609223234819"/><rtept lat="46.62063977370925" lon="7.895062676981772"/><rtept lat="46.62056642084636" lon="7.8952199215045535"/><rtept lat="46.620504409002265" lon="7.8953389562939575"/><rtept lat="46.62032701601684" lon="7.895666519252747"/><rtept lat="46.62044949701564" lon="7.895614158691365"/><rtept lat="46.62065277846739" lon="7.895540425483072"/><rtept lat="46.620705966035985" lon="7.89559155154638"/><rtept lat="46.62080504419427" lon="7.895595870173131"/><rtept lat="46.62094065072446" lon="7.895458883871946"/><rtept lat="46.62106659309442" lon="7.895340387647731"/><rtept lat="46.62108302402302" lon="7.895332328875059"/><rtept lat="46.62118990556218" lon="7.895279907241871"/></rte></gpx>